Names,Website,Introduction,Phone Number,Address,Type,Opens At,Municipio
Zibu Acapulco,linktr.ee,"Restaurante en la cima de una colina, con terraza frondosa y vista a la bahía, donde se sirven platos mexicanos y tailandeses.",+52 744 449 6202,"Escénica S/N, Fracc. Glomar, 39887 Acapulco de Juárez, Gro., México",Restaurante, Cierra a las 11:30p.m.,Acapulco de Juárez
Si Señor,,None Found,+52 744 446 5735,"Escénica 28, Fraccionamiento El, Guitarron, 39880 Acapulco de Juárez, Gro., México",Bar restaurante, Cierra a la 1a.m.,Acapulco de Juárez
Paititi del Mar. Restaurante & Relax,paititi.glideapp.io,"Establecimiento al aire libre con jardín; sirven platillos típicos con mariscos, cocteles y vinos.",+52 744 480 0031,"Ignacio Zaragoza 6, La Poza, 39897 Acapulco de Juárez, Gro., México",Marisquería,,Acapulco de Juárez
100% Natural Café del Muelle,100natural.com,None Found,+52 744 480 1450,"Av Costera Miguel Alemán S/N, Col. Centro, 39300 Acapulco de Juárez, Gro., México",Restaurante de comida saludable, Cierra a las 11p.m.,Acapulco de Juárez
Restaurante en Acapulco - Café al Mar,triamar.com,"Restaurante con ambiente tranquilo frente a la playa en el que se ofrecen tapas, pastas, postres, cerveza y vino.",+52 744 175 8196,"Plaza Marbella, Av Costera Miguel Alemán SN-Local 28, Farallon, 39850 Acapulco de Juárez, Gro., México",Restaurante, Cierra a las 12a.m.,Acapulco de Juárez
Restaurant La Fogata,,None Found,+52 744 482 3395,"Calle Tadeo Redondo 5, Centro, 39300 Acapulco de Juárez, Gro., México",Restaurante mexicano, Cierra a las 10p.m.,Acapulco de Juárez
Carmenère Acapulco Restaurante,facebook.com,None Found,+52 744 201 3031,"Av Costera Miguel Alemán 3007, Fracc Costa Azul, Costa Azul, 39680 Acapulco de Juárez, Gro., México",Restaurante de alta cocina, Cierra a las 11p.m.,Acapulco de Juárez
Restaurant La Parrilla de Gardel Acapulco,,None Found,+52 744 446 6118,"Escénica S/N, Guitarron, 39880 Acapulco de Juárez, Gro., México",Bar restaurante, Cierra a las 12a.m.,Acapulco de Juárez
La Finca Acapulco,,None Found,+52 744 433 4362,"Blvd. de las Naciones 1300, La Poza, 39370 Acapulco de Juárez, Gro., México",Restaurante mexicano, Cierra a las 10p.m.,Acapulco de Juárez
Texas Ribs,texasribs.com.mx,None Found,+52 744 484 3348,"Emporio, Av Costera Miguel Alemán s/n, Fracc Magallanes, Magallanes, 39670 Acapulco de Juárez, Gro., México",Restaurante americano, Cierra a las 11p.m.,Acapulco de Juárez
MI PIACI,mipiaci.mx,None Found,+52 744 482 5555,"PLAZA ALVAREZ ZOCALO 6, CENTRO, 39300 Acapulco de Juárez, Gro., México",Restaurante italiano, 9:30p.m. ,Acapulco de Juárez
Sirocco Acapulco,sirocco.com.mx,Legendario restaurant de cocina española y del mar en edificio de arquitectura vanguardista con vista al mar.,+52 744 433 3077,"Escénica 120, Pichilingue, 39880 Acapulco de Juárez, Gro., México",Restaurante de cocina española, Cierra a las 11p.m.,Acapulco de Juárez
Tony's,tonysacapulco.com,None Found,+52 744 446 5492,"Escénica s/n, Guitarron, 39880 Acapulco de Juárez, Gro., México",Restaurante, Cierra a la 1a.m.,Acapulco de Juárez
Campomar,betohernandez30.wixsite.com,None Found,+52 744 439 6100,"Antón de Alaminos S/N, Fracc Magallanes, Magallanes, 39670 Acapulco de Juárez, Gro., México",Restaurante, Cierra a las 11p.m.,Acapulco de Juárez
La Vista Restaurante,facebook.com,None Found,+52 744 446 5550,"Guitarron, 39880 Acapulco de Juárez, Gro., México",Restaurante italiano, Cierra a las 12a.m.,Acapulco de Juárez
Fisher's Acapulco,fishers.com.mx,None Found,+52 744 484 9140,"Galerías Diana, Av Costera Miguel Alemán 1926-Local T2, Fracc Magallanes, Magallanes, 39670 Acapulco de Juárez, Gro., México",Restaurante, Cierra a las 10p.m.,Acapulco de Juárez
Antigua Acapulco,antiguaacapulco.com,None Found,+52 744 484 3484,"Costera Miguel Alemán, Fracc. Condesa, 39680 Acapulco de Juárez, Gro., México",Bar restaurante, Cierra a las 11:30p.m.,Acapulco de Juárez
Celeiro Brazza,,Sabores brasileños y cortes de carne en espadas en un sitio refinado con ladrillo expuesto y cava de vinos.,+52 744 433 4224,"Blvd. de las Naciones 1221, Playa Diamante, Granjas del Marqués, 39890 Acapulco de Juárez, Gro., México",Restaurante brasileño, Cierra a las 12a.m.,Acapulco de Juárez
Taquitos Acapulco,,None Found,+52 744 484 7563,"Av Costera Miguel Alemán s/n, La Condesa, 39690 Acapulco de Juárez, Gro., México",Taquería, Cierra a la 1a.m.,Acapulco de Juárez
Suntory Acapulco,,"Sushi y especialidades de Japón en un espacio sofisticado con pisos de madera, terraza larga y jardín verde.",+52 744 484 8766,"Av Costera Miguel Alemán 36, Fracc Costa Azul, Costa Azul, 39850 Acapulco de Juárez, Gro., México",Restaurante japonés, Cierra a las 11p.m.,Acapulco de Juárez
Jule Restaurante Buffet Fast Grill de Espadas Brasileñas,juleacapulco.com,None Found,+52 744 222 6440,"Av Costera Miguel Alemán No. 1, Costa Azul, 39850 Acapulco de Juárez, Gro., México",Buffet libre, Cierra a las 11p.m.,Acapulco de Juárez
La Barra 520,facebook.com,None Found,+52 744 485 7279,"Av Costera Miguel Alemán 186, Fracc Magallanes, Magallanes, 39670 Acapulco de Juárez, Gro., México",Marisquería, Cierra a las 10p.m.,Acapulco de Juárez
El Zorrito,facebook.com,Especialidades de México son ofrecidos en un espacio abierto con mesas al aire libre y mariachis.,+52 744 485 7914,"Av Costera Miguel Alemán 212, Fracc Magallanes, Magallanes, 39670 Acapulco de Juárez, Gro., México",Restaurante mexicano,,Acapulco de Juárez
Sabor Guerrero,,None Found,+52 744 484 5110,"Manzana 16, lote 8 Mz 16, lte 8, Comandante Baresford, Costa Azul, 39850 Acapulco de Juárez, Gro., México",Restaurante mexicano, Abre a las 8:30a.m. del dom,Acapulco de Juárez
El Amigo Miguel,restaurantwebx.com,Restaurante popular especializado en mariscos con ambiente tranquilo y vistas a la bahía.,+52 744 486 2868,"Av Costera Miguel Alemán s/n, Hornos, 39355 Acapulco de Juárez, Gro., México",Marisquería, Abre a las 9a.m. del dom,Acapulco de Juárez
Mariscos El Sirenito,m.facebook.com,Restaurante luminoso y sencillo con porciones generosas de mariscos acompañados de cocteles y cerveza.,+52 744 443 2488,"Cam. Viejo 1, Granjas del Marqués, 39890 Acapulco de Juárez, Gro., México",Marisquería, Abre a las 11a.m. del dom,Acapulco de Juárez
Restaurante de Mariscos en Acapulco - Restaurante Buzo's Cristóbal Colón,facebook.com,Gastronomía del mar estilo Guerrero en un espacio informal con techo alto de palmas y decoraciones marinas.,,"C. Cristobal Colon 34, Fracc Magallanes, Magallanes, 39670 Acapulco de Juárez, Gro., México",Marisquería, Abre a las 9a.m. del dom,Acapulco de Juárez
Buzos Costera - Restaurante de Mariscos en Acapulco,facebook.com,None Found,,"Av costera Miguel Alemán S/n Hornos sin numero, 39355 Acapulco de Juárez, Gro., México",Marisquería, Abre a las 9a.m. del dom,Acapulco de Juárez
El Jacalito,,None Found,+52 744 300 2005,"Interior, Gonzalo de Sandoval 26, Magallanes, 39670 Acapulco de Juárez, Gro., México",Restaurante mexicano, Cierra a las 11p.m.,Acapulco de Juárez
Il Forno Di Gio,vidanta.com,None Found,+52 744 469 6076,"Costera de las Palmas s/n, Fracc. Playa Diamante, 39897 Acapulco de Juárez, Gro., México",Restaurante italiano, Cierra a las 11p.m.,Acapulco de Juárez
El Jaguar Restaurante,,Restaurant decorado con artesanía mexicana que ofrece un menú regional en luminoso comedor con vista al mar.,+52 744 481 4099,"Av Costera Miguel Alemán No 79-L-3, Deportivo, 39690 Acapulco de Juárez, Gro., México",Restaurante mexicano, Abre a las 8a.m. del dom,Acapulco de Juárez
Che Pibe,,None Found,+52 744 481 0913,"Av Costera Miguel Alemán 54-Int. 3, Fracc Costa Azul, Costa Azul, 39850 Acapulco de Juárez, Gro., México",Restaurante argentino, Cierra a las 11p.m.,Acapulco de Juárez
La Casa de los Abuelos - Costa Azul,casadelosabuelos.com.mx,None Found,+52 744 481 1382,"Av Costera Miguel Alemán 2909, Fracc Costa Azul, Costa Azul, 39850 Acapulco de Juárez, Gro., México",Panadería, Cierra a las 10:30p.m.,Acapulco de Juárez
Las Gaviotas 2,blogspot.mx,"Clásica palapa de playa con decorado rústico y cálido para probar mariscos, cocteles de camarón y cervezas.",+52 744 444 5182,"Costera Benito Juárez 13, Alfredo V Bonfil, Aeropuerto, 39893 Acapulco de Juárez, Gro., México",Restaurante mexicano, Abre a las 12p.m. del dom,Acapulco de Juárez
Las Gaviotas 2,blogspot.mx,"Clásica palapa de playa con decorado rústico y cálido para probar mariscos, cocteles de camarón y cervezas.",+52 744 444 5182,"Costera Benito Juárez 13, Alfredo V Bonfil, Aeropuerto, 39893 Acapulco de Juárez, Gro., México",Restaurante mexicano, Abre a las 12p.m. del dom,Acapulco de Juárez
Restaurante Bambuco,hotelelcano.com.mx,None Found,+52 744 435 1500,"Av Costera Miguel Alemán 75, Deportivo, 39690 Acapulco de Juárez, Gro., México",Buffet libre, Cierra a las 10p.m.,Acapulco de Juárez
"Restaurante Chile, Maíz y Frijol",,"Sitio relajado con balcón, se sirven desayunos y comidas mexicanas como tacos y platos de mariscos.",+52 744 481 0300,"Plaza Condesa, Av Costera Miguel Alemán 116, Deportivo, 39690 Acapulco de Juárez, Gro., México",Restaurante mexicano, Abre a las 8a.m. del dom,Acapulco de Juárez
LUPE DE ARENA RESTAURANTE Y CLUB DE PLAYA,,Restaurante informal al aire libre con vistas a la playa en el que se ofrecen bocadillos locales y cocteles de mezcal.,+52 744 149 0841,"Fragata Yucatán 210-Int. 9, Fracc Costa Azul, Costa Azul, 39850 Acapulco de Juárez, Gro., México",Restaurante, Abre a las 9a.m. del dom,Acapulco de Juárez
Azul Restaurante,,None Found,,"Costera de las Palmas s/n, Granjas del Marqués, 39890 Acapulco de Juárez, Gro., México",Restaurante mexicano, Cierra a las 11p.m.,Acapulco de Juárez
El Anzuelo Beach Restaurant,,None Found,,"Av Costera Miguel Alemán 201, Hornos, 39355 Acapulco de Juárez, Gro., México",Marisquería, Abre a las 10a.m. del dom,Acapulco de Juárez
Tertulia Restaurante,linktr.ee,None Found,+52 744 578 1249,"Horacio Nelson 59, Fracc Costa Azul, Costa Azul, 39850 Acapulco de Juárez, Gro., México",Restaurante, Cierra a las 10p.m.,Acapulco de Juárez
La Cabaña de caleta,sites.google.com,"Clásico restaurante playero de construcción rústica, frecuentado por sus mariscos y su ambiente informal.",+52 744 469 7919,"Playa Caleta fraccionamiento, Las Playas, 39390 Acapulco de Juárez, Gro., México",Restaurante mexicano, Abre a las 9a.m. del dom,Acapulco de Juárez
100% Natural Magallanes,100natural.com,None Found,+52 744 485 5279,"Av Costera Miguel Alemán 200, Fracc, Magallanes, 39670 Acapulco de Juárez, Gro., México",Restaurante de comida saludable, Cierra a las 11p.m.,Acapulco de Juárez
Punto 55,,None Found,+52 55 7992 9944,"Av Costera Miguel Alemán 1632-Int. B4, Fracc Magallanes, Magallanes, 39670 Acapulco de Juárez, Gro., México",Restaurante,,Acapulco de Juárez
Shu Acapulco,shu.com.mx,None Found,+52 744 462 2001,"Blvd. de las Naciones 1813, Col Diamante, 39760 Acapulco de Juárez, Gro., México",Restaurante japonés, Cierra a las 12a.m.,Acapulco de Juárez
Mizumi,,None Found,,"Blvd. De Las Naciones s/n, Plan de los Amates, 39931 Acapulco de Juárez, Gro., México",Restaurante de alta cocina, Cierra a las 11p.m.,Acapulco de Juárez
La Casa de la Pasta,restaurantwebexperts.com,"Sencillo lugar con terraza y atmósfera relajada en donde se ofrecen pastas, pizzas y especialidades italianas.",+52 744 466 2683,"Plaza comercial Villas Palma Diamante, Blvd. de las Naciones 504-36, Granjas del Marqués, 39890 Acapulco de Juárez, Gro., México",Restaurante italiano, 9:30p.m. ,Acapulco de Juárez
100% Natural Condesa,100natural.com,None Found,+52 744 484 6447,"Av Costera Miguel Alemán 112, Deportivo, 39690 Acapulco de Juárez, Gro., México",Restaurante de comida saludable, Cierra a las 11p.m.,Acapulco de Juárez
Mario Canario,mariocanario.mx,None Found,+52 744 436 1252,"Blvd. de las Naciones Lote 16, La Poza, 39906 Acapulco de Juárez, Gro., México",Restaurante, 9p.m. ,Acapulco de Juárez
La Casa de Tere Acapulco,facebook.com,"Relajado restaurante familiar con terraza para probar pozole guerrerense, mole y antojitos mexicanos.",+52 744 485 7735,"Capitán Vasco de Gama 320, Fracc Costa Azul, Costa Azul, 39850 Acapulco de Juárez, Gro., México",Restaurante, Abre a las 8:30a.m. del dom,Acapulco de Juárez
Italianni's Acapulco Galerías Diana,italiannis.com.mx,None Found,+52 744 481 0378,"Galerías Diana, Av Costera Miguel Alemán 1926, Fracc Magallanes, Magallanes, 39670 Acapulco de Juárez, Gro., México",Restaurante italiano, Cierra a las 11p.m.,Acapulco de Juárez
Italianni's Acapulco Galerías Diana,italiannis.com.mx,None Found,+52 744 481 0378,"Galerías Diana, Av Costera Miguel Alemán 1926, Fracc Magallanes, Magallanes, 39670 Acapulco de Juárez, Gro., México",Restaurante italiano, Cierra a las 11p.m.,Acapulco de Juárez
Restaurante Koko's,,None Found,+52 744 166 9365,"José María Iglesias 11B, Zona Urbana 49, 39300 Acapulco de Juárez, Gro., México",Restaurante mexicano, Abre a las 8:30a.m. del dom,Acapulco de Juárez
Praya,,None Found,+52 744 436 8037,"Escénica 28, Guitarron, 39880 Acapulco de Juárez, Gro., México",Restaurante, Cierra a la 1a.m.,Acapulco de Juárez
Hello Wok,,None Found,+52 744 330 3060,"Av Costera Miguel Alemán 125-local 24, Fracc Magallanes, Magallanes, 39670 Acapulco de Juárez, Gro., México",Restaurante, Cierra a las 10p.m.,Acapulco de Juárez
Fonda para cenar,,None Found,,"Cda. de Rancho Grande 77E, Las Playas, 39390 Acapulco de Juárez, Gro., México",Restaurante, Cierra a las 12p.m. del dom,Acapulco de Juárez
Casa nostra,,None Found,+52 221 703 2048,"Av Costera Miguel Alemán 3, Fracc Magallanes, Farallon, 39670 Acapulco de Juárez, Gro., México",Restaurante italiano,,Acapulco de Juárez
Forza Italia Ristorante,,None Found,+52 744 484 8877,"Av Costera Miguel Alemán 82, Deportivo, 39690 Acapulco de Juárez, Gro., México",Restaurante italiano, Cierra a las 10p.m.,Acapulco de Juárez
Forza Italia Ristorante,,None Found,+52 744 484 8877,"Av Costera Miguel Alemán 82, Deportivo, 39690 Acapulco de Juárez, Gro., México",Restaurante italiano, Cierra a las 10p.m.,Acapulco de Juárez
Don camarón,,None Found,+52 744 433 7703,"Blvrd Cabo Marqués 1007, Punta Diamante, 39890 Acapulco de Juárez, Gro., México",Restaurante,,Acapulco de Juárez
Barbarroja Acapulco,,None Found,+52 744 433 1771,"Av Costera Miguel Alemán 124, Farallon, 39690 Acapulco de Juárez, Gro., México",Bar restaurante, Cierra a las 2a.m.,Acapulco de Juárez
La Norteña Acapulco,,None Found,+52 744 516 2133,"COSTERA MIGUEL ALEMAN 8 S N ESQ E, El Esclavo, 39683 Acapulco de Juárez, Gro., México",Bar restaurante, Cierra a las 4a.m.,Acapulco de Juárez
Toks Acapulco Costera,toks.com.mx,None Found,+52 744 481 2564,"Av Costera Miguel Alemán 2803, Deportivo, 39690 Acapulco de Juárez, Gro., México",Restaurante mexicano, 9p.m. ,Acapulco de Juárez
Vips Acapulco Gran Plaza,vips.com.mx,None Found,+52 44868572,"Av Costera Miguel Alemán 1626, Fracc Magallanes, Magallanes, 39670 Acapulco de Juárez, Gro., México",Restaurante mexicano, Cierra a las 11p.m.,Acapulco de Juárez
Bocana Beach Papagayo,,None Found,+52 744 486 3334,"Av. Costera Miguel Alemán s/n, Hornos, 39350 Acapulco de Juárez, Gro., México",Marisquería, Abre a las 8a.m. del dom,Acapulco de Juárez
Bocana Beach Papagayo,,None Found,+52 744 486 3334,"Av. Costera Miguel Alemán s/n, Hornos, 39350 Acapulco de Juárez, Gro., México",Marisquería, Abre a las 8a.m. del dom,Acapulco de Juárez
Santa Lucía Restaurante,menuporfavor.com,None Found,+52 744 125 0185,"Plaza Marbella, Av Costera Miguel Alemán s/n-Oficina 5B, Fracc Magallanes, Marbella, 39300 Acapulco de Juárez, Gro., México",Restaurante, Cierra a las 11p.m.,Acapulco de Juárez
Restaurante Bellavista Las Brisas Acapulco,lasbrisashotels.com.mx,None Found,+52 744 469 6900,"Vientos Bolinas, Fracc Las Brisas 1, Las Brisas, 39867 Acapulco de Juárez, Gro., México",Restaurante, Abre a las 9a.m. del dom,Acapulco de Juárez
Vips Acapulco Condesa,vips.com.mx,None Found,+52 800 900 8477,"Av Costera Miguel Alemán 1252, Deportivo, 39580 Acapulco de Juárez, Gro., México",Restaurante mexicano, Cierra a las 11p.m.,Acapulco de Juárez
La Jaiba Locca Diamante,lajaibalocca.com.mx,None Found,+52 744 462 1582,"Blvd. de Las Naciones 1801, La Zanja, 39906 Acapulco de Juárez, Gro., México",Marisquería, 9p.m. ,Acapulco de Juárez
Restaurante El Morrito,,None Found,,"Hernán Cortés s/n, Fracc Magallanes, Magallanes, 39670 Acapulco de Juárez, Gro., México",Marisquería, Abre a las 11a.m. del dom,Acapulco de Juárez
Tóxica Snack & Bar,,None Found,,"Av Costera Miguel Alemán 34, Fracc Costa Azul, Costa Azul, 39850 Acapulco de Juárez, Gro., México",Bar restaurante, Cierra a las 4a.m.,Acapulco de Juárez
Tóxica Snack & Bar,,None Found,,"Av Costera Miguel Alemán 34, Fracc Costa Azul, Costa Azul, 39850 Acapulco de Juárez, Gro., México",Bar restaurante, Cierra a las 4a.m.,Acapulco de Juárez
Restaurante Gaviotas,facebook.com,None Found,+52 744 469 5004,"Av Costera Miguel Alemán 123, Fracc Magallanes, Magallanes, 39670 Acapulco de Juárez, Gro., México",Buffet libre, Cierra a las 10p.m.,Acapulco de Juárez
Tabasco Beach,acapulcomalibu.com,None Found,+52 744 484 1070,"Av Costera Miguel Alemán 20-s/n, Deportivo, 39690 Acapulco de Juárez, Gro., México",Marisquería,,Acapulco de Juárez
La Granja,,Granja de animales con restaurante campestre que sirve comida mexicana y mariscos en un ambiente familiar.,+52 744 466 0259,"Blvd. de las Naciones 1221, Playa Diamante, La Poza, 39370 Acapulco de Juárez, Gro., México",Pub restaurante, Abre a las 9a.m. del dom,Acapulco de Juárez
100% Natural Costa Azul,100natural.com,None Found,+52 744 484 8440,"Av Costera Miguel Alemán 3126, Fracc Costa Azul, Costa Azul, 39850 Acapulco de Juárez, Gro., México",Restaurante de comida saludable, Abre a las 8a.m. del dom,Acapulco de Juárez
Buffet W Costera,,None Found,+52 744 486 6637,"Av Costera Miguel Alemán 1636, Fracc Magallanes, Magallanes, 39200 Acapulco de Juárez, Gro., México",Restaurante, Abre a las 8a.m. del dom,Acapulco de Juárez
RESTAURANT LA HERRADURA,,None Found,+52 744 486 0901,"Cerón N, Álvaro de Saavedra 8, Fraccionamiento, Magallanes, 39670 Acapulco de Juárez, Gro., México",Restaurante, 9p.m. ,Acapulco de Juárez
RESTAURANT LA HERRADURA,,None Found,+52 744 486 0901,"Cerón N, Álvaro de Saavedra 8, Fraccionamiento, Magallanes, 39670 Acapulco de Juárez, Gro., México",Restaurante, 9p.m. ,Acapulco de Juárez
Carbon Acapulco Restaurante,facebook.com,None Found,+52 744 172 7538,"Antón de Alaminos 4, Fracc Magallanes, Magallanes, 39670 Acapulco de Juárez, Gro., México",Restaurante mexicano, Cierra a las 10p.m.,Acapulco de Juárez
Restaurante Nuevo Gusto,nuevogusto.com,None Found,+52 744 481 0846,"Teniente, Mateo F. Maury 19, Fracc Costa Azul, Costa Azul, 39850 Acapulco de Juárez, Gro., México",Restaurante, Abre a las 8a.m. del dom,Acapulco de Juárez
Amalfi Acapulco,,None Found,+52 744 352 1998,"Escénica 1007, Fracc Marina Brisas, Las Brisas, 39867 Acapulco de Juárez, Gro., México",Restaurante, Cierra a las 11p.m.,Acapulco de Juárez
La Casa de los Abuelos - Zocalo,casadelosabuelos.com.mx,None Found,+52 744 688 6675,"Plaza Álvarez 6, Centro, 39300 Acapulco de Juárez, Gro., México",Restaurante, Cierra a las 10:30p.m.,Acapulco de Juárez
El Chaneque,,None Found,+52 744 485 0701,"Hernán Cortés s/n, Fracc Magallanes, Magallanes, 39670 Acapulco de Juárez, Gro., México",Marisquería, Cierra a las 11p.m.,Acapulco de Juárez
Los Anafres,,None Found,+52 744 484 5841,"Avenida Universidad S/N, Fracc Magallanes, Rodrigo de Triana, 39679 Acapulco de Juárez, Gro., México",Restaurante, Abre a las 8a.m. del dom,Acapulco de Juárez
Los Anafres,,None Found,+52 744 484 5841,"Avenida Universidad S/N, Fracc Magallanes, Rodrigo de Triana, 39679 Acapulco de Juárez, Gro., México",Restaurante, Abre a las 8a.m. del dom,Acapulco de Juárez
Vips Acapulco Diana,vips.com.mx,None Found,+52 44813167,"Av Costera Miguel Alemán 1626, Fracc Magallanes, Magallanes, 39670 Acapulco de Juárez, Gro., México",Restaurante mexicano, Cierra a las 11p.m.,Acapulco de Juárez
Angels House Acapulco,,None Found,+52 744 484 7976,"Acapulco - Aeropuerto Acapulco 95, Deportivo, 39690 Acapulco de Juárez, Gro., México",Bar restaurante, Cierra a las 3a.m.,Acapulco de Juárez
El Cuatete Enamorado,facebook.com,None Found,+52 744 262 6877,"Av Niños Héroes, Progreso, 39350 Acapulco de Juárez, Gro., México",Marisquería, Abre a las 12:30p.m. del dom,Acapulco de Juárez
Celeste Beach House,facebook.com,None Found,+52 744 466 0658,"P.º del Club 7, Brisas del Marqués, 39890 Acapulco de Juárez, Gro., México",Restaurante, Abre a las 10a.m. del dom,Acapulco de Juárez
El Gran Recuerdo,facebook.com,None Found,+52 744 481 2749,"Av Costera Miguel Alemán s/n, Fracc Magallanes, Marbella, 39450 Acapulco de Juárez, Gro., México",Restaurante mexicano, Cierra a las 11p.m.,Acapulco de Juárez
PIZZERÍA RESTAURANTE NAPOLI,facebook.com,None Found,+52 744 484 0259,"Plaza Marbella, Av Costera Miguel Alemán 41, Fracc Magallanes, Deportivo, 39690 Acapulco de Juárez, Gro., México",Restaurante italiano, Cierra a las 11p.m.,Acapulco de Juárez
PIZZERÍA RESTAURANTE NAPOLI,facebook.com,None Found,+52 744 484 0259,"Plaza Marbella, Av Costera Miguel Alemán 41, Fracc Magallanes, Deportivo, 39690 Acapulco de Juárez, Gro., México",Restaurante italiano, Cierra a las 11p.m.,Acapulco de Juárez
Restaurant Mar & Tierra Buffet,,None Found,+52 744 484 6022,"Vicente Yáñez Pinzón 274, Fracc Magallanes, Magallanes, 39670 Acapulco de Juárez, Gro., México",Marisquería, Cierra a las 10p.m.,Acapulco de Juárez
Restaurant El Oaxaqueño,,None Found,+52 744 263 9002,"Av. Juan Sebastián El Cano 14, Hornos, 39850 Acapulco de Juárez, Gro., México",Marisquería, Cierra a las 12a.m.,Acapulco de Juárez
El Morro Restaurante,facebook.com,None Found,+52 744 467 0609,"Costera Miguel Alemán S/N Local 28, En Plaza Marbella a nivel de playa, Fracc. Condesa, 39690 Acapulco de Juárez, Gro., México",Bar restaurante, Abre a las 10a.m. del dom,Acapulco de Juárez
Carlos'n Charlie's,carlosandcharlies.com,Un atmósfera festiva caracteriza a este popular restaurant bar que sirve comida mexicana y estadounidense.,+52 744 462 2101,"Blvd. de las Naciones 1813, Playa Diamante, Aeropuerto, 39897 Acapulco de Juárez, Gro., México",Restaurante,,Acapulco de Juárez
Restaurant Karabali,,None Found,+52 744 132 5107,"Av Costera Miguel Alemán 179, Hornos, 39355 Acapulco de Juárez, Gro., México",Restaurante mexicano, Abre a las 2:30p.m. del jue,Acapulco de Juárez
Restaurant Karabali,,None Found,+52 744 132 5107,"Av Costera Miguel Alemán 179, Hornos, 39355 Acapulco de Juárez, Gro., México",Restaurante mexicano, Abre a las 2:30p.m. del jue,Acapulco de Juárez
Arena GNP Seguros,mundoimperial.com,None Found,+52 744 435 1795,"Booulevard de las Naciones s/n, Granjas del Marqués, 39890 Acapulco de Juárez, Gro., México",Estadio,,Acapulco de Juárez
Arena GNP Seguros,mundoimperial.com,None Found,+52 744 435 1795,"Booulevard de las Naciones s/n, Granjas del Marqués, 39890 Acapulco de Juárez, Gro., México",Estadio,,Acapulco de Juárez
Casa Azul,m.facebook.com,None Found,+52 744 254 4905,"Av Costera Miguel Alemán, Hornos, 39355 Acapulco de Juárez, Gro., México",Restaurante, Abre a las 10a.m. del dom,Acapulco de Juárez
Chi Palace,chi-palace.com,None Found,+52 744 485 4073,"Vasco Núñez de Balboa 509, Hornos, 39355 Acapulco de Juárez, Gro., México",Restaurante chino, 9p.m. ,Acapulco de Juárez
Kalei Acapulco Beach Club,instagram.com,None Found,+52 744 453 9612,"Hernán Cortés S/N, Fracc Magallanes, Magallanes, 39670 Acapulco de Juárez, Gro., México",Restaurante, Cierra a las 10p.m.,Acapulco de Juárez
Esmirna del Mar,,None Found,+52 744 444 6069,"39936 Acapulco de Juárez, Gro., México",Marisquería, Abre a las 10a.m. del dom,Acapulco de Juárez
Tío Alex Mariscos y Carnes,facebook.com,None Found,+52 744 484 3656,"Av Costera Miguel Alemán 111, Deportivo, 39690 Acapulco de Juárez, Gro., México",Marisquería, Cierra a las 11:30p.m.,Acapulco de Juárez
Tío Alex Mariscos y Carnes,facebook.com,None Found,+52 744 484 3656,"Av Costera Miguel Alemán 111, Deportivo, 39690 Acapulco de Juárez, Gro., México",Marisquería, Cierra a las 11:30p.m.,Acapulco de Juárez
La barra Acapulco,,None Found,+52 744 135 1664,"Av Costera Miguel Alemán 179, Hornos, 39355 Acapulco de Juárez, Gro., México",Marisquería, Abre a las 10a.m. del dom,Acapulco de Juárez
La barra Acapulco,,None Found,+52 744 135 1664,"Av Costera Miguel Alemán 179, Hornos, 39355 Acapulco de Juárez, Gro., México",Marisquería, Abre a las 10a.m. del dom,Acapulco de Juárez
Coco Loco Beach Club,,None Found,+52 744 485 0701,"Hernán Corteéz s/n, Fracc Magallanes, 39670 Acapulco de Juárez, Gro., México",Bar restaurante, Abre a las 9a.m. del dom,Acapulco de Juárez
Club La Concha,lasbrisashotels.com.mx,None Found,,"Laconcha, Las Brisas, 39888 Acapulco de Juárez, Gro., México",Restaurante, Abre a las 12p.m. del dom,Acapulco de Juárez
Primos Restaurante - Pizzería,,None Found,+52 744 156 0595,"Av Costera Miguel Alemán 149, Fracc Magallanes, Magallanes, 39670 Acapulco de Juárez, Gro., México",Pizzería, Cierra a las 11p.m.,Acapulco de Juárez
El Caracol,,None Found,+52 744 190 8142,"Av. Costera Miguel Alemán s/n, Magallanes, 39670 Acapulco de Juárez, Gro., México",Marisquería, Cierra a las 11p.m.,Acapulco de Juárez
Harry's Steakhouse & Raw Bar,harrys.com.mx,"Comedor casual decorado en madera en donde se ofrecen empanadas, cortes a la parrilla y barra de mariscos.",+52 744 462 0600,"Blvd. de las Naciones 18-SA-06a, Aeropuerto, 39760 Acapulco de Juárez, Gro., México",Restaurante especializado en filetes,,Acapulco de Juárez
Harry's Steakhouse & Raw Bar,harrys.com.mx,"Comedor casual decorado en madera en donde se ofrecen empanadas, cortes a la parrilla y barra de mariscos.",+52 744 462 0600,"Blvd. de las Naciones 18-SA-06a, Aeropuerto, 39760 Acapulco de Juárez, Gro., México",Restaurante especializado en filetes,,Acapulco de Juárez
UMAMI Sushi Bar,umamimx.com,None Found,+52 744 484 7988,"Cristóbal Colón 100, Fracc Costa Azul, Costa Azul, 39850 Acapulco de Juárez, Gro., México",Restaurante de sushi, Cierra a las 11p.m.,Acapulco de Juárez
Restaurant Bar Compadre Noilo,compadrenoilo.blogspot.mx,None Found,+52 74444445009,"Costera Benito Juárez s/n, Bonfil, Acapulco de Juárez, Gro., México",Marisquería, Abre a las 10a.m. del dom,Acapulco de Juárez
Restaurante y Pozolería La Chilapeña,,None Found,+52 744 482 0498,"Av 5 de Mayo 36, Centro, 39300 Acapulco de Juárez, Gro., México",Restaurante mexicano, Abre a la 1p.m. del dom,Acapulco de Juárez
El Nido Restaurante Acapulco,facebook.com,None Found,+52 744 533 8626,"Av Cuauhtémoc, Parque Ignacio Manuel Altamirano, 39355 Acapulco de Juárez, Gro., México",Restaurante, Abre a las 8a.m. del dom,Acapulco de Juárez
Cosecha,,None Found,+52 744 427 4136,"Capitán Vasco de Gama 5, Fracc Costa Azul, Costa Azul, 39850 Acapulco de Juárez, Gro., México",Restaurante, Abre a las 8a.m. del dom,Acapulco de Juárez
Oleaje Acapulco,,None Found,+52 55 8611 2917,"Av Costera Miguel Alemán 111, Farallon, 39690 Acapulco de Juárez, Gro., México",Restaurante, Cierra a las 12a.m.,Acapulco de Juárez
