Names,Website,Introduction,Phone Number,Address,Type,Opens At,Municipio
Restaurante Oaxakita,,Restaurante relajado de comida oaxaqueña con platillos abundantes de carne y nachos.,+52 449 580 3465,"Av. Las Américas 1738, Valle Dorado, 20235 Aguascalientes, Ags., México",Restaurante, Cierra a las 11p.m.,Aguascalientes
Rincón Maya,,None Found,+52 449 916 7574,"Abasolo 113, Barrio del Encino, 20240 Aguascalientes, Ags., México",Restaurante mexicano, Cierra a las 11p.m.,Aguascalientes
Mochomos Aguascalientes,mochomos.mx,None Found,+52 449 965 5552,"Av Independencia, Desarrollo Especial Galerías, 20124 Aguascalientes, Ags., México",Restaurante, Cierra a las 12a.m.,Aguascalientes
El Almacén del Bife,almacendelbife.com,Un comedor rústico con paredes de ladrillo expuesto para carnes asadas y sabores de Italia y Argentina.,+52 449 962 6022,"Blvd. Luis Donaldo Colosio Murrieta 600, Villas de San Nicolás, 20115 Aguascalientes, Ags., México",Restaurante argentino, Cierra a las 12a.m.,Aguascalientes
Las Costillas de Sancho,lascostillasdesancho.com.mx,None Found,+52 449 912 9212,"Av. Aguascalientes Nte 402, Bosques del Prado Nte., 20127 Aguascalientes, Ags., México",Bar restaurante, Cierra a las 2a.m.,Aguascalientes
Casa del Fuego,casadelfuego.com.mx,"Lugar moderno con comedor en la terraza sirve comida italiana tradicional como paninis, pizzas y pastas.",+52 449 251 3900,"San Julián 902, Jardines de la Concepción I, 20120 Aguascalientes, Ags., México",Restaurante italiano, Cierra a las 11p.m.,Aguascalientes
messicana,,"Restaurante rústico y encantador en el que se sirven cocteles, filetes, mariscos, tacos y pizzas, además de desayunos.",+52 449 331 9787,"Av. Francisco I. Madero 513, Zona Centro, 20000 Aguascalientes, Ags., México",Restaurante,,Aguascalientes
La Mestiza Yucateca,,None Found,+52 449 915 9302,"Abasolo 117, Barrio del Encino, 20240 Aguascalientes, Ags., México",Restaurante mexicano, Abre a las 8a.m. del dom,Aguascalientes
La Mestiza Yucateca,,None Found,+52 449 915 9302,"Abasolo 117, Barrio del Encino, 20240 Aguascalientes, Ags., México",Restaurante mexicano, Abre a las 8a.m. del dom,Aguascalientes
Restaurant La Estación,,Comedor colorido con vista a una plaza que tiene fuentes danzantes. Se sirve comida tradicional mexicana.,+52 449 918 6664,"28 de Agosto No.210, Barrio de la Estación, 20259 Aguascalientes, Ags., México",Restaurante mexicano, Abre a las 9a.m. del dom,Aguascalientes
Garufa Aguascalientes Sur,facebook.com,None Found,+52 449 914 9147,"Centro Comercial El Patio Jose María Chavez, Av Aguascalientes Sur esquina, Agricultura, 20324 Aguascalientes, Ags., México",Restaurante argentino, Cierra a la 1:30a.m.,Aguascalientes
Cenaduría San Antonio,es-es.facebook.com,"Local informal de platos mexicanos clásicos como enchiladas, tacos y tamales en un entorno sencillo.",+52 449 916 6522,"Av. José María Chávez 607, Obraje, 20230 Aguascalientes, Ags., México",Restaurante mexicano, Cierra a las 11p.m.,Aguascalientes
Restaurante El Zodiaco,,None Found,+52 449 915 3181,"Galeana Sur 113, Zona Centro, 20000 Aguascalientes, Ags., México",Restaurante,,Aguascalientes
Los Arcos Restaurant,restaurantlosarcos.com,None Found,+52 449 200 2099,"Av Independencia 1703, Desarrollo Especial Galerías, 20124 Aguascalientes, Ags., México",Marisquería, Cierra a las 11p.m.,Aguascalientes
El Artesano,m.facebook.com,None Found,,"Francisco Primo Verdad 119, Plaza Tres Arcos, Zona Centro, 20000 Aguascalientes, Ags., México",Restaurante, Abre a las 9a.m. del dom,Aguascalientes
Garufa Aguascalientes Norte,facebook.com,Carnes asadas y sabores de Argentina con vino en un lugar estiloso con mesas de mantel blanco y un bar largo.,+52 449 914 9147,"Av. Aguascalientes Nte 408, Bosques del Prado Nte., 20127 Aguascalientes, Ags., México",Restaurante argentino, Cierra a las 11p.m.,Aguascalientes
La Saturnina,lasaturnina.com,None Found,+52 449 994 0449,"Venustiano Carranza 110, Zona Centro, 20000 Aguascalientes, Ags., México",Restaurante mexicano, Abre a las 9a.m. del dom,Aguascalientes
Quinto Barrio,,None Found,,"Av. Francisco I. Madero 347, Zona Centro, 20000 Aguascalientes, Ags., México",Restaurante, Cierra a la 1a.m.,Aguascalientes
El Peregrino Aguascalientes,,None Found,+52 449 366 1226,"Prol. Gral. Ignacio Zaragoza 432, Jardines de la Concepción I, 20120 Aguascalientes, Ags., México",Restaurante de desayunos, Abre a las 8:30a.m. del dom,Aguascalientes
La Croquería,lacroqueria.com,"Restaurante y panadería informales y luminosos donde se sirven sándwiches, ensaladas y panes artesanales.",+52 449 913 5476,"20270, P.º Juan de Tolosa 612b, Jardines de la Asunción, 20270 Aguascalientes, Ags., México",Restaurante, Abre a las 9:30a.m. del dom,Aguascalientes
Fogón Do Brasil Aguascalientes,facebook.com,None Found,+52 449 153 0779,"Blvd. A Zacatecas 113, Fraccionamiento Industrial, 20149 Aguascalientes, Ags., México",Restaurante brasileño, Cierra a las 10p.m.,Aguascalientes
Manrique Restaurante,facebook.com,None Found,+52 449 435 5652,"General Guadalupe Victoria 101, Zona Centro, 20000 Aguascalientes, Ags., México",Restaurante mexicano, Cierra a las 10p.m.,Aguascalientes
Ragazzi Bistro,,None Found,+52 449 379 2337,"Venustiano Carranza 213, Zona Centro, 20000 Aguascalientes, Ags., México",Restaurante italiano, Cierra a las 11p.m.,Aguascalientes
Las Planchitas,lasplanchitas.com.mx,None Found,+52 449 175 9046,"Prolongación Paseo de la Asunción 205, Villa Jardín 2da Sección, 20234 Aguascalientes, Ags., México",Restaurante mexicano, Abre a las 8a.m. del dom,Aguascalientes
Las Antorchas,,None Found,+52 449 918 9633,"Av. Francisco I. Madero 240, Zona Centro, 20000 Aguascalientes, Ags., México",Restaurante mexicano, Abre a las 10a.m. del dom,Aguascalientes
Restaurant Antigua Hacienda la Noria,miadn.mx,None Found,+52 449 918 2002,"Av. Héroe de Nacozari Sur 1401, Barrio de la Salud, 20240 Aguascalientes, Ags., México",Restaurante, Cierra a las 11p.m.,Aguascalientes
CAZONA CORZO Restaurante Bar,,None Found,+52 449 915 9317,"Calle Galeana Nte 112, COL. CENTRO, 20000 Aguascalientes, Ags., México",Bar restaurante, Cierra a la 1a.m.,Aguascalientes
Íntimo Kitchen,,None Found,+52 449 598 3079,"Blvd. Luis Donaldo Colosio Murrieta 1013, Lomas del Campestre I, 20129 Aguascalientes, Ags., México",Restaurante, Cierra a las 11p.m.,Aguascalientes
AZUL Restaurante,facebook.com,None Found,+52 449 915 7059,"Av. Francisco I. Madero 616, Barrio de la Purísima, 20259 De la Purísima, Ags., México",Restaurante, Abre a las 8:30a.m. del dom,Aguascalientes
Las Espadas - Brazilian Steakhouse,lasespadas.mx,Restaurante donde se ofrecen platos típicos brasileños con carne y una barra de ensaladas en un ambiente moderno.,+52 449 914 0115,"Blvd. Luis Donaldo Colosio Murrieta 221, Jardines de la Concepción I, 20120 Aguascalientes, Ags., México",Restaurante especializado en filetes, Cierra a las 11p.m.,Aguascalientes
La Plazoela,,None Found,+52 449 915 3815,"Dr Jesús Díaz de León 460, Barrio del Encino, 20240 Aguascalientes, Ags., México",Restaurante mexicano, Cierra a las 12:30a.m.,Aguascalientes
Mesón del Taco,m.facebook.com,None Found,+52 449 914 5465,"Av. Aguascalientes Pte. 508, Colinas del Río, 20010 Aguascalientes, Ags., México",Restaurante, Cierra a las 10:30p.m.,Aguascalientes
El Coliseo,facebook.com,"Restaurante tranquilo con platos clásicos de pasta, pizza y hamburguesas generosas.",+52 449 918 0253,"C. Gral. Ignacio Zaragoza 617, Zona Centro, 20000 Aguascalientes, Ags., México",Restaurante italiano, Cierra a la 1:30a.m.,Aguascalientes
Tufh Cocina Urbana (restaurante Centro),tufh.mx,"Establecimiento en el que se ofrece comida de pub estadounidense, como hamburguesas, costillas, alitas, waffles y batidos.",+52 449 688 4137,"Alarcón 115, Zona Centro, 20000 Aguascalientes, Ags., México",Restaurante, Cierra a las 10:30p.m.,Aguascalientes
El Campirano,,None Found,+52 449 996 2108,"Av. Universidad 411, Villas de la Universidad, 20029 Aguascalientes, Ags., México",Restaurante mexicano, Abre a las 8a.m. del dom,Aguascalientes
Restaurante El Campanario,,None Found,+52 449 918 5297,"Los Laureles 804, Las Flores, 20220 Aguascalientes, Ags., México",Restaurante, Cierra a las 2a.m.,Aguascalientes
CASA FRAILE,,None Found,+52 449 151 9050,"Prol. Gral. Ignacio Zaragoza 704-A, Valle de las Trojes, 20115 Aguascalientes, Ags., México",Restaurante, Cierra a las 2a.m.,Aguascalientes
Restaurante Mitla,,None Found,+52 449 145 2041,"Av. Francisco I. Madero 220, Zona Centro, 20000 Aguascalientes, Ags., México",Buffet libre, Cierra a las 10p.m.,Aguascalientes
Moloko Social Club,facebook.com,"Local luminoso con mesas al aire libre y ambiente agradable donde se ofrecen pizzas, cervezas artesanales y cocteles.",+52 449 583 5385,"Nieto 430, Centro, Zona Centro, 20000 Aguascalientes, Ags., México",Pizzería, Cierra a las 12:30a.m.,Aguascalientes
Carbón Parrilla de Barrio - Altaria,carbonparrilladebarrio.com,None Found,+52 449 379 2062,"Blvd. A Zacatecas 849, Trojes de Alonso, 20116 Aguascalientes, Ags., México",Restaurante argentino, Cierra a las 12a.m.,Aguascalientes
Sato Aguascalientes,satorestaurante.com.mx,None Found,+52 477 394 8625,"Blvd. A Zacatecas 849, Trojes de Alonso, 20124 Aguascalientes, Ags., México",Restaurante japonés, Cierra a las 11p.m.,Aguascalientes
Carnitas Mora,,None Found,+52 449 975 0551,"C. 57 305, Col del Trabajo, 20180 Aguascalientes, Ags., México",Restaurante mexicano, Abre a las 8a.m. del dom,Aguascalientes
Ristorante La Nonna,,None Found,+52 449 293 5602,"Gral. Ignacio Allende 252, Zona Centro, 20000 Aguascalientes, Ags., México",Restaurante italiano,,Aguascalientes
1828 Brasa y Carbón,1828brasaycarbon.mx,None Found,+52 449 290 6509,"Nieto & Arturo J. Pani, Barrio de San Marcos, 20070 Aguascalientes, Ags., México",Restaurante, Cierra a las 2a.m.,Aguascalientes
Toks Aguascalientes,toks.com.mx,None Found,+52 449 971 7086,"Av. José María Chávez 1531, Agricultura, 20234 Aguascalientes, Ags., México",Restaurante mexicano, Cierra a las 11p.m.,Aguascalientes
Lechón Pascualito,,None Found,+52 449 733 6284,"Dr Jesús Díaz de León 101, Zona Centro, 20000 Aguascalientes, Ags., México",Restaurante mexicano, Cierra a las 10p.m.,Aguascalientes
Bestiario Sushi Bar,facebook.com,None Found,+52 449 915 2452,"Av. Francisco I. Madero 549, Barrio de la Purísima, 20259 Aguascalientes, Ags., México",Restaurante de sushi, Cierra a las 10:30p.m.,Aguascalientes
Fuego y Amor Restaurante Bar,,None Found,+52 449 435 3108,"Silvestre Gómez 115, Unión Ganadera, 20130 Aguascalientes, Ags., México",Restaurante italiano, Cierra a las 12a.m.,Aguascalientes
Parrillada Jardines,facebook.com,None Found,+52 449 978 7878,"Prol. Josefa Ortiz de Domínguez 604, Jardines de Aguascalientes, 20268 Aguascalientes, Ags., México",Parrilla, Cierra a las 11p.m.,Aguascalientes
Chaplin Aguascalientes,facebook.com,None Found,+52 449 602 6441,"Corral de Barrancos, Lic. Miguel de la Madrid 942, 20900 Jesús María, Ags., México",Restaurante argentino, Cierra a las 11p.m.,Aguascalientes
Puente Viejo Colosio,,None Found,+52 449 452 8772,"Petróleos Mexicanos 120, Centro, 20050 Aguascalientes, Ags., México",Restaurante mexicano, Cierra a las 11p.m.,Aguascalientes
Las Costillas de Sancho Ags Sur,lascostillasdesancho.com.mx,"Enormes parrilladas, platillos mexicanos y bebidas en un comedor moderno pero acogedor, con ambiente familiar.",+52 449 978 3098,"Blvd. José María Chávez Locales 8, 28 y 29, Zona A, CC. Villasunción, Centro Comercial Villa Asunción, 20280 Aguascalientes, Ags., México",Bar restaurante, Cierra a las 2a.m.,Aguascalientes
Casa Corazón,facebook.com,None Found,+52 449 205 6026,"Venustiano Carranza 124-B, Zona Centro, 20000 Aguascalientes, Ags., México",Bar restaurante, Cierra a las 2a.m.,Aguascalientes
Vínculo Aguascalientes,,None Found,+52 449 140 7965,"Av. Aguascalientes Pte. 2617, La España, 20205 Aguascalientes, Ags., México",Restaurante especializado en okonomiyaki, Cierra a las 9p.m.,Aguascalientes
Merendero San Pancho,,Una variedad de bebidas y comida mexicana en una cantina rústica con techo alto y escenario grande.,+52 449 993 0006,"Blvd. Luis Donaldo Colosio Murrieta 635, Jardines de la Concepción II, 20120 Aguascalientes, Ags., México",Restaurante mexicano, Cierra a las 3a.m.,Aguascalientes
Restaurante - Tikin,facebook.com,None Found,+52 449 347 5594,"Av. Aguascalientes Pte. 1313, Las Brisas, 20010 Aguascalientes, Ags., México",Marisquería, Abre a la 1p.m. del dom,Aguascalientes
A 3/4 del Cielo - Cocina de Humo,facebook.com,None Found,+52 449 348 4813,"Sierra de La Escondida 108, Bosques del Prado Sur, 20130 Aguascalientes, Ags., México",Restaurante especializado en filetes, Cierra a las 10p.m.,Aguascalientes
TOLOSA restaurante,,None Found,+52 449 929 3548,"Blvd. Luis Donaldo Colosio Murrieta 537, Jardines de la Concepción II, 20120 Aguascalientes, Ags., México",Restaurante, Cierra a la 1:30a.m.,Aguascalientes
Casa Ciento28,casaciento28.mx,None Found,+52 449 258 1705,"Lic. Francisco Primo Verdad 128, Zona Centro, 20000 Aguascalientes, Ags., México",Restaurante, Cierra a las 12a.m.,Aguascalientes
El Campirano Sur,restaurantcampiranosur.com.mx,"Lugar familiar con decoración campestre para probar mole poblano, antojitos y carne asada con sabor mexicano.",+52 449 140 6830,"Av Héroe de Nacozari 2511, Jardines del Parque, 20276 Aguascalientes, Ags., México",Restaurante mexicano, Abre a las 7:30a.m. del dom,Aguascalientes
La México Gran Cantina,facebook.com,None Found,+52 449 251 3939,"C. República de Costa Rica 611, Las Américas, 20230 Aguascalientes, Ags., México",Bar restaurante, Cierra a las 2a.m.,Aguascalientes
Sala de Despecho Ags,saladedespecho.mx,None Found,+52 449 506 7627,"Blvd. Luis Donaldo Colosio Murrieta 602, Villas de San Nicolás, 20115 Aguascalientes, Ags., México",Restaurante, Cierra a las 3a.m.,Aguascalientes
El Campeador,,None Found,+52 449 300 7738,"5 de Mayo 517, Zona Centro, 20000 Aguascalientes, Ags., México",Bar restaurante, Cierra a las 10p.m.,Aguascalientes
Tikal Aguascalientes,tikal.restaurant,None Found,+52 449 753 1501,"Blvd. Luis Donaldo Colosio Murrieta 621, Jardines de la Concepción II, 20120 Aguascalientes, Ags., México",Restaurante, Cierra a las 2a.m.,Aguascalientes
Mesón Del Antojo,,None Found,+52 449 251 5129,"Prol. Gral. Ignacio Zaragoza 422-Local 1, Jardines de la Concepción I, 20120 Aguascalientes, Ags., México",Restaurante mexicano, Cierra a las 11p.m.,Aguascalientes
La Favorita Restaurante,lafavoritacocina.com,None Found,+52 449 412 4827,"Av. Francisco I. Madero 805, Barrio de la Estación, 20259 Aguascalientes, Ags., México",Restaurante mexicano, Abre a las 9a.m. del dom,Aguascalientes
Cenaduría Aguascalientes,,None Found,+52 449 126 7205,"Av Independencia 1832, Jardines de la Concepción II, 20120 Aguascalientes, Ags., México",Restaurante mexicano, Cierra a las 11p.m.,Aguascalientes
Casa Miguel,casamiguel.com.mx,"Restaurante clásico decorado con motivos taurinos y variado menú de carnes, mariscos y antojitos mexicanos.",+52 449 153 2717,"Plaza Palmas, Av. Universidad 2229, San José del Arenal, 20127 Aguascalientes, Ags., México",Restaurante, Cierra a las 10p.m.,Aguascalientes
Osteria Italiana San Marcos,,None Found,+52 449 916 6135,"Monroy 212, Barrio de San Marcos, 20070 Aguascalientes, Ags., México",Restaurante italiano, Cierra a las 11p.m.,Aguascalientes
Las Originales Carnes En Su Jugo Mely De La Torre,,None Found,+52 449 300 8186,"Av Independencia 1870, Jardines de la Concepción II, 20120 Aguascalientes, Ags., México",Restaurante mexicano, Cierra a las 11p.m.,Aguascalientes
Estrela Do Brasil,facebook.com,None Found,+52 449 971 1257,"Esquina con, Avenida Siglo XXI, Filemón Alonso Muñóz 103, Cd Industrial, 20290 Aguascalientes, Ags., México",Restaurante brasileño, Cierra a las 11p.m.,Aguascalientes
Merendero San Pancho Clásico,,None Found,+52 449 918 4853,"Av. Las Américas 102, Las Américas, 20239 Aguascalientes, Ags., México",Restaurante mexicano, Cierra a las 2a.m.,Aguascalientes
La México Gran Cantina,,None Found,+52 449 438 4900,"Blvd. Luis Donaldo Colosio Murrieta 325, Jardines de la Concepción I, 20120 Aguascalientes, Ags., México",Bar, Cierra a la 1a.m.,Aguascalientes
ANJELIQUE RESTAURANTE,anjeliquerestauran.wixsite.com,None Found,+52 449 914 8155,"C. Frontera 144, Campestre, 20100 Aguascalientes, Ags., México",Restaurante, Cierra a las 11p.m.,Aguascalientes
Las Alitas Aguascalientes Norte,lasalitas.com,None Found,+52 449 162 2854,"Av Independencia 1853, Jardines de la Concepción II, 20130 Aguascalientes, Ags., México",Restaurante de alas de pollo, Cierra a la 1a.m.,Aguascalientes
Sanborns Aguascalientes Centro,sanborns.com.mx,None Found,+52 449 915 8774,"Av. Francisco I. Madero 111, Zona Centro, 20000 Aguascalientes, Ags., México",Restaurante, Cierra a las 11p.m.,Aguascalientes
Carnes En Su Jugo Las Originales Desde 1972,carnesensujugodelatorreags.com,None Found,+52 449 140 5565,"Av Aguascalientes Sur 200, Prados del Sur, 20280 Aguascalientes, Ags., México",Restaurante mexicano, Cierra a las 10p.m.,Aguascalientes
Mariscos Los Cabos,,None Found,+52 449 473 5133,"Ignacio T. Chávez 107, Las Flores, 20220 Aguascalientes, Ags., México",Marisquería, Abre a las 12p.m. del dom,Aguascalientes
La talavera,,None Found,+52 449 165 5889,"Pedro parga 121 Colonia centro, Calle Pedro Parga 121, Centro histórico, 20000 Aguascalientes, Ags., México",Restaurante, Cierra a las 11p.m.,Aguascalientes
Restaurante Condimento Hotel Marriott,marriott.com,None Found,+52 449 139 4060,"Boulevard Zacatecas Norte S/N, Col, Trojes de Alonso, 20116 Aguascalientes, Ags., México",Buffet libre, Cierra a las 10p.m.,Aguascalientes
Augusto's,restauranteaugustos.com,"Cocina italiana de autor en un lugar estiloso y familiar que tiene terraza, música en vivo y horno de leña.",+52 449 914 9599,"Blvd. Manuel J Clouhtier del Rincón 160, 1a Sección, Lomas del Campestre II, 20129 Aguascalientes, Ags., México",Restaurante italiano,,Aguascalientes
Casa del Encino,,None Found,+52 449 806 8918,"Dr Jesús Díaz de León 504, Barrio del Encino, 20240 Aguascalientes, Ags., México",Restaurante, Abre a las 8:30a.m. del dom,Aguascalientes
Taqueando,m.facebook.com,None Found,+52 449 201 8515,"Av. Francisco I. Madero 479, Zona Centro, 20000 Aguascalientes, Ags., México",Taquería, Cierra a las 12a.m.,Aguascalientes
La Cantina de Antaño Suc. Colosio,sites.google.com,None Found,+52 449 912 8121,"Blvd. Luis Donaldo Colosio Murrieta 117, Jardines de la Concepción I, 20120 Aguascalientes, Ags., México",Restaurante, Cierra a las 2a.m.,Aguascalientes
La Popular Américas,facebook.com,None Found,+52 449 914 4840,"Av. Las Américas 505, Las Américas, 20239 Aguascalientes, Ags., México",Bar restaurante, Cierra a las 2a.m.,Aguascalientes
El Comal Cocina Tradicional,facebook.com,None Found,+52 449 602 6379,"Blvrd Juan Pablo II 1058, Sta Imelda, 20218 Aguascalientes, Ags., México",Restaurante mexicano, 8p.m. ,Aguascalientes
Toks Aguascalientes Universidad,toks.com.mx,None Found,+52 449 996 8470,"Av. Universidad 2229-Int.A, San José del Arenal, 20130 Aguascalientes, Ags., México",Restaurante mexicano, Cierra a las 10p.m.,Aguascalientes
Terrazza Italiana Americas,terrazzaitaliana.mx,None Found,,"Av. Las Américas 408, La Fuente, 20239 Aguascalientes, Ags., México",Cafetería, Cierra a las 12a.m.,Aguascalientes
Terrazza Italiana Americas,terrazzaitaliana.mx,None Found,,"Av. Las Américas 408, La Fuente, 20239 Aguascalientes, Ags., México",Cafetería, Cierra a las 12a.m.,Aguascalientes
Marakantoche,,None Found,+52 449 128 3883,"Venustiano Carranza 204, Zona Centro, 20000 Aguascalientes, Ags., México",Restaurante italiano, Cierra a las 11p.m.,Aguascalientes
Terrazza Italiana Bosques,terrazzaitaliana.mx,"Sencillo local con terraza en donde se ofrecen sándwiches, ensladas y pastas acompañadas de café y vino.",+52 449 996 0100,"Sierra Morena 101-A, Bosques del Prado Nte., 20127 Aguascalientes, Ags., México",Cafetería, Cierra a las 11:30p.m.,Aguascalientes
El Carnes - Sucursal Colosio,elcarnes.com,Platillos mexicanos de carne y hamburguesas hechas en un restaurante informal con servicio a domicilio.,+52 449 914 1040,"Blvd. Luis Donaldo Colosio Murrieta & Agricultura, Granjas Campestre, 20110 Aguascalientes, Ags., México",Restaurante mexicano, Cierra a las 5:30a.m. del dom,Aguascalientes
La Quincena Botanería,,None Found,+52 449 537 6787,"Av. Francisco I. Madero 811, Barrio de la Estación, 20259 Aguascalientes, Ags., México",Restaurante, Abre a las 9a.m. del dom,Aguascalientes
100 EL YUCA,,None Found,+52 449 916 5015,"Larreategui 317, Zona Centro, 20000 Aguascalientes, Ags., México",Restaurante mexicano, Cierra a las 10:30p.m.,Aguascalientes
Terraza Mediterránea,facebook.com,None Found,+52 449 916 3010,"C. del Codo 211, Zona Centro, 20000 Aguascalientes, Ags., México",Pizzería, Cierra a las 12a.m.,Aguascalientes
Los Antojos De Carranza,,None Found,+52 14499941977,"José F. Elizondo 203, Zona Centro, 20000 Aguascalientes, Ags., México",Restaurante, Abre a las 8:30a.m. del dom,Aguascalientes
Sake Sushi Rolls,facebook.com,None Found,+52 449 555 0200,"Av Héroe de Nacozari 119, Barrio de la Purísima, 20259 Aguascalientes, Ags., México",Restaurante de sushi, Cierra a las 9p.m.,Aguascalientes
Los Abolengos,,None Found,+52 449 460 9145,"Av. Alameda 810, Col del Trabajo, 20180 Aguascalientes, Ags., México",Restaurante, Abre a las 8a.m. del dom,Aguascalientes
DUTCH Lunch Room Centro Histórico,dutchlunchroom.com,None Found,+52 449 251 6671,"20000 Venustiano Carranza 105B, Venustiano Carranza #105A, Zona Centro, 20000 Aguascalientes, Ags., México",Restaurante de cocina contemporánea europea, Cierra a las 2a.m.,Aguascalientes
El Juchiteco comida,,None Found,+52 449 294 5706,"República de Brasil 502, Las Américas, 20230 Aguascalientes, Ags., México",Restaurante mexicano, Cierra a las 8:30p.m.,Aguascalientes
El Juchiteco comida,,None Found,+52 449 294 5706,"República de Brasil 502, Las Américas, 20230 Aguascalientes, Ags., México",Restaurante mexicano, Cierra a las 8:30p.m.,Aguascalientes
Los Arcos Restaurant,restaurantlosarcos.com,None Found,+52 449 200 2099,"Av Independencia 1703, Desarrollo Especial Galerías, 20124 Aguascalientes, Ags., México",Marisquería, Cierra a las 11p.m.,Aguascalientes
RESTAURANTE EL LIENZO MENUDO Y DESAYUNOS,ellienzorestaurante.com,None Found,+52 449 917 9235,"Brasilia 706, Santa Elena, 20236 Aguascalientes, Ags., México",Restaurante, Abre a las 8:30a.m. del mar,Aguascalientes
La Narcisa,wa.link,None Found,+52 449 636 3551,"Campeche 506, Barrio de San Marcos, 20070 Aguascalientes, Ags., México",Restaurante, Abre a las 8a.m. del dom,Aguascalientes
Ramé Cocina Vegana,,None Found,+52 449 414 2106,"C. Gral. Ignacio Zaragoza 612-B, Zona Centro, 20000 Aguascalientes, Ags., México",Restaurante vegano, Abre a la 1:30p.m. del dom,Aguascalientes
Patio Santo Domingo Desayunos,patio.grupoende.mx,None Found,+52 449 262 4734,"Blvd. Luis Donaldo Colosio Murrieta 201, La concepción, 20128 Aguascalientes, Ags., México",Restaurante, Abre a las 8a.m. del dom,Aguascalientes
Ostería Colosseo,,None Found,+52 449 278 4525,"Av. José María Chávez 1605B, Desarrollo Especial Villa Asunción, 20280 Aguascalientes, Ags., México",Restaurante italiano, Cierra a la 1a.m.,Aguascalientes
LA ROMA BRUNCH CENTRO,,None Found,+52 449 684 4454,"Nieto 434, Zona Centro, 20000 Aguascalientes, Ags., México",Restaurante de brunch, Abre a las 8a.m. del dom,Aguascalientes
"Cenaduría ""El Sopecito""",,None Found,+52 449 106 6303,"Calle Cosio Sur Zona Centro 105, Zona Centro, 20000 Aguascalientes, Ags., México",Restaurante, Cierra a las 12a.m.,Aguascalientes
El Sabor de mi Tierra,facebook.com,None Found,+52 449 239 1104,"Poder Legislativo Nte 102, Poder Legislativo 102, Barrio de la Purísima, 20259 Aguascalientes, Ags., México",Restaurante, Abre a las 8:30a.m. del dom,Aguascalientes
Chili´s Aguascalientes,chilis.com.mx,Cadena apta para familias que ofrece alimentos estadounidenses y tex-mex en un ambiente sureño.,+52 449 914 1901,"Blvd. A Zacatecas, Centro Comercial Altaria 849 Nte-Local 1001-PB, Trojes de Alonso, 20116 Aguascalientes, Ags., México",Restaurante americano, Cierra a las 11p.m.,Aguascalientes
Cenaduría La Quinta,,None Found,+52 449 914 7430,"Av. Fundición 605, Altavista, 20040 Aguascalientes, Ags., México",Restaurante mexicano, Cierra a las 11:30p.m.,Aguascalientes
Tomatillo,facebook.com,None Found,+52 449 287 3909,"Cerro de La Bufa 417, Jardines de la Concepción II, 20120 Aguascalientes, Ags., México",Restaurante mexicano, Abre a las 9a.m. del dom,Aguascalientes
Birriería El lago azul Serna Fundición,,None Found,+52 449 916 3232,"Av. Fundición 109, Col del Carmen, 20059 Aguascalientes, Ags., México",Restaurante mexicano, Abre a las 8:30a.m. del dom,Aguascalientes
Restaurante CUQUITA,,None Found,+52 449 996 7917,"Av. Fundición 1717, San Cayetano, 20010 Aguascalientes, Ags., México",Restaurante especializado en pollo, Abre a las 9a.m. del dom,Aguascalientes
Hasta el Gorro. Cocteleria en litro y mas,,None Found,+52 984 277 9688,"Río Rhin 606-Local 7, Zona Centro, 20000 Aguascalientes, Ags., México",Bar restaurante, Cierra a las 2a.m.,Aguascalientes
Mesa Verde Aguascalientes,,None Found,+52 449 688 9208,"José F. Elizondo 113, Zona Centro, 20000 Aguascalientes, Ags., México",Restaurante vegetariano, Abre a las 9:30a.m. del dom,Aguascalientes
Restaurante María Celia,,None Found,+52 449 916 7922,"Av. Francisco I. Madero 341, Centro, 20000 Aguascalientes, Ags., México",Restaurante mexicano, Abre a las 8:30a.m. del lun,Aguascalientes
Tokis Burger,tokisburger.com,None Found,+52 449 624 1414,"Lic. Francisco Primo Verdad 223, centro, 20000 Aguascalientes, Ags., México",Hamburguesería, Cierra a las 10p.m.,Aguascalientes
Maranta Cafe Comida Arte,facebook.com,None Found,+52 449 118 5857,"Av. Francisco I. Madero 601, Barrio de la Purísima, 20259 Aguascalientes, Ags., México",Restaurante, Cierra a las 9p.m.,Aguascalientes
Farolito Cenaduría Restaurante,,None Found,,"Moctezuma 105, Zona Centro, 20000 Aguascalientes, Ags., México",Restaurante, Cierra a las 11p.m.,Aguascalientes
Café del Codo (centro),,None Found,+52 449 520 6792,"C. del Codo 225-D, Zona Centro, 20000 Aguascalientes, Ags., México",Restaurante, Cierra a las 12a.m.,Aguascalientes
