Names,Website,Introduction,Phone Number,Address,Type,Opens At,Municipio
Restaurante Hacienda El Mortero,restaurantehaciendaelmortero.com,"Local de estilo colonial con una fuente y mariachis en vivo, donde se sirven platos tradicionales mexicanos.",+52 998 201 5263,"Blvd. Kukulcan 9, Punta Cancun, Zona Hotelera, 77500 Cancún, Q.R., México",Restaurante mexicano, Cierra a las 11p.m.,Cancún
Porfirio's Cancún | Restaurante de comida mexicana,porfirios.com.mx,Sabores mexicanos en un espacio sofisticado con vista al mar y mas de 100 etiquetas de tequilas y mezcales.,+52 998 427 0509,"Km 14.2, Blvd. Kukulcan A-No.1, Zona Hotelera, 77500 Cancún, Q.R., México",Restaurante mexicano, Cierra a las 2a.m.,Cancún
Restaurante Mediterraneo,restaurantemediterraneo.com.mx,None Found,+52 998 484 9167,"Hotel Krystal, Blvd. Kukulcan Km. 9, Punta Cancun, Zona Hotelera, 77500 Cancún, Q.R., México",Restaurante, Cierra a las 11p.m.,Cancún
Chambao Cancun | Best Steakhouse in Cancun,chambaorestaurant.com,"Sofisticado restaurante y bar exótico sobre el mar que ofrece carnes y mariscos, además de cocteles.",+52 998 690 0273,"Blvd. Kukulcan Km. 15, Zona Hotelera, 77500 Cancún, Q.R., México",Restaurante especializado en filetes, Cierra a las 2a.m.,Cancún
La Buena Barra Mexican Steakhouse I Cancún,labuenabarra.mx,"Carnes, mariscos y platillos mexicanos en un ambiente refinado con plantas, vistas a la laguna y noches de DJ.",+52 998 313 4211,"6 de lado de la laguna, Blvd. Kukulcan KM 12.6, Zona Hotelera, 77500 Cancún, Q.R., México",Restaurante mexicano,,Cancún
Nicoletta | Italian restaurant in Cancun,nicolettarestaurant.com,None Found,+52 998 251 6513,"Blvd. Kukulcan Km. 13.5, Zona Hotelera, 77500 Cancún, Q.R., México",Restaurante italiano, Cierra a la 1a.m.,Cancún
RosaNegra | Latin American Restaurant in Cancun,rosanegra.com.mx,"Sitio elegante con platos latinoamericanos, cocteles y una carta extensa de vinos.",+52 998 313 4132,"Blvd. Kukulcan Km 15, Zona Hotelera, 77500 Cancún, Q.R., México",Restaurante especializado en cocina moderna latinoamericana, Cierra a la 1a.m.,Cancún
Fred's | El mejor restaurante de mariscos en Cancún,fredshouserestaurant.com,"Local elegante con ambiente rústico, mariscos, cocteles y clásicos mexicanos junto a una laguna.",+52 998 251 6535,"Blvd. Kukulcan 14.5, Zona Hotelera, 77500 Cancún, Q.R., México",Marisquería, Cierra a las 12a.m.,Cancún
Ilios | Greek restaurant in Cancun,iliosrestaurante.com.mx,None Found,+52 998 251 6596,"Blvd. Kukulcan Km. 13.5, Zona Hotelera, 77500 Cancún, Q.R., México",Restaurante griego, Cierra a las 2a.m.,Cancún
Puerto Madero Cancún,puertomaderorestaurantes.com,Una oferta extensa de parrilladas y mariscos estilo Argentina en un espacio amplio de ladrillo expuesto.,+52 998 885 2829,"Blvd. Kukulcan Km. 14.1, Zona Hotelera, 77500 Cancún, Q.R., México",Restaurante argentino, Cierra a la 1a.m.,Cancún
Taboo | Mediterranean Restaurant in Cancun,taboorestaurant.com.mx,None Found,+52 998 234 2528,"Blvd. Kukulcan Km 13.5, Zona Hotelera, 77500 Cancún, Q.R., México",Restaurante mediterráneo, Cierra a las 3a.m.,Cancún
Lorenzillo's Cancun,lorenzillos.com.mx,Langostas vivas y otros platillos del mar servidos en un extenso comedor con techo de palapa y vista al mar.,+52 998 883 1254,"Blvd. Kukulcan Km 10.5, Punta Cancun, Zona Hotelera, 77500 Cancún, Q.R., México",Restaurante, Cierra a las 12a.m.,Cancún
Lorenzillo's Cancun,lorenzillos.com.mx,Langostas vivas y otros platillos del mar servidos en un extenso comedor con techo de palapa y vista al mar.,+52 998 883 1254,"Blvd. Kukulcan Km 10.5, Punta Cancun, Zona Hotelera, 77500 Cancún, Q.R., México",Restaurante, Cierra a las 12a.m.,Cancún
Cenacolo Zona Hotelera,cenacolo.com.mx,"Romántico restaurant bar italiano con ventanales y paredes de ladrillo, especialista en pasta hecha en casa.",+52 998 885 3603,"Torre La Europea, KM 12.6, Blvd. Kukulcan, La Isla, Zona Hotelera, 77500 Cancún, Q.R., México",Restaurante,,Cancún
Restaurante Mextreme,mextrememexico.com,Restobar animado en un entorno colorido con platos mexicanos tradicionales y una terraza.,+52 998 820 2024,"Boulevard Kukulcan Km. 9.5 Plaza Zócalo, Zona Hotelera, 77500 Cancún, Q.R., México",Restaurante mexicano, Cierra a las 12a.m.,Cancún
La Vicenta,lavicenta.com.mx,None Found,+52 998 148 2481,"Av. Bonampak MZ 2-Lt 5, 77504 Cancún, Q.R., México",Restaurante, Cierra a la 1a.m.,Cancún
Buenos Aires Grill,,None Found,+52 998 192 4667,"Av. Alamos 22, 77500 Cancún, Q.R., México",Restaurante argentino, Cierra a las 11p.m.,Cancún
Buenos Aires Grill,,None Found,+52 998 192 4667,"Av. Alamos 22, 77500 Cancún, Q.R., México",Restaurante argentino, Cierra a las 11p.m.,Cancún
Navíos,naviosseafood.com,"Terraza moderna al aire libre junto a una laguna, con cocteles y platos de mariscos mexicanos elegantes.",+52 998 885 3848,"Blvd. Kukulcan Km. 19.5, Zona Hotelera, 77500 Cancún, Q.R., México",Marisquería, Cierra a las 11p.m.,Cancún
La Parrilla Cancún,laparrilla.com.mx,Alegre espacio folclórico con música de mariachi en donde se sirven platillos mexicanos tradicionales.,+52 998 287 8118,"Av Yaxchilán 51-Mz 23 Lt 51, Centro, 77500 Cancún, Q.R., México",Restaurante mexicano, Cierra a las 12a.m.,Cancún
Cambalache Cancún,cambalacherestaurantes.com,None Found,+52 998 883 0902,"Plaza La Isla Luxury, Blvd. Kukulcan 12.5-planta alta, La Isla, Zona Hotelera, 77500 Cancún, Q.R., México",Restaurante, Cierra a las 12a.m.,Cancún
Cambalache Cancún,cambalacherestaurantes.com,None Found,+52 998 883 0902,"Plaza La Isla Luxury, Blvd. Kukulcan 12.5-planta alta, La Isla, Zona Hotelera, 77500 Cancún, Q.R., México",Restaurante, Cierra a las 12a.m.,Cancún
El Fisherman Cancun - Seafood Restaurant in Cancun,elfishermancancun.com,None Found,+52 998 191 9303,"Blvd. Kukulcan Km 12.5, Zona Hotelera, 77500 Cancún, Q.R., México",Marisquería, Cierra a las 11p.m.,Cancún
Chianti Cancún,nyxhotels.com,None Found,+52 998 848 9305,"Blvd. Kukulcan Manzana 52-Km. 11.5, El Rey, Zona Hotelera, 77500 Cancún, Q.R., México",Restaurante italiano, Cierra a las 11:30p.m.,Cancún
Bovinos Steakhouse & Seafood | Cancún,bovinos.restaurant,Cortes brasileños y barra de comida internacional en una amplia cabaña rústica de ladrillo y madera.,+52 998 773 8627,"Av Yaxchilán 17, Coral Rivera, 77500 Cancún, Q.R., México",Restaurante, Cierra a las 12a.m.,Cancún
Mr.Pampas Cancun,mrpampas.com,None Found,+52 998 200 9158,"Av. Bonampak 200, Sm-4A, 77500 Cancún, Q.R., México",Restaurante brasileño, Cierra a las 12a.m.,Cancún
Mr.Pampas Cancun,mrpampas.com,None Found,+52 998 200 9158,"Av. Bonampak 200, Sm-4A, 77500 Cancún, Q.R., México",Restaurante brasileño, Cierra a las 12a.m.,Cancún
Puerto Santo,,"Restaurante tranquilo frente a la playa donde se sirven paella, ceviche y aguachile, además de postres y cocteles.",+52 998 239 6882,"López Portillo s/n, Puerto Juarez, Juárez, 77505 Cancún, Q.R., México",Marisquería, Cierra a las 11p.m.,Cancún
Puerto Santo,,"Restaurante tranquilo frente a la playa donde se sirven paella, ceviche y aguachile, además de postres y cocteles.",+52 998 239 6882,"López Portillo s/n, Puerto Juarez, Juárez, 77505 Cancún, Q.R., México",Marisquería, Cierra a las 11p.m.,Cancún
La Bamba “Mex-Seafood”,facebook.com,"Restaurante sencillo con mesas al aire libre donde se sirven atún, pulpo, pescadilla y otras especialidades.",+52 998 487 5503,"Blvd. Kukulcan Km 9.5-Local 11C, Punta Cancun, Zona Hotelera, 77500 Cancún, Q.R., México",Restaurante mexicano, Cierra a las 9:30p.m.,Cancún
La Playita Restaurante Bar Cancún,facebook.com,"Recinto moderno y luminoso con mesas al aire libre, transmisiones de deportes por TV, mojitos y mariscos.",+52 998 413 1173,"Bonampak S/N, Manzana10, Lote 60-62, Supermanzana 4, 77500 Cancún, Q.R., México",Bar restaurante, Cierra a la 1a.m.,Cancún
Irori Cancún,iroricancun.com,Restaurante japonés sencillo en el que los chefs preparan sushi y carnes a la parrilla en una cocina abierta.,+52 998 892 3072,"entrada por, Avenida Tulúm Oriente 226, Plaza del Mar, Viento, 77500 Cancún, Q.R., México",Restaurante japonés, Cierra a las 9:30p.m.,Cancún
Taqueria Coapeñitos,,"Restaurante tranquilo donde se ofrecen tacos, variedad de bebidas y otros menús clásicos en un ambiente informal.",+52 998 415 4227,"Av Carlos Nader 25, Bancos, 77500 Cancún, Q.R., México",Taquería, Cierra a la 1a.m.,Cancún
Taqueria Coapeñitos,,"Restaurante tranquilo donde se ofrecen tacos, variedad de bebidas y otros menús clásicos en un ambiente informal.",+52 998 415 4227,"Av Carlos Nader 25, Bancos, 77500 Cancún, Q.R., México",Taquería, Cierra a la 1a.m.,Cancún
Pescaditos,restaurantsnapshot.com,None Found,+52 998 884 0305,"Av Yaxchilán 69, 77500 Cancún, Q.R., México",Marisquería, Cierra a las 10:30p.m.,Cancún
El Rincon de los Antojos,instagram.com,None Found,+52 998 241 4076,"Calle Luciérnaga 365-51, 77500 Cancún, Q.R., México",Restaurante mexicano, Cierra a las 11p.m.,Cancún
El Timón de Cancún ZH,eltimondecancun.com,None Found,+52 998 484 2893,"km. 9.5, Blvd. Kukulcan, Zona Hotelera, 77500 Cancún, Q.R., México",Restaurante, Cierra a las 10p.m.,Cancún
Funky Geisha | Asian Restaurant in Cancun,funkygeisha.com.mx,None Found,+52 998 690 0272,"Blvd. Kukulcan km 15, Zona Hotelera, 77500 Cancún, Q.R., México",Restaurante asiático, Cierra a las 2a.m.,Cancún
Funky Geisha | Asian Restaurant in Cancun,funkygeisha.com.mx,None Found,+52 998 690 0272,"Blvd. Kukulcan km 15, Zona Hotelera, 77500 Cancún, Q.R., México",Restaurante asiático, Cierra a las 2a.m.,Cancún
Parole | Italian Restaurant in Cancun,parole.mx,None Found,+52 998 690 0279,"Blvd. Kukulcan Km. 15, Zona Hotelera, 77500 Cancún, Q.R., México",Restaurante italiano, Cierra a las 2a.m.,Cancún
Xkat-Ik Cancun Restaurante yucateco y mexicano,xkatik.com,None Found,+52 998 885 3538,"km 16.2, Blvd. Kukulcan 77500, Zona Hotelera, 77500 Cancún, Q.R., México",Restaurante mexicano, Cierra a las 10p.m.,Cancún
Tora | Japanese Restaurant in Cancun,torarestaurant.com.mx,None Found,+52 998 313 4128,"Blvd. Kukulcan Km 15, Zona Hotelera, 77500 Cancún, Q.R., México",Restaurante japonés, Cierra a la 1a.m.,Cancún
Restaurante Lindo Oaxaca Cancun,,None Found,+52 998 884 1618,"Av Cobá, Av Yaxchilán Esquina, Centro, 77500 Cancún, Q.R., México",Restaurante mexicano, Abre a las 11a.m. del dom,Cancún
Deli Barlovento The Home Made Taste of Mexico,,None Found,+52 998 759 9219,"Pescador KM 4, Kukulcan Boulevard, Zona Hotelera, 77500 Cancún, Q.R., México",Restaurante mexicano,,Cancún
Deli Barlovento The Home Made Taste of Mexico,,None Found,+52 998 759 9219,"Pescador KM 4, Kukulcan Boulevard, Zona Hotelera, 77500 Cancún, Q.R., México",Restaurante mexicano,,Cancún
Restaurante Cielo y Tierra - Av. Las Torres,,"Restaurante informal con techo de paja que ofrece tacos, hamburguesas, filetes y otros platos internacionales.",+52 998 217 0460,"Sm 523 M41 L1, Local C, 77533 Cancún, Q.R., México",Restaurante, Cierra a las 10p.m.,Cancún
Hacienda Sisal,,"Hacienda con mariachis en vivo en la que se sirven fajitas mexicanas, carne asada y comida tipo buffet.",+52 998 848 8220,"km 13.5, Blvd. Kukulcan km 13.5, Zona Hotelera, 77500 Cancún, Q.R., México",Restaurante mexicano, Cierra a las 10p.m.,Cancún
El Oasis Mariscos I Cancún,eloasismariscos.com,Amplio menú internacional de mariscos en un colorido y ecléctico espacio que incluye un bar en forma de barco.,+52 998 158 0999,"Av Yaxchilán 17-2, Las Casas de Acueducto, 77505 Cancún, Q.R., México",Marisquería, Cierra a las 10p.m.,Cancún
El Oasis Mariscos I Cancún,eloasismariscos.com,Amplio menú internacional de mariscos en un colorido y ecléctico espacio que incluye un bar en forma de barco.,+52 998 158 0999,"Av Yaxchilán 17-2, Las Casas de Acueducto, 77505 Cancún, Q.R., México",Marisquería, Cierra a las 10p.m.,Cancún
El Fish Fritanga,elfishfritanga.com,"Restaurante tranquilo con techos de paja y vista a la playa, que sirve platos de pescado y tacos de marisco.",+52 998 840 6216,"Blvd. Kukulcan, La Isla, Zona Hotelera, 77500 Cancún, Q.R., México",Marisquería, Cierra a las 11p.m.,Cancún
Tacos Villanos,,None Found,+52 998 848 9314,"Blvd. Kukulcan KM 11.5-52, El Rey, Zona Hotelera, 77500 Cancún, Q.R., México",Taquería, Cierra a las 12a.m.,Cancún
La Fonda del Zancudo,facebook.com,None Found,+52 998 884 1741,"Av Uxmal Supermanzana 3 Manzana 02 Lote 33, 77500 Cancún, Q.R., México",Restaurante, Cierra a las 11:30p.m.,Cancún
La Fonda del Zancudo,facebook.com,None Found,+52 998 884 1741,"Av Uxmal Supermanzana 3 Manzana 02 Lote 33, 77500 Cancún, Q.R., México",Restaurante, Cierra a las 11:30p.m.,Cancún
Los Mero's de Jalisco Suc. LABNA,linktr.ee,None Found,+52 998 354 8139,"Av Labna SM20 mz14 L74 57, Centro, 77500 Cancún, Q.R., México",Restaurante mexicano, Cierra a las 11p.m.,Cancún
Restaurante Italiano - Locanda,restlocandapaolo.com,Restaurante italiano especializado en mariscos y pastas en un espacio formal y sofisticado de mantel blanco.,+52 998 887 2627,"Av. Bonampak 145 Esquina, Jurel, 77500 Cancún, Q.R., México",Restaurante italiano, Cierra a las 10p.m.,Cancún
Restaurante Italiano - Locanda,restlocandapaolo.com,Restaurante italiano especializado en mariscos y pastas en un espacio formal y sofisticado de mantel blanco.,+52 998 887 2627,"Av. Bonampak 145 Esquina, Jurel, 77500 Cancún, Q.R., México",Restaurante italiano, Cierra a las 10p.m.,Cancún
Cheester Pasta,chstr.mx,None Found,+52 998 887 8785,"Mazatlan esquina Calle Madero 31, 77509 Cancún, Q.R., México",Restaurante italiano, Cierra a las 10:30p.m.,Cancún
La O,laorganica.mx,None Found,+52 998 186 9408,"Calle, Cabo Catoche Manzana 23-Lote 4, 77500 Cancún, Q.R., México",Restaurante de desayunos,,Cancún
Restaurante La Fonda de las Piñatas,lafondadelaspinatas.blogspot.com,Restaurante animado con buffet y especialidades de Jalisco decorado con gran cantidad de piñatas que cuelgan de las vigas.,+52 998 256 4533,"46, Av Kohunlich Supermanzana 46 Manzana 9 Lote 9, 77506 Cancún, Q.R., México",Restaurante mexicano, Abre a las 8a.m. del dom,Cancún
Le Fate Restaurante Italiano,,None Found,+52 998 880 5418,"Av. Del Sol 4M, 77506 Cancún, Q.R., México",Restaurante italiano, Cierra a las 10p.m.,Cancún
Le Fate Restaurante Italiano,,None Found,+52 998 880 5418,"Av. Del Sol 4M, 77506 Cancún, Q.R., México",Restaurante italiano, Cierra a las 10p.m.,Cancún
"Taco y Tequila - Grill & Margarita Bar, Party Center",tacoytequila.com,None Found,+52 998 217 5082,"Blvd. Kukulcan Km 9, Punta Cancun, Zona Hotelera, 77500 Cancún, Q.R., México",Restaurante mexicano, Cierra a las 12a.m.,Cancún
Crab House | The best seafood in Cancun,crabhousecancun.com,"Restaurante lujoso con platos de ostras y mariscos, carnes, cocteles y una terraza enorme frente a la playa.",+52 998 874 3071,"Blvd. Kukulcan Km 14.7, Zona Hotelera, 77500 Cancún, Q.R., México",Marisquería,,Cancún
Crab House | The best seafood in Cancun,crabhousecancun.com,"Restaurante lujoso con platos de ostras y mariscos, carnes, cocteles y una terraza enorme frente a la playa.",+52 998 874 3071,"Blvd. Kukulcan Km 14.7, Zona Hotelera, 77500 Cancún, Q.R., México",Marisquería,,Cancún
Barakah Halal Food,instagram.com,None Found,+52 998 313 4263,"Plaza Kukulkan, 13 km, Zona Hotelera, 77500 Cancún, Q.R., México",Restaurante halal,,Cancún
Ruth's Chris Steak House,ruthschris.com,"Elegante cadena de restaurantes, famosa por sus filetes salteados y con cubierta de manteca.",+52 998 885 3301,"KM. 13.5, Blvd. Kukulcan, Zona Hotelera, 77500 Cancún, Q.R., México",Restaurante especializado en filetes, Cierra a las 10p.m.,Cancún
Mono Restaurant Cancun,,None Found,+52 998 396 7134,"Blvd. Kukulcan Km 14.7, Zona Hotelera, 77500 Cancún, Q.R., México",Restaurante japonés, Cierra a las 12a.m.,Cancún
Mono Restaurant Cancun,,None Found,+52 998 396 7134,"Blvd. Kukulcan Km 14.7, Zona Hotelera, 77500 Cancún, Q.R., México",Restaurante japonés, Cierra a las 12a.m.,Cancún
Tacos Los Chachalacos Party Center | Zona Hotelera | Los Mejores Tacos y Restaurante Mexicano,loschachalacos.com.mx,None Found,+52 998 765 1997,"Blvd. Kukulcan Km 9.5, Punta Cancun, Zona Hotelera, 77500 Cancún, Q.R., México",Taquería, Cierra a las 2a.m.,Cancún
Tacos Los Chachalacos Party Center | Zona Hotelera | Los Mejores Tacos y Restaurante Mexicano,loschachalacos.com.mx,None Found,+52 998 765 1997,"Blvd. Kukulcan Km 9.5, Punta Cancun, Zona Hotelera, 77500 Cancún, Q.R., México",Taquería, Cierra a las 2a.m.,Cancún
Doña Yola Mexican Home Cuisine,,None Found,+52 998 242 6567,"TERRAMAR PLAZA, Blvd. Kukulcan KM. 8.5-LOCAL 39, Punta Cancun, Zona Hotelera, 77500 Cancún, Q.R., México",Restaurante de brunch, Abre a las 10a.m. del lun,Cancún
El Granero,granerogrill.mx,"Bar y parrilla simple al aire libre con tacos, burritos, hamburguesas, filetes, cervezas y margaritas.",+52 998 859 8449,"D'Cave, KM 9.5 SECCION A, Blvd. Kukulcan Mz 48 Lt 6-LOCAL A-16, Zona Hotelera, 77500 Cancún, Q.R., México",Restaurante, Cierra a la 1a.m.,Cancún
Restaurante Vaqva,vaqva.mx,"Restaurante animado con mariscos caseros, cerveza y música en vivo en una enorme terraza con palmeras.",+52 998 189 7856,"Región 220 Manzana 38 lote 18 y 19 calle 107, C. 72 ESQ, 77517 Cancún, Q.R., México",Marisquería, Abre a las 10a.m. del dom,Cancún
Restaurante Vaqva,vaqva.mx,"Restaurante animado con mariscos caseros, cerveza y música en vivo en una enorme terraza con palmeras.",+52 998 189 7856,"Región 220 Manzana 38 lote 18 y 19 calle 107, C. 72 ESQ, 77517 Cancún, Q.R., México",Marisquería, Abre a las 10a.m. del dom,Cancún
El Fogón del May,,None Found,+52 998 840 2814,"Av. López Portillo LTE 21, Supermanzana 92 Local 16, 77516 Cancún, Q.R., México",Taquería, Cierra a las 3a.m.,Cancún
El Fogón del May,,None Found,+52 998 840 2814,"Av. López Portillo LTE 21, Supermanzana 92 Local 16, 77516 Cancún, Q.R., México",Taquería, Cierra a las 3a.m.,Cancún
El Socio Naiz Taquería,socionaiz.com,None Found,+52 998 255 6814,"Av Carlos Nader 74, 77500 Cancún, Q.R., México",Taquería, Cierra a las 11:40p.m.,Cancún
Tacun,,None Found,,"Blvd. Kukulcan KM. 11.5, El Rey, Zona Hotelera, 77500 Cancún, Q.R., México",Restaurante mexicano, Cierra a las 11p.m.,Cancún
Tacun,,None Found,,"Blvd. Kukulcan KM. 11.5, El Rey, Zona Hotelera, 77500 Cancún, Q.R., México",Restaurante mexicano, Cierra a las 11p.m.,Cancún
Casa Bea,,None Found,+52 998 364 5935,"Av. José López Portillo 724, Puerto Juarez, 77524 Cancún, Q.R., México",Restaurante mexicano, Abre a las 7a.m. del dom,Cancún
Casa Bea,,None Found,+52 998 364 5935,"Av. José López Portillo 724, Puerto Juarez, 77524 Cancún, Q.R., México",Restaurante mexicano, Abre a las 7a.m. del dom,Cancún
Taboo | Mediterranean Restaurant in Cancun,taboorestaurant.com.mx,None Found,+52 998 234 2528,"Blvd. Kukulcan Km 13.5, Zona Hotelera, 77500 Cancún, Q.R., México",Restaurante mediterráneo, Cierra a las 3a.m.,Cancún
Restaurante Flor De Lis | Av. Tulum,restauranteflordelis.com.mx,None Found,+52 998 184 2074,"Av. Tulum Sur Supermanzana 15A, 77505 Cancún, Q.R., México",Restaurante, Cierra a las 11p.m.,Cancún
Les Cèpages,lescepages.com.mx,Restaurante casual con íntimo comedor en donde se presentan platillos internacionales con influencia francesa.,+52 998 860 6183,"Plaza Nichupté, Av. Nichupte Mza 5 Super, Centro, 77505 Cancún, Q.R., México",Restaurante francés, Cierra a las 10p.m.,Cancún
Les Cèpages,lescepages.com.mx,Restaurante casual con íntimo comedor en donde se presentan platillos internacionales con influencia francesa.,+52 998 860 6183,"Plaza Nichupté, Av. Nichupte Mza 5 Super, Centro, 77505 Cancún, Q.R., México",Restaurante francés, Cierra a las 10p.m.,Cancún
Calypso's Restaurant,,"Local apacible decorado de forma colorida, con margaritas y platos tradicionales de mariscos y carnes.",+52 998 214 5393,"near Selecto supermarket behind of the Aloft hotel, Plaza Parian, Accross from Xcaret office, Blvd. Kukulcan km 8.5, Zona Hotelera, 77500 Cancún, Q.R., México",Restaurante mexicano,,Cancún
Casa Tequila,casatequilacancun.com,Agradable restobar tradicional con una amplia terraza y una gran variedad de tequilas.,+52 998 240 7850,"Blvd. Kukulcan Km 8.5-local 2, Punta Cancun, Zona Hotelera, 77500 Cancún, Q.R., México",Restaurante, Cierra a las 11p.m.,Cancún
Casa Tequila,casatequilacancun.com,Agradable restobar tradicional con una amplia terraza y una gran variedad de tequilas.,+52 998 240 7850,"Blvd. Kukulcan Km 8.5-local 2, Punta Cancun, Zona Hotelera, 77500 Cancún, Q.R., México",Restaurante, Cierra a las 11p.m.,Cancún
Las Brasas del Bajío,,None Found,,"Sm 69 Mz 1 Lt 23 Av Lopez Portillo # 113, López Portillo 113, 77510 Cancún, Q.R., México",Restaurante mexicano, Cierra a la 1a.m.,Cancún
Las Brasas del Bajío,,None Found,,"Sm 69 Mz 1 Lt 23 Av Lopez Portillo # 113, López Portillo 113, 77510 Cancún, Q.R., México",Restaurante mexicano, Cierra a la 1a.m.,Cancún
La Mesa del Charro,,None Found,+52 998 895 2669,"Tejón 4, 77500 Cancún, Q.R., México",Restaurante mexicano, Cierra a las 12a.m.,Cancún
Cafe Antoinette,cafe-antoinette.com,None Found,+52 998 884 6128,"Al lado de Pabellon Caribe, Av Xpuhil Supermanzana 19 Manzana 2 Lote 24, centro, 77500 Cancún, Q.R., México",Restaurante de desayunos, Cierra a las 11p.m.,Cancún
Sushigo Yaxchilan,sushigo.com.mx,None Found,+52 998 898 0504,"Av Yaxchilán Supermanzana 17, Coral Rivera, 77505 Cancún, Q.R., México",Restaurante japonés, Cierra a las 11p.m.,Cancún
Restaurante Taco y Tequila Plaza La Isla,tacoytequila.com,None Found,+52 998 176 8099,"Blvd. Kukulcan 25, La Isla, Zona Hotelera, 77500 Cancún, Q.R., México",Restaurante mexicano, Cierra a las 10p.m.,Cancún
Lonchería El Pocito,facebook.com,"Lugar tranquilo con gastronomía regional típica, incluidos desayunos, en un entorno rústico.",+52 998 242 9268,"31 Norte Lte 23 Mz35 SM 63, Centro, 77513 Cancún, Q.R., México",Restaurante mexicano, Abre a las 8a.m. del dom,Cancún
Lonchería El Pocito,facebook.com,"Lugar tranquilo con gastronomía regional típica, incluidos desayunos, en un entorno rústico.",+52 998 242 9268,"31 Norte Lte 23 Mz35 SM 63, Centro, 77513 Cancún, Q.R., México",Restaurante mexicano, Abre a las 8a.m. del dom,Cancún
La Casa de la Mantarraya,casadelamantarraya.com,None Found,+52 998 255 6502,"Av. Xpujil Sur Mz2 Lt26, 77500 Cancún, Q.R., México",Restaurante, Cierra a las 12a.m.,Cancún
La Casa de la Mantarraya,casadelamantarraya.com,None Found,+52 998 255 6502,"Av. Xpujil Sur Mz2 Lt26, 77500 Cancún, Q.R., México",Restaurante, Cierra a las 12a.m.,Cancún
100% Natural Cancún,100natural.com,None Found,+52 998 884 0102,"Av Sunyaxchen Mza. 6, 77509 Cancún, Q.R., México",Restaurante de comida saludable, Abre a las 7a.m. del dom,Cancún
100% Natural Cancún,100natural.com,None Found,+52 998 884 0102,"Av Sunyaxchen Mza. 6, 77509 Cancún, Q.R., México",Restaurante de comida saludable, Abre a las 7a.m. del dom,Cancún
The Surfin Burrito,facebook.com,"Lugar tranquilo, discreto y cercano a la playa donde se venden burritos, tacos y cocteles tropicales.",+52 998 490 2117,"Blvd. Kukulcan Km. 9.5, Punta Cancun, Zona Hotelera, 77500 Cancún, Q.R., México",Restaurante mexicano,,Cancún
The Surfin Burrito,facebook.com,"Lugar tranquilo, discreto y cercano a la playa donde se venden burritos, tacos y cocteles tropicales.",+52 998 490 2117,"Blvd. Kukulcan Km. 9.5, Punta Cancun, Zona Hotelera, 77500 Cancún, Q.R., México",Restaurante mexicano,,Cancún
Bodega Argentina,bodegaargentina.com.mx,None Found,+52 998 427 0525,"Marina Puerto Cancún, Blvd. Kukulcan Puerto Juarez, Zona Hotelera, 77500 Cancún, 77500 Cancún, Q.R., México",Restaurante argentino, Cierra a las 12a.m.,Cancún
Bodega Argentina,bodegaargentina.com.mx,None Found,+52 998 427 0525,"Marina Puerto Cancún, Blvd. Kukulcan Puerto Juarez, Zona Hotelera, 77500 Cancún, 77500 Cancún, Q.R., México",Restaurante argentino, Cierra a las 12a.m.,Cancún
Patravali Indian Cuisine,patravalicancun.com,None Found,+52 998 887 3335,"local 201, Av. Bonampak SM4A M1 Lote 4C, 2, 77500 Cancún, Q.R., México",Restaurante indio, Cierra a las 10p.m.,Cancún
Restaurant Byblos,restaurantbyblos.com,Sabores árabes con influencia mexicana en un comedor informal con ambiente hogareño y servicio a domicilio.,+52 998 887 4041,"Palenque 108, 77509 Cancún, Q.R., México",Restaurante libanés, Cierra a las 12a.m.,Cancún
Restaurant Byblos,restaurantbyblos.com,Sabores árabes con influencia mexicana en un comedor informal con ambiente hogareño y servicio a domicilio.,+52 998 887 4041,"Palenque 108, 77509 Cancún, Q.R., México",Restaurante libanés, Cierra a las 12a.m.,Cancún
La Taberna de Los Amigos - Sol,,"Alegre bar con terraza y pantallas para probar alitas, pastas y hamburguesas acompañadas de cerveza y tragos.",+52 998 206 2006,"Av. Del Sol Supermanzana 44 Manzana 1 Lote 9, 77507 Cancún, Q.R., México",Restaurante, Cierra a las 3a.m.,Cancún
Mochomos Cancún,opentable.com.mx,None Found,+52 998 577 2349,"Boulevard Kukulkán Lote 18-10 Manzana 52, UP. 1 sección ""A, Local B, Zona Hotelera, 77500 Cancún, Q.R., México",Restaurante, Cierra a las 2a.m.,Cancún
Mochomos Cancún,opentable.com.mx,None Found,+52 998 577 2349,"Boulevard Kukulkán Lote 18-10 Manzana 52, UP. 1 sección ""A, Local B, Zona Hotelera, 77500 Cancún, Q.R., México",Restaurante, Cierra a las 2a.m.,Cancún
Woking Dead,wokingdeadnader.ola.click,None Found,+52 998 559 2042,"Mero Retorno No.30, 77500 Cancún, Q.R., México",Restaurante, Cierra a las 10p.m.,Cancún
Woking Dead,wokingdeadnader.ola.click,None Found,+52 998 559 2042,"Mero Retorno No.30, 77500 Cancún, Q.R., México",Restaurante, Cierra a las 10p.m.,Cancún
Gory Tacos,,None Found,+52 19981023002,"Tulipanes 32, 77500 Cancún, Q.R., México",Taquería, Cierra a las 9:30p.m.,Cancún
La Casa de Las Mayoras,facebook.com,None Found,+52 998 256 8300,"Calle Guadalupe Victoria M51 L16 C46 x Calle Miguel Hidalgo Donceles 28, 77524 Cancún, Q.R., México",Restaurante vegetariano, Abre a las 8a.m. del lun,Cancún
La Casa de Los Abuelos - Bonampak,casadelosabuelos.com.mx,"Un restaurante casual que ofrece platillos mexicanos y cuenta con panadería, terraza y sala de juegos.",+52 998 884 5164,"Av. Bonampak Mz. 1-Lote 4, Sm. 4A, 77500 Cancún, Q.R., México",Restaurante, Cierra a las 11p.m.,Cancún
La Casa de Los Abuelos - Bonampak,casadelosabuelos.com.mx,"Un restaurante casual que ofrece platillos mexicanos y cuenta con panadería, terraza y sala de juegos.",+52 998 884 5164,"Av. Bonampak Mz. 1-Lote 4, Sm. 4A, 77500 Cancún, Q.R., México",Restaurante, Cierra a las 11p.m.,Cancún
Mu. Burgerhouse Nichupté | Hamburguesería Cancún,muburgers.mx,None Found,+52 998 138 2813,"Nichupte, SM 51 MZ 51 LOTE 11, 77533 Cancún, Q.R., México",Restaurante, Cierra a las 11:30p.m.,Cancún
El galeón del caribe,facebook.com,None Found,,"km 19.4, Kukulkan, Zona Hotelera, 77500 Cancún, Q.R., México",Restaurante mexicano, Abre a las 12p.m. del dom,Cancún
El galeón del caribe,facebook.com,None Found,,"km 19.4, Kukulkan, Zona Hotelera, 77500 Cancún, Q.R., México",Restaurante mexicano, Abre a las 12p.m. del dom,Cancún
Cocos and Grill,cocosandgrill.com.mx,"Club de playa y restaurant sobre la arena con menú caribeño que incluye mariscos, cortes y bebidas tropicales.",+52 998 849 5899,"Blvd. Kukulkan Km 3.2 Lote D-1, Zona Hotelera, 77500 Cancún, Q.R., México",Marisquería, Abre a las 10:30a.m. del dom,Cancún
Restaurante Käajal,marriott.com,None Found,+52 998 340 0857,"Hotel Renaissance, Blvd. Kukulcan Km 1.5, Puerto Juarez, Zona Hotelera, 77500 Cancún, Q.R., México",Restaurante,,Cancún
Restaurante Käajal,marriott.com,None Found,+52 998 340 0857,"Hotel Renaissance, Blvd. Kukulcan Km 1.5, Puerto Juarez, Zona Hotelera, 77500 Cancún, Q.R., México",Restaurante,,Cancún
La Patrona Cocina Urbana Mercado 28,,None Found,+52 998 884 5050,"Plaza Portales, Xel-ha 50-28, 77500 Cancún, Q.R., México",Restaurante mexicano, Abre a las 8a.m. del dom,Cancún
La palapita la luna,lapalapita.mx,None Found,+52 998 224 9946,"Plaza Urbana Av. Nichupté 51 Av Nichupté, Av. la Luna esq, 77533 Cancún, Q.R., México",Restaurante, Cierra a las 2a.m.,Cancún
