Names,Website,Introduction,Phone Number,Address,Type,Opens At,Municipio
La Ranita Tapatía,facebook.com,"Restaurante a un lado del camino, en el que se sirven pastas, tacos, platos de carne, sándwiches y postres.",+52 55 5975 3905,"Carretera Libramiento Chalco-Cuautla S/N Col San Gregorio Cuautzingo, 56640 Chalco de Díaz Covarrubias, Méx., México",Restaurante mexicano, Abre a las 8a.m.,Chalco de Díaz Covarrubias
Restaurante Paradise,facebook.com,None Found,+52 998 870 5052,"Av. Cuauhtémoc Ote. 50, Granjas de Chalco, 56600 Chalco de Díaz Covarrubias, Méx., México",Restaurante mexicano, Abre a las 7a.m.,Chalco de Díaz Covarrubias
Espartacos Chalco,restauranteespartacos.com.mx,None Found,+52 55 1734 1347,"ESQUINA, CODIGO AGRARIO CARRETERA FEDERAL MEXICO-CUAUTLA KM 34.5, Código Agrario, COLONIA AMPLIACION, Emiliano Zapata, 56608 Chalco de Díaz Covarrubias, Méx., México",Restaurante, Abre a las 8a.m.,Chalco de Díaz Covarrubias
Cremería Chalco,cremeriachalco.com,"Histórica cremería, heladería y restaurante mexicano de antaño en un renovado comedor con grandes ventanales.",+52 55 5975 0583,"Av. Cuauhtémoc Ote. S/N, Chalco Centro, 56600 Chalco de Díaz Covarrubias, Méx., México",Restaurante de postres, Abre a las 8a.m.,Chalco de Díaz Covarrubias
Cháli-co,,None Found,+52 56 1349 2905,"Captain de la Rosa 5, Chalco Centro, 56600 Chalco de Díaz Covarrubias, Méx., México",Restaurante mexicano, Abre a las 9a.m.,Chalco de Díaz Covarrubias
Restaurante Los Cochinitos,loscochinitos.com.mx,None Found,,"Carretera Federal 115, Emiliano Zapata, 56608 Chalco de Díaz Covarrubias, Méx., México",Restaurante mexicano,,Chalco de Díaz Covarrubias
Carnitas Don Agussstinnn (Suc. Chalco centro),,None Found,+52 55 7111 3012,"Hidalgo, C. Mariano Matamoros 27 Esq, Centro, 56600 Chalco de Díaz Covarrubias, Méx., México",Restaurante mexicano, Abre a las 8a.m.,Chalco de Díaz Covarrubias
Mariscos Mi Lindo Veracruz,,None Found,+52 55 5982 7523,"Av. Cuauhtémoc Ote. Manzana 40 Lote 41, Col. Granjas, 56600 Chalco de Díaz Covarrubias, Méx., México",Marisquería, Abre a las 8a.m.,Chalco de Díaz Covarrubias
Mi Lindo Mazatlán,,None Found,+52 55 8380 4397,"56606, Zona Industrial, 56600 Chalco de Díaz Covarrubias, Méx., México",Marisquería, Abre a las 8a.m.,Chalco de Díaz Covarrubias
Restaurante La Flor de Chalco,facebook.com,None Found,+52 55 3092 6487,"56600 Cocotitlán, Méx., México",Restaurante, Abre a las 8a.m.,Chalco de Díaz Covarrubias
Restaurante & Café La Parroquia De San Agussstínnn,,None Found,+52 55 3092 1411,"Calle Hidalgo & Mariano Matamoros 14, Calle Hidalgo, Chalco Centro, 56600 Chalco de Díaz Covarrubias, Méx., México",Restaurante mexicano, Abre a las 8a.m.,Chalco de Díaz Covarrubias
Bejuco,,None Found,+52 55 1814 0443,"Adolfo López Mateos s/n, Santa Cruz Amalinalco, 56609 Chalco de Díaz Covarrubias, Méx., México",Pizzería, Abre a las 2p.m.,Chalco de Díaz Covarrubias
RESTAURANTE EL RIFLE,negocio.site,None Found,+52 55 1804 6415,"CALLE PINO SUAREZ 7, COLONIA EJIDAL CHALCO DE DIAZ COVARRUBIAS, 56604 MEXICO, Méx., México",Restaurante mexicano, Abre a las 8:30a.m.,Chalco de Díaz Covarrubias
La Covacha,,None Found,+52 55 5973 0961,"C. Naranjo 22, Ejidal, 56604 Chalco de Díaz Covarrubias, Méx., México",Restaurante mexicano, Abre a las 9a.m.,Chalco de Díaz Covarrubias
La Cocina del Gourmet,,None Found,+52 55 3092 0194,"C. Reforma Manzana 012, La Bomba, 56600 Chalco de Díaz Covarrubias, Méx., México",Restaurante mexicano, Abre a las 8a.m. del lun,Chalco de Díaz Covarrubias
Los Frescos Chalco,facebook.com,None Found,+52 55 1376 7636,"Av. San Isidro Manzana 014 Lote 9, La Conchita, 56600 Chalco de Díaz Covarrubias, Méx., México",Restaurante, Abre a las 8a.m. del lun,Chalco de Díaz Covarrubias
Los Cochinitos Chalco Centro,loscochinitos.com.mx,None Found,+52 55 1234 4526,"Av. Cuauhtémoc Pte. 20, Chalco Centro, 56600 Chalco de Díaz Covarrubias, Méx., México",Restaurante mexicano, Abre a las 8a.m.,Chalco de Díaz Covarrubias
Cocina Familiar Diana,,None Found,+52 55 5975 0222,"C. Reforma 62, Ejidal, 56604 Chalco de Díaz Covarrubias, Méx., México",Restaurante de brunch, Abre a las 8a.m. del lun,Chalco de Díaz Covarrubias
El Sazón De Susy,,None Found,+52 55 7663 7298,"Francisco Javier Mina No. 19a, Chalco Centro, 56600 Chalco de Díaz Covarrubias, Méx., México",Restaurante mexicano, Abre a las 8a.m.,Chalco de Díaz Covarrubias
Fonda Mexicana El Tapatío,,None Found,+52 55 5973 0196,"Prol. Niño Artillero 798-A, La Conchita, 56600 Chalco de Díaz Covarrubias, Méx., México",Restaurante mexicano, Abre a las 7:30a.m.,Chalco de Díaz Covarrubias
Parrilla El Canaya,,None Found,+52 56 3604 5079,"Avenida Aquiles Serdan 35 Colonia San Miguel Jacalones Chalco, 56600 Mexico, Méx., México",Parrilla, Abre a las 2p.m.,Chalco de Díaz Covarrubias
Ko'koro Kitchen Chalco,,None Found,+52 55 2110 3926,"C. 5 de Mayo Manzana 44, Ejidal, 56600 Chalco de Díaz Covarrubias, Méx., México",Restaurante americano, Abre a las 2p.m.,Chalco de Díaz Covarrubias
El andador,,None Found,+52 55 5973 2934,"Captain de la Rosa 2, Chalco Centro, 56600 Chalco de Díaz Covarrubias, Méx., México",Bar restaurante,,Chalco de Díaz Covarrubias
Plaza Junker's,,None Found,+52 55 3476 7147,"Avenida san juan Lt.11,manzana 177 , col, Casco de San Juan, 56600 Chalco de Díaz Covarrubias, Méx., México",Restaurante, Abre a las 2p.m.,Chalco de Díaz Covarrubias
Pozoleria Poctzin CHALCO,,None Found,+52 55 5240 6017,"Av. San Isidro S/N, Bosques de Chalco 2, 56600 Chalco de Díaz Covarrubias, Méx., México",Restaurante mexicano, Abre a las 10a.m.,Chalco de Díaz Covarrubias
"La Choperia, Paseo Chalco",facebook.com,None Found,+52 55 3092 0411,"Plaza Paseo Chalco Bvld, Lib. Arturo Montiel Rojas 14, La Conchita, 56600 Chalco de Díaz Covarrubias, Méx., México",Bar restaurante, Abre a las 12p.m.,Chalco de Díaz Covarrubias
Carnitas Don Agussstinnn (Suc. Libramiento),carnitasdonagussstinnn.com,None Found,+52 55 3092 2232,"Carretera Federal Mèxico - Cuatla km 38.5, San Gregorio, 56600 Chalco de Díaz Covarrubias, Méx., México",Restaurante, Abre a las 8a.m.,Chalco de Díaz Covarrubias
La Cervecería de Chalco,,None Found,,"Av. Cuauhtémoc Pte. 17, Ejidal, 56604 Chalco de Díaz Covarrubias, Méx., México",Bar, Abre a las 11a.m.,Chalco de Díaz Covarrubias
El Carboncito de Chalco,,None Found,+52 55 3145 1730,"Av. San Isidro S/N, Bosques de Chalco 2, Chalco de Díaz Covarrubias, 56600 México, Méx., México",Restaurante de brunch, Abre a las 8a.m. del lun,Chalco de Díaz Covarrubias
Birrieria Ahome,,None Found,+52 55 5973 1636,"Av. Cuauhtémoc Pte. S/N, La Bomba, 56604 Chalco de Díaz Covarrubias, Méx., México",Restaurante familiar, Abre a las 8a.m.,Chalco de Díaz Covarrubias
Comedor Lila,,None Found,+52 55 7361 3500,"Covarrubias #34 Chalco centro, Ejidal, 56604 Chalco de Díaz Covarrubias, Méx., México",Restaurante, Abre a las 8:30a.m.,Chalco de Díaz Covarrubias
MARISCOS “La Langosta”,,None Found,+52 55 6472 7258,"Manzana 010, Chalco Centro, 56600 Chalco de Díaz Covarrubias, Méx., México",Marisquería, Abre a las 10a.m.,Chalco de Díaz Covarrubias
La Hamburguesa Perfecta,,None Found,+52 55 2185 9184,"Av. Cuauhtémoc Poniente Esquina, Unión 2, La Bomba, 56600 Chalco de Díaz Covarrubias, Méx., México",Hamburguesería, Abre a las 10:30a.m.,Chalco de Díaz Covarrubias
Restaurante Ahome,,None Found,+52 55 3092 6360,"Carr Federal México-Cuautla Col, Casco de San Juan, 56600 Chalco de Díaz Covarrubias, Méx., México",Marisquería, Abre a las 9a.m.,Chalco de Díaz Covarrubias
Johnny Bologni,,"Comedor rústico y sereno patio decorado con plantas en donde se ofrecen pizzas a la leña, ensaladas y cortes.",+52 55 5975 2174,"Guadalupe Victoria 24, La Conchita, 56600 Chalco de Díaz Covarrubias, Méx., México",Pizzería, Abre a las 2p.m.,Chalco de Díaz Covarrubias
Carnitas El Jardin de Chalco,,None Found,+52 56 2791 7727,"Calle Jacarandas, Pino esquina, San Miguel Jacalones, 56604 Chalco de Díaz Covarrubias, Méx., México",Restaurante familiar, Abre a las 9a.m.,Chalco de Díaz Covarrubias
"Restaurante ""FU YUAN""",,None Found,+52 55 5975 6619,"Calle Hidalgo 15, Colonia centro, 56600 Chalco de Díaz Covarrubias, Méx., México",Restaurante chino,,Chalco de Díaz Covarrubias
Cocina Tlacualoya,,None Found,,"Calle Vicente Guerrero 4, Chalco Centro, 56600 Chalco de Díaz Covarrubias, Méx., México",Restaurante, Abre a las 8:30a.m.,Chalco de Díaz Covarrubias
Tu cocina,,None Found,+52 55 5975 1240,"Nicolás Bravo 13, Centro, 56600 Chalco de Díaz Covarrubias, Méx., México",Restaurante mexicano, Abre a las 9a.m. del lun,Chalco de Díaz Covarrubias
Yolis Restaurante,,None Found,+52 55 5973 4520,"Francisco Javier Mina 6, San Francisco, 56600 Chalco de Díaz Covarrubias, Méx., México",Restaurante, Abre a las 8a.m. del lun,Chalco de Díaz Covarrubias
Doña Rosa Chalco,,None Found,+52 55 6941 7727,"C. 12 de Octubre 139, La Bomba, 56600 Chalco de Díaz Covarrubias, Méx., México",Restaurante mexicano, Abre a las 9a.m.,Chalco de Díaz Covarrubias
Mixiotes Chalco,facebook.com,None Found,,"Av. Cuauhtémoc Ote. Manzana 024, Zona Industrial, 56600 Chalco de Díaz Covarrubias, Méx., México",Restaurante, Abre a las 8:30a.m.,Chalco de Díaz Covarrubias
Taqueria El Torito Sureño,,None Found,+52 55 5982 8159,"Av. Cuauhtémoc Ote. 1038B, Zona Industrial, 56600 Chalco de Díaz Covarrubias, Méx., México",Taquería, Abre a las 2p.m.,Chalco de Díaz Covarrubias
Huaraches Lupita,,None Found,,"Calle San Sebastian 7-Local 5, Chalco Centro, 56600 Chalco de Díaz Covarrubias, Méx., México",Restaurante mexicano, Abre a las 9a.m.,Chalco de Díaz Covarrubias
CHUCK & CHILL Chalco,chuckandchill.com,None Found,+52 56 1367 3840,"Av. San Isidro S/N, Bosques de Chalco 2, 56600 Chalco de Díaz Covarrubias, Méx., México",Hamburguesería, Abre a la 1p.m.,Chalco de Díaz Covarrubias
Panes y Pasteles de Tenango,,None Found,+52 998 870 5052,"Av. Cuauhtémoc Ote. 4-C, Chalco Centro, 56600 Chalco de Díaz Covarrubias, Méx., México",Restaurante mexicano, Abre a las 9a.m.,Chalco de Díaz Covarrubias
La Burguer Chalco,order.store,None Found,+52 55 6524 9460,"Artes y Oficios 20, Casco de San Juan, 56600 Chalco de Díaz Covarrubias, Méx., México",Hamburguesería, Abre a las 4p.m.,Chalco de Díaz Covarrubias
SUPER COCINA MARY,,None Found,+52 55 3183 3981,"Calle Hidalgo 48, Chalco Centro, 56600 Chalco de Díaz Covarrubias, Méx., México",Restaurante especializado en soul food, Abre a las 9a.m.,Chalco de Díaz Covarrubias
Vikinghuset,,None Found,,"C. Francisco I. Madero 28A, Chalco Centro, 56604 Chalco de Díaz Covarrubias, Méx., México",Restaurante de comida rápida,,Chalco de Díaz Covarrubias
Pozoleria El Wicho,,None Found,+52 55 1929 0881,"Av Aquiles Serdán 30, Ejidal, 56604 Chalco de Díaz Covarrubias, Méx., México",, Abre a las 3p.m.,Chalco de Díaz Covarrubias
Negro Santo Mx,,None Found,+52 55 6748 6334,"C. Reforma 18-Local 3, Chalco Centro, 56600 Chalco de Díaz Covarrubias, Méx., México",Bar de tapas, Abre a las 4p.m.,Chalco de Díaz Covarrubias
Restaurante XIANG LONG,,None Found,,"Calle Vicente Guerrero 7, San Francisco, 56600 Chalco de Díaz Covarrubias, Méx., México",Restaurante chino, Abre a las 11a.m.,Chalco de Díaz Covarrubias
Antojitos Lau Chalco,acortar.link,None Found,+52 55 2984 5942,"Calle, Av. del Mazo mz 21, Chalco de Díaz Covarrubias, Méx., México",Restaurante,,Chalco de Díaz Covarrubias
Los Anafres,,None Found,+52 55 3658 1513,"Av. Cuauhtémoc Ote. 39, Zona Industrial, 56600 Chalco de Díaz Covarrubias, Méx., México",Restaurante, Abre a las 9a.m. del lun,Chalco de Díaz Covarrubias
Marisqueria Del Valle,,None Found,+52 55 5975 5015,"Blvd. Cuauhtemoc 47 esquina Álvaro Obregón, Ejidal, 56600 Chalco de Díaz Covarrubias, Méx., México",Marisquería, Abre a las 9a.m.,Chalco de Díaz Covarrubias
Cocina Zaryana,,None Found,+52 15533774694,"Francisco Javier Mina 12, Chalco Centro, 56600 Chalco de Díaz Covarrubias, Méx., México",Restaurante mexicano, Abre a las 8a.m. del lun,Chalco de Díaz Covarrubias
Terraza La Estación,,None Found,+52 55 2120 1043,"Calle Vicente Guerrero 30, Centro, 56604 Chalco de Díaz Covarrubias, Méx., México",Restaurante, Abre a las 9a.m.,Chalco de Díaz Covarrubias
Central de Alitas,,None Found,+52 55 1734 1298,"Av. Cuauhtémoc Pte. 872, San Miguel Jacalones, 56604 Chalco de Díaz Covarrubias, Méx., México",Hamburguesería, Abre a las 2p.m.,Chalco de Díaz Covarrubias
Machetes Doña Mary,,None Found,+52 55 5975 6004,"Calle Enseñanza Técnica 600, Salitreria, 56600 Chalco de Díaz Covarrubias, Méx., México",Restaurante mexicano, Abre a las 10:30a.m.,Chalco de Díaz Covarrubias
Mariscos Mi Mazatlán,,None Found,+52 55 2065 9491,"Calle Vicente Guerrero 5, Chalco Centro, 56600 Chalco de Díaz Covarrubias, Méx., México",Marisquería, Abre a las 9a.m.,Chalco de Díaz Covarrubias
Restaurante La Comarca,,None Found,+52 55 7338 3066,"Francisco Javier Mina, San Antonio, 56600 Chalco de Díaz Covarrubias, Méx., México",, Abre a las 12p.m.,Chalco de Díaz Covarrubias
Pescados y Mariscos Lo Mejor del Mar,,None Found,,"Calle Vicente Guerrero Manzana 017, Chalco Centro, 56600 Chalco de Díaz Covarrubias, Méx., México",Marisquería, Abre a las 4a.m.,Chalco de Díaz Covarrubias
.,,None Found,,"Nicolás Bravo 2, Chalco Centro, 56600 Chalco de Díaz Covarrubias, Méx., México",Taquería, Abre a las 9a.m. del lun,Chalco de Díaz Covarrubias
Didi's,facebook.com,None Found,+52 55 8935 1490,"C. Reforma 54, La Bomba, 56604 Chalco de Díaz Covarrubias, Méx., México",Hamburguesería, Abre a las 3p.m.,Chalco de Díaz Covarrubias
RESTAURANTE FERRERI,restauranteferreri.com,None Found,+52 56 1138 3417,"Av san isidro 107 la conchita Chalco, 56600 Estado de México, Méx., México",Restaurante italiano, Abre a las 11:30a.m.,Chalco de Díaz Covarrubias
La Casa del Café - Chalco Centro,lacasadelcafe.com.mx,None Found,+52 56 1641 3993,"Av. Cuauhtémoc Ote. 47, Chalco Centro, 56600 Chalco de Díaz Covarrubias, Méx., México",Cafetería, Abre a las 9a.m.,Chalco de Díaz Covarrubias
Caldos de Gallina El Vale,,None Found,,"Av. Cuauhtémoc Ote. 6, Chalco Centro, 56600 Chalco de Díaz Covarrubias, Méx., México",Restaurante especializado en pollo, Abre a las 9a.m.,Chalco de Díaz Covarrubias
Tacos Abel,,None Found,+52 56 2598 1365,"Calle Valientes 9 Colonia, Valientes 9, San Sebastian, 56600 Chalco de Díaz Covarrubias, Méx., México",Taquería, Abre a las 12:30p.m.,Chalco de Díaz Covarrubias
mariscos y sushi santa madre chalco,facebook.com,None Found,+52 56 3958 2709,"Av Aquiles Serdán Manzana 025 local 54a, San Miguel Jacalones, 56604 Chalco de Díaz Covarrubias, Méx., México",Marisquería, Abre a las 12p.m.,Chalco de Díaz Covarrubias
Taquería La Pastora Chalco,facebook.com,None Found,,"Bodegas 207, Ejidal, 56604 Chalco de Díaz Covarrubias, Méx., México",Taquería, Abre a las 5:30p.m.,Chalco de Díaz Covarrubias
Cafetería del Parque Chalco,,None Found,+52 55 8441 7741,"Tizapa 81, Ejidal, 56604 Chalco de Díaz Covarrubias, Méx., México",Cafetería, Abre a las 2p.m.,Chalco de Díaz Covarrubias
La Roca,,None Found,+52 55 1183 0499,"Av. Cuauhtémoc Pte. Manzana 042, San Miguel Jacalones, 56604 Chalco de Díaz Covarrubias, Méx., México",Sala de baile, Abre a las 10a.m. del lun,Chalco de Díaz Covarrubias
LA COCINA DE CARLITOS,,None Found,,"Av. Cuauhtémoc Ote. Manzana 012, La Conchita, 56600 Chalco de Díaz Covarrubias, Méx., México",Restaurante,,Chalco de Díaz Covarrubias
Politacos,,None Found,,"Mercado Municipal, Enfrente de la plaza Chalco, Calle Vicente Guerrero, Chalco Centro, 56600 Chalco de Díaz Covarrubias, Méx., México",Restaurante, Abre a las 9a.m.,Chalco de Díaz Covarrubias
Lilian´s comidas,,None Found,+52 56 1550 6274,"56600 ejidos, 56600 Chalco de Díaz Covarrubias, Méx., México",Restaurante, Cierra a las 5:30a.m. ,Chalco de Díaz Covarrubias
La Número Uno Chalco,,None Found,+52 55 2919 8877,"Emiliano Zapata 15, Chalco Centro, 56600 Chalco de Díaz Covarrubias, Méx., México",Karaoke, Abre a las 10a.m.,Chalco de Díaz Covarrubias
Ricos Huaraches Lupita,,None Found,,"Calle Enseñanza Técnica 29-Local 2, San Sebastian, 56600 Chalco de Díaz Covarrubias, Méx., México",Restaurante, Abre a las 10a.m.,Chalco de Díaz Covarrubias
Hooligans Pizza,,None Found,+52 55 5066 7980,"C. Mariano Matamoros 9-Loc.1, Chalco Centro, 56600 Chalco de Díaz Covarrubias, Méx., México",Pizzería, Abre a las 12p.m.,Chalco de Díaz Covarrubias
Kun Fu,,None Found,,"C. Riva Palacio Manzana 034 Local B, Chalco Centro, 56600 Chalco de Díaz Covarrubias, Méx., México",Restaurante de cocina mandarina, Abre a las 11a.m.,Chalco de Díaz Covarrubias
La Internacional Chalco,,None Found,+52 55 4924 8768,"Av. Cuauhtémoc Pte. 872-Local A, San Miguel Jacalones, 56604 Chalco de Díaz Covarrubias, Méx., México",Pub, Abre a las 4p.m.,Chalco de Díaz Covarrubias
El Cemidero,,None Found,+52 55 7408 1373,"Covarrubias 34, Ejidal, 56604 Chalco de Díaz Covarrubias, Méx., México",Restaurante mexicano,,Chalco de Díaz Covarrubias
FUENTE DE SODAS CHECO’S,,None Found,,"C. Reforma 9, Chalco Centro, 56600 Chalco de Díaz Covarrubias, Méx., México",Restaurante, Abre a las 9a.m.,Chalco de Díaz Covarrubias
Mr. Taco,mr-taco.com.mx,"Restaurante con ambiente familiar que ofrece tacos, tortas y antojitos para comer ahí o entregar a domicilio.",+52 55 5975 3334,"56600, Chalco Centro, 56600 Chalco de Díaz Covarrubias, Méx., México",Taquería, Abre a las 2p.m.,Chalco de Díaz Covarrubias
El Localito,facebook.com,None Found,+52 221 746 8526,"Calle Álvaro Obregón 15, Chalco Centro, 56600 Chalco de Díaz Covarrubias, Méx., México",Bar, Abre a las 10a.m.,Chalco de Díaz Covarrubias
Marisquería Mazatlán,,None Found,+52 55 2929 5916,"Av. Cuauhtémoc Pte. 51-Local 5, Chalco Centro, 56600 Chalco de Díaz Covarrubias, Méx., México",Marisquería, Abre a las 8a.m.,Chalco de Díaz Covarrubias
CAFETERÍA TRASPATIO CHALCO,,None Found,+52 55 7585 1710,"Covarrubias 37, Ejidal, 56604 Chalco de Díaz Covarrubias, Méx., México",Cafetería, Abre a las 5p.m.,Chalco de Díaz Covarrubias
KFC (Food Court),kfc.com.mx,"Cadena de restaurantes conocida por sus cubos de pollo frito, combinaciones de comidas y acompañamientos.",+52 55 1515 4747,"Av. Vicente Guerrero, Covarrubias S/N-Int. N/A, Centro, 56600 Chalco de Díaz Covarrubias, Méx., México",Restaurante de comida rápida, Abre a las 10a.m.,Chalco de Díaz Covarrubias
La Pancita de Carlitos,,None Found,+52 55 7804 5203,"Calle Vicente Guerrero 4, Chalco Centro, 56600 Chalco de Díaz Covarrubias, Méx., México",Restaurante mexicano,,Chalco de Díaz Covarrubias
Bambinos Pizza,,None Found,+52 55 5975 2777,"Av. Cuauhtémoc Pte. 23-B-Planta Alta, Ejidal, 56604 Chalco de Díaz Covarrubias, Méx., México",Pizzería, Abre a las 12p.m.,Chalco de Díaz Covarrubias
country buffet,,None Found,+52 55 5973 3484,"Av. Cuauhtémoc Ote. Manzana 022, Industrial Zone, 56600 Chalco de Díaz Covarrubias, Méx., México",Restaurante,,Chalco de Díaz Covarrubias
Tortas D' Amor-didas,,None Found,,"Nicolás Bravo 8, Chalco Centro, 56600 Chalco de Díaz Covarrubias, Méx., México",Restaurante mexicano, Abre a las 9a.m. del lun,Chalco de Díaz Covarrubias
"Desayunos el ""33"" de chalco",desayunos-el-33.webnode.mx,None Found,+52 55 4927 3616,"Portal, Miguel Hidalgo Carr. Chalco - Mixquic 19, 56600 Chalco de Díaz Covarrubias, Méx., México",Restaurante, Abre a las 11a.m.,Chalco de Díaz Covarrubias
COCINA RODRIGO,,None Found,,"Emiliano Zapata, Chalco Centro, 56600 Chalco de Díaz Covarrubias, Méx., México",Restaurante, Abre a las 11a.m. del lun,Chalco de Díaz Covarrubias
Pizzeria el mexicano,,None Found,+52 55 5975 3637,"Calle Vicente Guerrero 46-Loc.2, Casco de San Juan, 56600 Chalco de Díaz Covarrubias, Méx., México",Pizzería, Abre a las 11a.m.,Chalco de Díaz Covarrubias
Súper Tortotas,,None Found,+52 55 5973 0564,"C. Porfirio Díaz 3, Chalco Centro, 56600 Chalco de Díaz Covarrubias, Méx., México",, Abre a las 11a.m.,Chalco de Díaz Covarrubias
Restaurant Buffet Chino,,None Found,,"Calle San Sebastian 11, Salitreria, 56600 Chalco de Díaz Covarrubias, Méx., México",Restaurante,,Chalco de Díaz Covarrubias
Lidos Pizza Chalco Centro eres un de WhatsApp para pedí una para domicilio,lidospizza.mx,None Found,+52 55 8942 8922,"Calle San Sebastian 64, Chalco Centro, 56600 Chalco de Díaz Covarrubias, Méx., México",Pizzería, Abre a las 11:30a.m.,Chalco de Díaz Covarrubias
Richard Pizzas,,None Found,+52 55 5975 6465,"Calle Naranjo #8 Entre Carrillo puerto, C. Francisco I. Madero y, Ejidal, 56604 Chalco de Díaz Covarrubias, Méx., México",Pizzería, Abre a las 12p.m.,Chalco de Díaz Covarrubias
"Little Caesars Pizza ""Chalco Centro""",mexico.littlecaesars.com,"Cadena de comida para llevar que ofrece alitas de pollo, palitos de pan y pizza hecha con masa casera.",+52 55 5975 3077,"Av. Cuauhtémoc Ote. 4, Chalco Centro, 56600 Chalco de Díaz Covarrubias, Méx., México",Pizzería, Abre a las 10a.m.,Chalco de Díaz Covarrubias
Chilakilis,,None Found,+52 55 8441 7125,"Calle Bravo No 6 Casi esquina con, C. Porvenir, 56600 Chalco de Díaz Covarrubias, Méx., México",Restaurante,,Chalco de Díaz Covarrubias
El Bazar de los sabores chalco,,None Found,+52 55 7414 1288,"Calle Hidalgo 70, La Conchita, 56600 Chalco de Díaz Covarrubias, Méx., México",Taquería,,Chalco de Díaz Covarrubias
Ricos pozoles Meche,,None Found,,"C. Riva Palacio 244, Chalco Centro, 56600 Chalco de Díaz Covarrubias, Méx., México",Restaurante mexicano,,Chalco de Díaz Covarrubias
Burger King,burgerking.com.mx,"Conocida cadena de comida rápida que ofrece hamburguesas a la parrilla, papas fritas y batidos.",+52 55 5973 2675,"Calle Vicente Guerrero 25, Chalco Centro, 56600 Chalco de Díaz Covarrubias, Méx., México",Hamburguesería, Abre a las 10a.m.,Chalco de Díaz Covarrubias
Restaurante La Corona,,None Found,,"Av. Cuauhtémoc Ote. 53, Chalco Centro, 56600 Chalco de Díaz Covarrubias, Méx., México",Restaurante,,Chalco de Díaz Covarrubias
El compadre baron,,None Found,,"Calle Vicente Guerrero 4, Chalco Centro, 56600 Chalco de Díaz Covarrubias, Méx., México",Restaurante,,Chalco de Díaz Covarrubias
RESTAURANTE BAR LA TABERNA,facebook.com,None Found,+52 55 5975 4464,"Av. Cuauhtémoc Pte. 35, San Antonio, 56600 Chalco de Díaz Covarrubias, Méx., México",Bar restaurante,,Chalco de Díaz Covarrubias
Domino's Soriana Chalco,dominosmx.app.link,Cadena de comida a domicilio o para llevar con gran variedad de pizzas y otros platos y acompañamientos.,+52 55 5982 9930,"Cocina Express, Chalco - Tláhuac 776-Interior, San Sebastian, 56600 Chalco de Díaz Covarrubias, Méx., México",Pizzería, Abre a las 11a.m.,Chalco de Díaz Covarrubias
Venta de Comida Para Llevar Gloria,,None Found,,"Calle Cerrada 26 18 Mz 34 Ltt 26, Interior Sn, Chalco de Díaz Covarrubias, 56660 Chalco de Díaz Covarrubias, Méx., México",Restaurante, Abre a las 11a.m.,Chalco de Díaz Covarrubias
Fuente De Sodas Mafer,,None Found,+52 55 5975 2736,"Alzate 7-Local 1, La Conchita, 56600 Chalco de Díaz Covarrubias, Méx., México",Restaurante, Abre a las 8a.m.,Chalco de Díaz Covarrubias
Pollos Ray,pollosray.com,None Found,+52 56 1940 9145,"Av. Cuauhtémoc Pte. 26, Ejidal, 56604 Chalco de Díaz Covarrubias, Méx., México",Pollería, Abre a las 10a.m.,Chalco de Díaz Covarrubias
Pollos Ray,,None Found,+52 55 2898 6063,"Calle Vicente Guerrero 23, Chalco Centro, 56604 Chalco de Díaz Covarrubias, Méx., México",Restaurante especializado en pollo, Abre a las 10a.m.,Chalco de Díaz Covarrubias
La Mercante de Oriente,facebook.com,None Found,+52 55 8959 3219,"C. Mariano Matamoros 42, La Conchita, 56600 Chalco de Díaz Covarrubias, Méx., México",Bar de tapas,,Chalco de Díaz Covarrubias
Hamburguesas DON MARCO,,None Found,,"C. Francisco I. Madero 8, Chalco Centro, 56604 Chalco de Díaz Covarrubias, Méx., México",Hamburguesería, Abre a las 2p.m.,Chalco de Díaz Covarrubias
ANTOJITOS MEXICANOS,,None Found,,"Calle Álvaro Obregón Manzana 045, Ejidal, 56604 Chalco de Díaz Covarrubias, Méx., México",Restaurante,,Chalco de Díaz Covarrubias
Restaurante La Escuadra,,None Found,,"Tizapa 1, Chalco Centro, 56600 Chalco de Díaz Covarrubias, Méx., México",Restaurante,,Chalco de Díaz Covarrubias
Cocina Económica Bety,,None Found,+52 55 3024 1430,"Prolongación Tizapa 5, Chalco Centro, 56600 Chalco de Díaz Covarrubias, Méx., México",Restaurante, Abre a las 11a.m. del lun,Chalco de Díaz Covarrubias
"I Love ♥️ Snacks | Kiosko Chalco | Cafetería, Snacks Y Bebidas",ilovesnacks.mx,None Found,,"Av. Cuauhtémoc Pte., Chalco Centro, 56600 Chalco de Díaz Covarrubias, Méx., México",Bufé de dulces y repostería, Abre a las 8a.m.,Chalco de Díaz Covarrubias
TAQUERÍA RIKI RICON,,None Found,+52 55 3555 3123,"C. Riva Palacio 244, Chalco Centro, 56600 Chalco de Díaz Covarrubias, Méx., México",Restaurante, Abre a las 9:30a.m.,Chalco de Díaz Covarrubias
La 20 de Chalco.,,None Found,+52 55 7585 4674,"C. Mariano Matamoros 3, San Sebastian, 56600 Chalco de Díaz Covarrubias, Méx., México",,,Chalco de Díaz Covarrubias
Hamburguesas y burritos A su mecha,,None Found,,"Av Aquiles Serdán S/N-II, San Miguel Jacalones, 56604 Chalco de Díaz Covarrubias, Méx., México",Restaurante de comida rápida, Abre a las 7p.m.,Chalco de Díaz Covarrubias
