Names,Website,Introduction,Phone Number,Address,Type,Opens At,Municipio
Forasteros Restaurant,,None Found,+52 983 833 1500,"Avenida Francisco I. Madero, David G Gutiérrez Ruiz 318, 77013 Chetumal, Q.R., México",Restaurante, Abre a las 5p.m.,Chetumal
El Taco Loco Chetumal,tacoloco.mx,Un espacio iluminado y decorado con escenas del mar que sirve especialidades mexicanas del mar y de la tierra.,+52 983 832 1213,"C. José María Morelos 87, Centro, 77000 Chetumal, Q.R., México",Marisquería, Abre a las 8a.m.,Chetumal
Restaurante Los Comales,instagram.com,None Found,+52 983 274 4823,"Av. Ignacio Zaragoza 265, Centro, 77000 Chetumal, Q.R., México",Restaurante, Abre a las 9a.m.,Chetumal
Ámbar del Mar Restaurante de Mariscos,facebook.com,None Found,+52 983 180 4050,"FMVW+9V, Centro, 77000 Chetumal, Q.R., México",Marisquería, Abre a las 7a.m.,Chetumal
Almina,,None Found,+52 983 144 3857,"C. José María Morelos 3, Centro, 77000 Chetumal, Q.R., México",Restaurante mexicano, Abre a las 8a.m. del lun,Chetumal
La Botana De Pelícanos,facebook.com,None Found,+52 983 832 6503,"Blvd. Bahía 70, Barrio Bravo, 77098 Chetumal, Q.R., México",Bar restaurante, Abre a las 10:30a.m.,Chetumal
MANTURA Bistro Garden,,None Found,+52 983 177 9803,"Hotel Arges, Lázaro Cárdenas 212-Interior, entre Héroes y Juárez, Centro, 77000 Chetumal, Q.R., México",Restaurante,,Chetumal
El Emporio Restaurante Y Parrilla,facebook.com,None Found,+52 983 285 4373,"Av Carmen Ochoa de Merino 106, Plutarco Elías Calles, 77090 Chetumal, Q.R., México",Restaurante uruguayo, Abre a las 2p.m. del lun,Chetumal
Cafe Del Puerto,facebook.com,None Found,+52 983 285 3898,"Av Álvaro Obregón 165 A, Centro, 77000 Chetumal, Q.R., México",Restaurante, Abre a las 8a.m.,Chetumal
La Terraza de Tito,facebook.com,None Found,+52 983 832 4717,"Lucio Blanco, And. Adolfo López Mateos 279, 77010 Chetumal, Q.R., México",Restaurante mexicano, Abre a las 6p.m. del lun,Chetumal
El Patio Del 30,facebook.com,None Found,+52 983 285 3898,"Av Álvaro Obregón 165, Centro, 77090 Chetumal, Q.R., México",Pizzería, Abre a las 7p.m.,Chetumal
Bucaneros,,None Found,+52 983 144 1700,"David Gustavo, 77013 Chetumal, Q.R., México",Marisquería, Abre a las 11:30a.m.,Chetumal
Ristorante Positano,instagram.com,None Found,+52 983 132 3730,"Av. Javier Rojo Gómez Mz 55-II, Payo Obispo, 77083 Chetumal, Q.R., México",Restaurante italiano, Abre a las 6p.m. del lun,Chetumal
Marisquería / La Viagra Jarocha,,None Found,+52 983 144 3905,"Calle Gral. Plutarco Elías Calles 12, Barrio Bravo, 77098 Chetumal, Q.R., México",Marisquería, Abre a las 10a.m.,Chetumal
Mi Viejo marisqueria,,None Found,+52 983 833 5342,"Av. Belice 166, Centro, 77000 Chetumal, Q.R., México",Marisquería, Abre a las 7a.m.,Chetumal
Winner's,,None Found,+52 983 832 1737,"Blvd. Bahía 155, Plutarco Elías Calles, 77090 Chetumal, Q.R., México",Restaurante, Abre a las 7a.m.,Chetumal
Sergio's Pizzas,sergiospizzas.com.mx,None Found,+52 983 832 2991,"Av Álvaro Obregón 182, Centro, 77000 Chetumal, Q.R., México",Restaurante italiano, Abre a las 7a.m.,Chetumal
Don Queque Café,facebook.com,None Found,+52 983 105 9615,"Av Carmen Ochoa 127, entre Miguel Hidalgo y Reforma, Plutarco Elías Calles, 77090 Chetumal, Q.R., México",Restaurante, Abre a las 8:30a.m.,Chetumal
BONITA CHETUMAL,,None Found,+52 983 137 7100,"Av Andrés Quintana Roo 250, 77035 Chetumal, Q.R., México",Restaurante familiar, Abre a las 8a.m.,Chetumal
Pasión Turca,,None Found,+52 983 832 7869,"Av. Ignacio Zaragoza 209, Centro, 77000 Chetumal, Q.R., México",Restaurante turco, Abre a las 8:30a.m. del lun,Chetumal
San Remo,facebook.com,None Found,+52 983 752 0703,"Av. Miguel Hidalgo 45, Centro, 77000 Chetumal, Q.R., México",Restaurante italiano, Abre a las 10a.m.,Chetumal
Restaurante Ventolera,hotelvillanueva.com.mx,None Found,+52 983 107 9128,"77090, Av Carmen Ochoa de Merino 166, Centro, 77000 Chetumal, Q.R., México",Restaurante, Abre a las 7a.m.,Chetumal
Restaurante Los Cebollones,loscebollones.mx,None Found,+52 983 184 7980,"Av calzada veracruz N.451 Entre Calle Marciano Gonzalez Y Av. Insurgentes, Adolfo López Mateos, 77010 Chetumal, Q.R., México",Restaurante, Abre a la 1:45p.m.,Chetumal
Las Quekas,,None Found,+52 983 139 8375,"Calle Gral. Plutarco Elías Calles 183, entre Héroes y 5 de mayo, Plutarco Elías Calles, 77090 Chetumal, Q.R., México",Restaurante mexicano,,Chetumal
La Petite Crêpe,foodbooking.com,None Found,+52 983 103 3227,"Av Álvaro Obregón 141, Plutarco Elías Calles, 77000 Chetumal, Q.R., México",Restaurante francés,,Chetumal
La Calle Restaurant-Bar,facebook.com,None Found,+52 983 101 3699,"Blvd. Bahía 96, Barrio Bravo, 77098 Chetumal, Q.R., México",Bar restaurante, Abre a las 2p.m.,Chetumal
TAJAL Restaurante,,None Found,+52 983 688 1030,"Av. Héroes esq. Justo Sierra Adolfo López Mateos, 77013 Chetumal, Q.R., México",Restaurante, Abre a las 7a.m.,Chetumal
El Taquito,,Tacos y antojitos mexicanos acompañados con cerveza en un restaurante casual con techo alto y aire familiar.,+52 983 129 2381,"Calle Gral. Plutarco Elías Calles 218-C, Centro, 77000 Chetumal, Q.R., México",Restaurante, Abre a las 6p.m. del lun,Chetumal
La Terraza De Tito Boulevard Bahía,facebook.com,None Found,+52 983 285 3668,"Blvd. Bahía, Barrio Bravo, 77098 Chetumal, Q.R., México",Restaurante, Abre a las 5:30p.m. del lun,Chetumal
Casa de las Flores Chetumal,ueniweb.com,None Found,+52 983 839 0131,"Av. Francisco I. Madero #229A entre Carranza y, Av Primo de Verdad, 77013 Chetumal, Q.R., México",Restaurante mexicano, Abre a las 8a.m.,Chetumal
"Barbaro's, Carne y Fuego",facebook.com,None Found,+52 983 833 5858,"Av Carmen Ochoa de Merino 101, Plutarco Elías Calles, 77098 Chetumal, Q.R., México",Restaurante, Abre a las 12p.m.,Chetumal
Restaurante Los Portales,facebook.com,None Found,+52 983 136 1635,"Calz Veracruz 407, 77010 Chetumal, Q.R., México",Restaurante,,Chetumal
Restaurante La Palma del Hotel los cocos,hotelloscocos.com.mx,None Found,+52 983 120 6065,"Av de los Héroes No 134, Centro, 77000 Chetumal, Q.R., México",Restaurante, Abre a las 7a.m.,Chetumal
ceviches y cocteles los cocos (Rejon Torres Julio Olegario),,None Found,+52 19838398222,"Av. Francisco I Madero 398, David Gustavo, 77013 Chetumal, Q.R., México",Marisquería, Abre a las 12p.m.,Chetumal
La Yucateca,,None Found,+52 983 125 9284,"Av Álvaro Obregón 133A, Plutarco Elías Calles, 77010 Chetumal, Q.R., México",Restaurante mexicano, Abre a las 7:30a.m. del lun,Chetumal
Queridos Amigos,instagram.com,None Found,+52 983 102 8135,"Avenida Álvaro Obregón con esquina Avenida 16 de Septiembre 161, 77000 Chetumal, Q.R., México",Cafetería, Abre a las 9a.m.,Chetumal
La Tertulia Restaurant,,None Found,,"Av de los Héroes 21, Centro, 77000 Chetumal, Q.R., México",Restaurante, Abre a las 4p.m.,Chetumal
"La Brata, Taberna & Grill",labratarestaurante.com,None Found,+52 983 180 9921,"C. 22 de Enero 153, Plutarco Elías Calles, 77000 Chetumal, Q.R., México",Restaurante, Abre a la 1p.m.,Chetumal
Vips Chetumal Malecón,vips.com.mx,None Found,+52 983 112 4585,"Blvd. Bahía 301, Centro, 77000 Chetumal, Q.R., México",Restaurante mexicano, Abre a las 7a.m.,Chetumal
Cyntia's Restaurante,,None Found,+52 983 102 6749,"Calz Veracruz 289, 77010 Chetumal, Q.R., México",Marisquería, Abre a las 11a.m.,Chetumal
"Restaurante ""El Rincon Andaluz""",,None Found,,"Av. Ignacio Zaragoza 321-A, Centro, 77000 Chetumal, Q.R., México",Restaurante, Abre a las 8a.m.,Chetumal
Las Enchiladas Huastecas,,None Found,+52 983 127 2060,"Av Insurgentes 972, 77029 Chetumal, Q.R., México",Restaurante mexicano, Abre a las 7a.m.,Chetumal
Casa Jarocha,facebook.com,None Found,+52 983 103 3262,"Av. Erick paolo martinez 122, Av. Javier Rojo Gómez Fracc, entre Av. Rojo gomez y calle faisan, 77084 Chetumal, Q.R., México",Restaurante, Abre a las 8a.m.,Chetumal
Vikingos Chetumal,,None Found,+52 983 111 8968,"San Salvador 360, Centro, 77000 Chetumal, Q.R., México",Restaurante,,Chetumal
Chiles Restaurante,facebook.com,None Found,+52 983 105 6322,"Calle Guadalupe Victoria, Barrio Bravo, 77098 Chetumal, Q.R., México",Restaurante, Abre a las 7p.m.,Chetumal
Donde Sea,facebook.com,None Found,+52 983 154 7914,"C. Justo Sierra 286, Leona Vicario, 77016 Chetumal, Q.R., México",Marisquería, Abre a las 9a.m.,Chetumal
La Pozoleria con Sabor a México,,None Found,+52 983 181 3891,"AV. JUAREZ 349, COL. DAVID G. GUTIERREZ ENTRE LAGUNA DE BACALAR, C. Estero de Ucum Y, 77013 Chetumal, Q.R., México",Restaurante mexicano, Abre a las 8a.m.,Chetumal
El Zurdito Mariscos (Única Sucursal),,None Found,+52 983 102 7335,"Calz Veracruz 246, entre san salvador y Carranza, 77010 Chetumal, Q.R., México",Marisquería, Abre a las 11:30a.m.,Chetumal
El Rincón Mestizo,facebook.com,None Found,+52 983 136 1594,"Av. 4 de Marzo 305, Ocho de Octubre, 77028 Chetumal, Q.R., México",Restaurante, Abre a las 9a.m.,Chetumal
Los Molcajetes,,None Found,+52 983 839 2016,"C. José María Morelos 205, Centro, 77000 Chetumal, Q.R., México",Restaurante, Abre a las 12p.m. del lun,Chetumal
Fadi's grill,,None Found,+52 983 100 3072,"Plaza capital, Avenida 4 de marzo esquina Erick Paolo En la plaza CAPITAL CENTER, Centro, 77015 Chetumal, Q.R., México",Parrilla, Abre a las 2:30p.m.,Chetumal
EL PARIENTE restaurant de mariscos,,None Found,+52 983 103 3345,"unos pasos de la iglesia Perpetuo Socorro, Universidad 46-A, Barrio Bravo, 77098 Chetumal, Q.R., México",Marisquería, Abre a las 8a.m.,Chetumal
Diaz Grill Taquerias,,None Found,+52 983 144 1046,"Av de los Héroes 261, 77010 Chetumal, Q.R., México",Taquería, Abre a las 6p.m.,Chetumal
Wingman Chetumal,,None Found,+52 983 164 0806,"AV, Blvd. Bahía #54, Barrio Bravo, 77030 Chetumal, Q.R., México",Restaurante, Abre a las 5p.m.,Chetumal
Lima Limón,,None Found,+52 983 134 6668,"Av, Venustiano Carranza 174, Adolfo L Mateos, 77010 Chetumal, Q.R., México",Restaurante, Abre a las 8a.m. del lun,Chetumal
Antojitos donalds chetumal,,None Found,+52 983 832 5646,"Lázaro Cárdenas, Centro, 77000 Chetumal, Q.R., México",Restaurante, Abre a las 7a.m. del lun,Chetumal
Taqueria Don Miguel,,None Found,+52 983 182 7557,"Mahatma Gandhi 70, Centro, 77000 Chetumal, Q.R., México",Taquería, Cierra a las 12:30p.m. ,Chetumal
Taquería: La Capital,,None Found,+52 983 166 5767,"77016, Av Andrés Quintana Roo 351, Martínez Ross, Chetumal, Q.R., México",Taquería, Abre a las 6:30a.m.,Chetumal
El Cielo - Restaurante Botanero Familiar,,None Found,,"Miguel Hidalgo entre Av. Obregon y Zaragoza, Plutarco Elías Calles, 77000 Chetumal, Q.R., México",Restaurante, Cierra a las 10a.m.,Chetumal
Marisquería Xcalak,,None Found,+52 983 114 0625,"C. Anastacio Guzmán, David Gustavo, 77013 Chetumal, Q.R., México",Marisquería, Abre a las 11a.m.,Chetumal
La Barra Cantina: Mezcalería y Cocina Mexicana,facebook.com,None Found,+52 983 285 6155,"Blvd. Bahía 191, Barrio Bravo, 77098 Chetumal, Q.R., México",Bar, Abre a las 2p.m.,Chetumal
Restaurante Chetumal,,None Found,,"Av Andrés Quintana Roo 255, 77012 Chetumal, Q.R., México",Bar restaurante, Abre a las 11a.m.,Chetumal
Vevis Restaurante,,None Found,+52 983 138 5803,"Calle Heriberto Jara 464, 77010 Chetumal, Q.R., México",Restaurante, Abre a las 2p.m.,Chetumal
marisqueria Limoncitos,,None Found,,"77098, Av. Josefa Ortíz de Dominguez 52A, Barrio Bravo, Chetumal, Q.R., México",Marisquería, Abre a las 12p.m.,Chetumal
Banquetakos Chetumal,,None Found,+52 983 833 2020,"Av. Andrés Quintana Roo, esquina San Salvador 261 Col, Aserradero, 77012 Chetumal, Q.R., México",Restaurante, Abre a la 1p.m.,Chetumal
Chetuyork,quepedire.com,None Found,+52 983 126 7457,"Blvd. Bahía, Barrio Bravo, 77098 Chetumal, Q.R., México",Restaurante, Abre a las 12:30p.m.,Chetumal
Wings Army Chetumal,wingsarmy.com.mx,None Found,+52 983 103 1297,"Erick Paolo Martinez 499 Locales L-43 y LT45 Industrial Plaza Capital Center, 77003 Chetumal, Q.R., México",Restaurante, Abre a la 1p.m.,Chetumal
Sur 983,facebook.com,None Found,+52 55 3670 8706,"Av Álvaro Obregón 171, Plutarco Elías Calles, 77000 Chetumal, Q.R., México",Marisquería, Abre a las 11a.m.,Chetumal
"RESTAURANT "" LA CHIAPANECA """,,None Found,+52 983 125 4060,"Mercado ""Lazaro Cardenas del Rio"" Planta Alta Local 23 interior, 77013 Chetumal, Q.R., México",Restaurante mexicano, Abre a las 7a.m.,Chetumal
Loncheria chetumal,,None Found,,"Av héroes s/n, mercado local 6 Av héroes s/n mercado local 6, 77000 Chetumal, Q.R., México",Restaurante, Abre a las 7a.m.,Chetumal
Las Rita's Chetumal,,None Found,+52 983 177 9421,"Av Insurgentes 484, entre Av. Palermo y Córcega, Col. 20 de Noviembre, 77038 Chetumal, Q.R., México",Restaurante, Abre a las 7a.m. del lun,Chetumal
Las Delicias,,None Found,+52 983 130 9225,"Av. Erick Paolo Martínez 11, 77086 Chetumal, Q.R., México",Restaurante, Abre a las 9a.m. del lun,Chetumal
Restaurante El Vaticano,,None Found,+52 983 832 9174,"Mahatman Gandhi, Av. Belice 198, 77000 Chetumal, Q.R., México",Marisquería,,Chetumal
"Cocina ""El Azteca""",,None Found,+52 983 229 8499,"Av. Erick Paolo Martínez Mz 119-Lt 24, Andrés Quintana Roo, 77086 Chetumal, Q.R., México",Restaurante mexicano, Abre a las 8:30a.m. del lun,Chetumal
"RESTAURANTE ""LA CHAYA DEL CARIBE""",,None Found,+52 983 110 7546,"Agustín Olachea #546, col, Ocho de Octubre, 77010 Chetumal, Q.R., México",Restaurante, Abre a las 7a.m. del lun,Chetumal
PUNTO VERDE,facebook.com,None Found,+52 983 164 2455,"Av. Del Magisterio 28, 17 de Octubre, 77039 Chetumal, Q.R., México",Restaurante, Abre a las 8a.m. del lun,Chetumal
Bleu Restaurante,facebook.com,None Found,+52 983 111 2469,"Col. Villas Kinich Nah, C. Zacil-Be 57, entre calzada Veracruz y Francisco j. Mujica, 77014 Chetumal, Q.R., México",Restaurante, Abre a las 8a.m. del lun,Chetumal
Lonchería Por Tradición La Costa,,None Found,+52 983 180 0318,"Calz Veracruz 40, Barrio Bravo, 77098 Chetumal, Q.R., México",Restaurante familiar, Abre a las 6p.m. del lun,Chetumal
El Junco de Hong Kong,,None Found,+52 983 833 1700,"Av Reforma 21, Plutarco Elías Calles, 77000 Chetumal, Q.R., México",Restaurante chino, Abre a las 12p.m.,Chetumal
Bandidos steak house,,None Found,+52 983 190 0911,"Avenida Erick Paolo Martínez Esquina 4 de marzo, Colonia industrial, 77015 Chetumal, Q.R., México",Restaurante especializado en filetes,,Chetumal
La Chulita Mx,,None Found,+52 983 181 6922,"C. 4 Ciénegas 244, entre Av. Carranza y san salvador, 77012 Chetumal, Q.R., México",Restaurante mexicano, Abre a las 8a.m. del lun,Chetumal
Restaurante Las Delicias De Doña Angelina,,None Found,+52 983 110 7519,"Av. Javier Rojo Gómez 444, Payo Obispo, 77084 Chetumal, Q.R., México",Restaurante, Abre a las 10a.m.,Chetumal
Hamburguesas Las Mismas,,None Found,+52 983 833 4635,"Av de los Héroes 83, Plutarco Elías Calles, 77090 Chetumal, Q.R., México",Hamburguesería,,Chetumal
"Antojitos Regionales y Machacados ""Pinocho""",m.facebook.com,None Found,+52 983 129 2729,"C. José María Morelos 275, David Gustavo, 77013 Chetumal, Q.R., México",Restaurante mexicano, Abre a las 6:30p.m.,Chetumal
Restaurante Bar Licos,,None Found,,"Av. Francisco I Madero 44, Centro, 77000 Chetumal, Q.R., México",Bar restaurante, Abre a las 12a.m. del lun,Chetumal
Zayzu Restaurant,facebook.com,None Found,+52 983 144 0104,"Avenida Primo de Verdad #78 Esquina, Av Cozumel, Primera Legislatura, 77099 Chetumal, Q.R., México",Restaurante,,Chetumal
Asadero Cabeza Negra,,None Found,+52 19838366946,"Avenida de los Heroes 353, Adolfo Lopez Mateos, Chetumal, Q.R., México",Restaurante mexicano, Abre a las 10a.m.,Chetumal
Mi Pequeño Belice,,None Found,+52 983 173 6648,"Lázaro Cárdenas 249, Centro, 77000 Chetumal, Q.R., México",Marisquería, Abre a las 8a.m. del lun,Chetumal
Los Platillos Voladores,facebook.com,None Found,+52 983 139 8693,"Avenida Carmen Ochoa de Merino Entre 16 de septiembre, Miguel Hidalgo Y, Centro, 77000 Chetumal, Q.R., México",Restaurante mexicano, Abre a las 8a.m.,Chetumal
Taqueria EL ALMENDRO,facebook.com,None Found,+52 983 138 0501,"Av. Ignacio Zaragoza 205, Plutarco Elías Calles, 77000 Chetumal, Q.R., México",Taquería, Abre a las 8a.m.,Chetumal
Taqueria EL ALMENDRO,facebook.com,None Found,+52 983 138 0501,"Av. Ignacio Zaragoza 205, Plutarco Elías Calles, 77000 Chetumal, Q.R., México",Taquería, Abre a las 8a.m.,Chetumal
Taqueria México: La Feria Del Sabor,,None Found,+52 983 833 2614,"Av Andrés Quintana Roo 351, Martínez Ross, 77037 Chetumal, Q.R., México",Taquería, Abre a las 5p.m. del lun,Chetumal
Pantoja,,None Found,+52 983 832 3957,"Av. 16 de Septiembre 38, Centro, 77000 Chetumal, Q.R., México",Restaurante mexicano, Abre a las 10a.m.,Chetumal
El Sr De Las Alitas,alitaschetumal.com,None Found,+52 983 119 8318,"Av Carmen Ochoa de Merino 230, Centro, 77000 Chetumal, Q.R., México",Restaurante especializado en pollo, Abre a las 11a.m. del lun,Chetumal
Lado-S Restaurant,,None Found,+52 983 154 9746,"77098 Boulevard bahia entre vicente guerrero e, C. Isla Contoy 32, Barrio Bravo, 77098 Chetumal, Q.R., México",Restaurante, Abre a las 6:30p.m.,Chetumal
Banquetako,,None Found,+52 8332020,"Barrio Bravo, 77098 Chetumal, Q.R., México",Restaurante, Abre a las 6p.m.,Chetumal
El Itacate,,None Found,+52 983 833 2796,"Av Andrés Quintana Roo 269, Martínez Ross, 77016 Chetumal, Q.R., México",Taquería, Abre a las 6:30p.m. del lun,Chetumal
Pin Pon Papas,,None Found,+52 983 146 3289,"Av Andrés Quintana Roo 124, Centro, 77000 Chetumal, Q.R., México",Restaurante, Abre a las 9a.m. del lun,Chetumal
Vips Chetumal,vips.com.mx,None Found,+52 800 900 8477,"Av Insurgentes Km 5.025, 77084 Chetumal, Q.R., México",Restaurante mexicano, Abre a las 7a.m.,Chetumal
Vips Chetumal,vips.com.mx,None Found,+52 800 900 8477,"Av Insurgentes Km 5.025, 77084 Chetumal, Q.R., México",Restaurante mexicano, Abre a las 7a.m.,Chetumal
Taquería Poc-chuc suc. Av Erick paolo Martinez,m.facebook.com,None Found,+52 983 184 7295,"Av. Erick Paolo Martínez 3018, Andrés Quintana Roo, 77086 Chetumal, Q.R., México",Restaurante, Abre a las 7a.m.,Chetumal
Taqueria muerte lenta,,None Found,+52 983 155 5557,"Av. Belice 182, Centro, 77000 Chetumal, Q.R., México",Taquería, 4:45a.m. ,Chetumal
El antojo restaurante bar,,None Found,+52 983 182 1687,"una cuadra de la, Av Javier Rojo Gómez esquina Retorno 19 a, Av. Maxuxac, 77035 Chetumal, Q.R., México",Pub restaurante, Abre a las 9a.m.,Chetumal
Pach´s Restaurante,pachs.com,None Found,+52 983 101 7730,"Av. Erick Paolo Martínez 540, entre 4 de Marzo y Tecnológico de Tuxtla, 17 de Octubre, 77039 Chetumal, Q.R., México",Restaurante, Abre a las 8a.m. del lun,Chetumal
Taquería Beatriz,facebook.com,None Found,+52 983 184 2512,"Av Carmen Ochoa de Merino 226, entre Juárez e Independencia, Centro, 77000 Chetumal, Q.R., México",Restaurante mexicano, Abre a las 7a.m. del lun,Chetumal
Uva de Mar Restaurante,facebook.com,None Found,+52 983 137 6793,"Av. Insurgentes No.458 esquina, Córcega Col, Veinte de Noviembre, 77038 Chetumal, Q.R., México",Restaurante,,Chetumal
Taqueria el Trompito (Américas),facebook.com,None Found,+52 983 124 2241,"Av. Luis Manuel Sevilla Sánchez entre C. Colombia y C. Ecuador, 77086 Chetumal, Q.R., México",Taquería, Abre a las 4:30p.m. del lun,Chetumal
El Caracol,,None Found,+52 983 832 3656,"Av Independencia 105, Centro, 77000 Chetumal, Q.R., México",Bar restaurante, Abre a las 5a.m.,Chetumal
"""EL PAISANO""",,None Found,+52 983 113 4559,"Venustiano Carranza, Andara, 77012 Chetumal, Q.R., México",Taquería, Abre a las 7a.m.,Chetumal
Xolos Grill,,None Found,+52 983 176 7059,"77000 Chetumal, Q.R., México",Restaurante, Abre a las 6p.m.,Chetumal
Marisqueria La Choza de Villatoro,,None Found,,"Av Primo de Verdad 24, Primera Legislatura, 77099 Chetumal, Q.R., México",Marisquería, Abre a las 11a.m.,Chetumal
Santo,facebook.com,None Found,,"Av Álvaro Obregón 186, Plutarco Elías Calles, 77090 Chetumal, Q.R., México",Restaurante,,Chetumal
Santo,facebook.com,None Found,,"Av Álvaro Obregón 186, Plutarco Elías Calles, 77090 Chetumal, Q.R., México",Restaurante,,Chetumal
Korean BBQ - Bing Su Restaurante,restaurant.hotellunacaribe.com,None Found,+52 983 171 8110,"Carretera Federal Chetumal - Bacalar Kilometro 7.5, 77059 Chetumal, Q.R., México",Restaurante, Abre a las 11a.m.,Chetumal
DC SuperBurger Chetumal,,None Found,+52 983 104 4169,"Av. Erick Paolo Martínez 736, Solidaridad, 77083 Chetumal, Q.R., México",Hamburguesería, Abre a las 7:30p.m.,Chetumal
María Dolores cantina mexicana,,None Found,+52 983 127 7806,"Heroica Escuela Naval 21, Barrio Bravo, 77098 Chetumal, Q.R., México",Restaurante,,Chetumal
Birria Chetumal,,None Found,,"Calle Gral. Plutarco Elías Calles 259-275, Centro, 77000 Chetumal, Q.R., México",Restaurante mexicano, Abre a las 8a.m.,Chetumal
El Rincón de las Tortugas,,None Found,+52 983 127 6508,"Av.Yucatán No. 8, Yucatan, 77960 Calderitas, Q.R., México",Marisquería, Abre a las 11a.m.,Chetumal
El Rincón de las Tortugas,,None Found,+52 983 127 6508,"Av.Yucatán No. 8, Yucatan, 77960 Calderitas, Q.R., México",Marisquería, Abre a las 11a.m.,Chetumal
"Restaurante Botanero Familiar ""La Playita""",,None Found,,"C. 4 Ciénegas 242, 77013 Chetumal, Q.R., México",Marisquería, Abre a las 11a.m.,Chetumal
