Names,Website,Introduction,Phone Number,Address,Type,Opens At,Municipio
RESTAURANTE LA OAXAQUEÑA,,None Found,+52 55 5501 3799,"KM 29, Carr. Federal México-Texcoco 38, San Jose, 56377 Chicoloapan de Juárez, Méx., México",Restaurante de desayunos, Abre a las 8a.m.,Chicoloapan
Restaurante Tipico Oaxaqueño,,None Found,,"km 25.5, Carr. Federal México-Texcoco S/N, San Vicente Chicoloapan de Juárez Centro, Portezuelos, 56338 Ejido de Chicoloapan, Méx., México",, Abre a las 9a.m.,Chicoloapan
MERLOT RESTAURANTE Chicoloapan,,None Found,+52 55 2165 6257,"Av. Moctezuma 55, San Vicente 2, 56370 Chicoloapan de Juárez, Méx., México",Restaurante, Abre a las 8a.m.,Chicoloapan
El Gran Chaparral,facebook.com,None Found,+52 55 4278 0193,"56386 Chicoloapan de Juárez, Méx., México",Restaurante, Abre a las 8a.m.,Chicoloapan
Marisquería Los Jarochos 2,,None Found,+52 55 5921 8024,"Manzana 012, Ampliación Presidentes, Presidentes, 56370 Chicoloapan de Juárez, Méx., México",Marisquería, Abre a las 8:30a.m.,Chicoloapan
Restaurante La Parroquia,,None Found,,"Avenida Reforma b2 Cabecera Municipal, San Vicente, 56370 Chicoloapan de Juárez, Méx., México",Restaurante, Abre a las 8a.m. del lun,Chicoloapan
Chelita Mía,,None Found,+52 55 4845 5213,"Av. Juárez 52, Cabecera Municipal, 56370 Chicoloapan de Juárez, Méx., México",Bar restaurante, Abre a las 3p.m.,Chicoloapan
FUEGO Y TIERRA COMIDA MEXICANA,,None Found,,"Av. Juárez 98, Cabecera Municipal, 56370 Chicoloapan de Juárez, Méx., México",Restaurante mexicano, Abre a la 1:30p.m. del mar,Chicoloapan
La Parrilla Del Oso,,None Found,,"Manzana 008, 56386 Chicoloapan de Juárez, Méx., México",Restaurante especializado en chuletas, Abre a las 8a.m.,Chicoloapan
La Estacion Juarez,,None Found,+52 55 8546 1885,"Av. Reforma No 3, Cabecera Municipal, 56370 Chicoloapan de Juárez, Méx., México",Restaurante, 3a.m. ,Chicoloapan
Un Cachito de Cuba,,None Found,+52 56 4554 2664,"Av. Zaragoza 38, Cabecera Municipal, 56373 Chicoloapan de Juárez, Méx., México",Restaurante, Abre a las 2p.m.,Chicoloapan
Asador Casa Guz,,None Found,+52 56 1744 7828,"Frente a la torre da alta tensión En la esq de, Av. de las Torres no. 2 esquina con Av. Libertad, Av. las Torres, El Arenal 1, 56373 Chicoloapan de Juárez, Méx., México",Restaurante, Abre a las 2p.m.,Chicoloapan
Parrilla Viva Mexico,,None Found,,"Av. Juárez Manzana 009, San Vicente, 56370 Chicoloapan de Juárez, Méx., México",Restaurante mexicano,,Chicoloapan
Autenticas Carnitas Michoacanas Don Manuel,,None Found,,"Av Emiliano Zapata Manzana 053, San Miguel, 56377 Chicoloapan de Juárez, Méx., México",Restaurante mexicano, Abre a las 9:30a.m.,Chicoloapan
Los Pozoles,,None Found,+52 55 3237 9725,"Cda. Leona Vicario 34, Cabecera Municipal, 56370 Chicoloapan de Juárez, Méx., México",, Abre a las 2p.m.,Chicoloapan
Mr. Shing-Gon,m.facebook.com,None Found,+52 55 8856 2033,"Cda. Leona Vicario 21, Cabecera Municipal, 56370 Chicoloapan de Juárez, Méx., México",Restaurante, Abre a las 2p.m.,Chicoloapan
Hanami 花見,,None Found,+52 56 2119 4737,"Av. Real de Chicoloapan 0, El Arenal 2, 56373 Chicoloapan de Juárez, Méx., México",Restaurante familiar, Abre a las 3:30p.m.,Chicoloapan
La Pequeña isla,,None Found,,"Hidalgo 28 A Cabecera Municipal, San Vicente, 56370 Chicoloapan de Juárez, Méx., México",Marisquería, Abre a las 10:30a.m.,Chicoloapan
Restaurante Gourmet El Manjar,,None Found,+52 55 6506 9373,"Avenida Libertad #90 Chicoloapan de Juárez, 56370 Ciudad de México, Méx., México",Restaurante, Abre a la 1p.m.,Chicoloapan
El Camarón Guasaveño Chicoloapan.,,None Found,+52 55 4802 4455,"Carr. Federal México-Texcoco 2654, San Jose, 56377 Chicoloapan de Juárez, Méx., México",Marisquería, Abre a las 10a.m.,Chicoloapan
AVILA PRIME S.A.S.,,None Found,+52 55 6697 8072,"24 San Vicente Chicoloapan, 56370 México, Méx., México",Restaurante mexicano, Abre a las 8a.m.,Chicoloapan
"Birria ""Los Hernandez""",,None Found,,"San Cristóbal 24A, Real De San Vicente, 56383 San Vicente Chicoloapan, Méx., México",Taquería, Abre a las 7a.m.,Chicoloapan
La Isla Bonita,facebook.com,None Found,+52 55 1202 4576,"56370, Calle Guadalupe Victoria 12, El Arenal 1, Chicoloapan de Juárez, Méx., México",Marisquería, Abre a las 11a.m.,Chicoloapan
Marisquería Nemo,,None Found,,"Calle Venustiano Carranza 59, Cabecera Municipal, 56370 Chicoloapan de Juárez, Méx., México",Marisquería, Abre a las 8a.m.,Chicoloapan
CARNITAS LA CABAÑA,,None Found,,"C. 2 de Marzo 32, San Antonio, 56373 Chicoloapan de Juárez, Méx., México",Restaurante mexicano, Abre a las 9:30a.m.,Chicoloapan
Barbacoa Don Chava,,None Found,,"San Antonio, 56373 Chicoloapan de Juárez, Méx., México",Restaurante especializado en barbacoa, Abre a las 9a.m.,Chicoloapan
Pollos y Costillas La Herradura,,None Found,+52 755 130 1946,"Venustiano Carranza, Presidentes, 56370 San Vicente Chicoloapan, Méx., México",Restaurante especializado en pollo, Abre a las 10a.m.,Chicoloapan
Taquería La Alteña,,None Found,,"Cda. Leona Vicario 31, Cabecera Municipal, 56370 Chicoloapan de Juárez, Méx., México",Taquería, Abre a las 6:30p.m.,Chicoloapan
Pollos estilo argentino,,None Found,,"Ave Río Manzano 0, Presidentes, 56375 Chicoloapan de Juárez, Méx., México",Restaurante especializado en pollo, Abre a las 10a.m.,Chicoloapan
Tacos Y Tortas San José,facebook.com,None Found,,"Carr. Federal México-Texcoco Manzana 037, San Jose, 56377 Chicoloapan de Juárez, Méx., México",Taquería, Cierra a las 5:30a.m. ,Chicoloapan
Cocina El Buen Gusto,,None Found,,"Av. Hidalgo 53, San Vicente, 56370 Chicoloapan de Juárez, Méx., México",Restaurante de comida rápida,,Chicoloapan
DUETO NOVIEMBRE TRECE,,None Found,+52 55 8458 6187,"2da cda de Arcilla, El Arenal 2, 56373 Chicoloapan de Juárez, Méx., México",Restaurante de desayunos, Abre a las 10a.m.,Chicoloapan
Restaurant Juquilita,,None Found,,"Av. Juárez 104, Cabecera Municipal, 56370 Chicoloapan de Juárez, Méx., México",Restaurante, Abre a las 11a.m. del lun,Chicoloapan
Marisquería El Puerto,,None Found,+52 55 6476 8135,"San Vicente Chicoloapan Texcoco, 56370 México, Méx., México",Restaurante, Abre a las 8a.m.,Chicoloapan
Taquería Juquilita,facebook.com,None Found,,"Av. Moctezuma 43, Cabecera Municipal, 56370 Ejido de Chicoloapan, Méx., México",Taquería, Abre a las 2p.m.,Chicoloapan
Marisquería El Jefe,,None Found,+52 55 1392 7193,"56377, San Vicente, 56377 Chicoloapan de Juárez, Méx., México",Marisquería, Abre a las 8a.m.,Chicoloapan
Super Tortas,,None Found,+52 55 5924 9962,"Av. Real de San Vicente 51C, San Vicente, 56383 Chicoloapan de Juárez, Méx., México",Restaurante de comida rápida, Abre a las 11a.m.,Chicoloapan
GUZGUA Terraza,,None Found,+52 55 6624 4664,"Real de Las Haciendas Manzana 064, El Arenal 1, 56370 Chicoloapan de Juárez, Méx., México",Restaurante, Abre a las 3p.m. del mié,Chicoloapan
"Restaurante & Eventos ""LOS CIRUELOS""",,None Found,,"Av. Zaragoza 25, Colonia Centro, 56370 Chicoloapan de Juárez, Méx., México",Restaurante, Abre a las 10a.m.,Chicoloapan
Pozolería Inn,,None Found,,"Tulia, Auris 1, 56377 Chicoloapan de Juárez, Méx., México",, Abre a las 9a.m.,Chicoloapan
Pozolería y taquería López,,None Found,+52 55 6565 2137,"56373, Ave Río Manzano, 56370 Chicoloapan de Juárez, Méx., México",Restaurante, Abre a las 6p.m.,Chicoloapan
Barbacoa Los Martinez,,None Found,+52 55 7882 7344,"56377, Venustiano Carranza, 56377 Chicoloapan de Juárez, Méx., México",Asador de cordero, Abre a las 9a.m.,Chicoloapan
El Loco Rey Elote,,None Found,+52 55 8285 7408,"Av San Ramón MZ 16 LT 24 CS 2, 56380 Chicoloapan de Juárez, Méx., México",Restaurante de comida rápida, Abre a las 6p.m.,Chicoloapan
Tortas Del Profe,,None Found,+52 55 3789 1126,"Av. Juárez 36, Cabecera Municipal, 56370 Chicoloapan de Juárez, Méx., México",, Abre a las 11a.m.,Chicoloapan
"ChicoloGrill, Hamburguesas, Alitas, Pozole, Mixiotes y Menudo",facebook.com,None Found,+52 55 1263 6784,"Real de las Fuentes Manzana 010, 56386 Chicoloapan de Juárez, Méx., México",Restaurante, Abre a las 4p.m. del lun,Chicoloapan
Cenaduria Los Compadres,,None Found,,"Av. Juárez 47, Cabecera Municipal, 56370 Chicoloapan de Juárez, Méx., México",Restaurante, Abre a las 6p.m.,Chicoloapan
Sushi Tigerwok,,None Found,+52 55 5460 3597,"Av. Juárez 41, Cabecera Municipal, 56370 Chicoloapan de Juárez, Méx., México",Restaurante asiático, Abre a las 12p.m.,Chicoloapan
Restaurante El Buen Sazón,,None Found,+52 55 3129 7139,"Av. Juárez 102 B, Cabecera Municipal, 56370 Chicoloapan de Juárez, Méx., México",Restaurante, Abre a las 8a.m. del lun,Chicoloapan
"Taquería ""La Unión""",,None Found,,"Av. Juárez 83, Cabecera Municipal, 56370 Chicoloapan de Juárez, Méx., México",Taquería, Abre a las 5p.m.,Chicoloapan
Charly Pizza,charlypizza.com.mx,None Found,+52 55 2287 9050,"Carr. Federal Texcoco-México Km. 28-5, Lte. 100, Venustiano Carranza, 56377 Chicoloapan de Juárez, Méx., México",Pizzería, Abre a las 11a.m.,Chicoloapan
Birria el amigo,,None Found,+52 55 1498 6583,"Ave Río Manzano 0-MZ 001, Presidentes, 56377 Chicoloapan de Juárez, Méx., México",Restaurante mexicano, Abre a las 8a.m.,Chicoloapan
La Mexicana,,None Found,+52 55 6738 1272,"Real de Toledo, Sin Nombre, 56386 Chicoloapan de Juárez, Méx., México",Restaurante mexicano, Abre a las 9a.m.,Chicoloapan
"Carnitas ""Los Agaves""",,None Found,+52 55 3992 7832,"Av. Juárez 74, Cabecera Municipal, 56370 Chicoloapan de Juárez, Méx., México",Restaurante, Abre a las 9a.m.,Chicoloapan
Crepas y snacks del Sr. Gato,,None Found,,"Av. Hidalgo 22, centro, San Vicente, 56370 Chicoloapan de Juárez, Méx., México",Crepería, Abre a las 3p.m.,Chicoloapan
Crepas y snacks del Sr. Gato,,None Found,,"Av. Hidalgo 22, centro, San Vicente, 56370 Chicoloapan de Juárez, Méx., México",Crepería, Abre a las 3p.m.,Chicoloapan
El Torito,eltorito.com,"Cadena mexicana que ofrece burritos, fajitas y cocteles clásicos en un ambiente informal.",,"Prol. Moctezuma Manzana 043, Mexico 86, 56370 Chicoloapan de Juárez, Méx., México",Restaurante, Abre a las 11a.m.,Chicoloapan
Tacos Tobys,,None Found,,"Av. Juárez Manzana 019, San Vicente, 56370 Chicoloapan de Juárez, Méx., México",Taquería, Abre a las 6p.m.,Chicoloapan
Hamburguesa Bronta,,None Found,+52 55 7403 6855,"Av. Juárez 55, Cabecera Municipal, 56370 Chicoloapan de Juárez, Méx., México",Hamburguesería, Abre a la 1:30p.m.,Chicoloapan
Restaurante La Estrella,,None Found,,"56377 Ejido de Chicoloapan, Prol. Lerdo 641, San Vicente, Ejido de Chicoloapan, Méx., México",Restaurante,,Chicoloapan
El Sazon Del (Papa Rudo),,None Found,,"Av. Real de Chicoloapan 18, El Arenal 2, 56370 Ejido de Chicoloapan, Méx., México",Restaurante, Abre a las 8a.m.,Chicoloapan
Burger King - Chicoloapan,burgerking.com.mx,"Conocida cadena de comida rápida que ofrece hamburguesas a la parrilla, papas fritas y batidos.",+52 55 5921 6223,"Carr. Federal México-Texcoco, Galerías Km 29, San Vicente, 56370 Chicoloapan de Juárez, Méx., México",Hamburguesería, Abre a las 9a.m.,Chicoloapan
Burger Grill San Vicente,facebook.com,None Found,+52 55 9053 6002,"parc.44, Ave Río Manzano 12, San Antonio, 56373 Chicoloapan de Juárez, Méx., México",Restaurante, Abre a las 2p.m.,Chicoloapan
Taberna Biker Snacks Chicoloapan,,None Found,,"Av. San José, 56380 Chicoloapan de Juárez, Méx., México",Hamburguesería, Abre a las 6p.m.,Chicoloapan
El páramo,instagram.com,None Found,,"Av.Juarez #41 Cabecera Municipal, San Vicente, 56370 Chicoloapan de Juárez, Méx., México",Restaurante,,Chicoloapan
"Tacos Huaraches y Quesadillas ""Los Cuñados""",facebook.com,None Found,,"Carr. Federal Texcoco-México 28b, San Vicente, 56370 Chicoloapan de Juárez, Méx., México",Restaurante mexicano, Abre a las 8a.m. del lun,Chicoloapan
A,,None Found,,"Cda. Rancho Altamira Mz 6 Lt 65 Casa C, 56386 Chicoloapan de Juárez, Méx., México",Restaurante, Abre a las 2p.m.,Chicoloapan
A,,None Found,,"Cda. Rancho Altamira Mz 6 Lt 65 Casa C, 56386 Chicoloapan de Juárez, Méx., México",Restaurante, Abre a las 2p.m.,Chicoloapan
Taqueria del Chino,,None Found,,"Av. Juárez 79, Cabecera Municipal, 56370 Chicoloapan de Juárez, Méx., México",Taquería,,Chicoloapan
El Rincon Oaxaqueño,,None Found,,"Av. Juárez 25, Cabecera Municipal, 56370 Chicoloapan de Juárez, Méx., México",, Abre a las 8:30a.m.,Chicoloapan
Barbacoa Doña Rocío,,None Found,+52 55 4890 4262,"Prol. Moctezuma Manzana 043, Mexico 86, 56370 Chicoloapan de Juárez, Méx., México",Restaurante especializado en barbacoa, Abre a las 8a.m.,Chicoloapan
"Alitas, Postres & Hamburguesas ""Kaikai's""",,None Found,,"Av. Moctezuma 68, San Vicente 2, 56370 Chicoloapan de Juárez, Méx., México",Restaurante, Abre a las 6:30p.m.,Chicoloapan
El sazón de la abuelita,,None Found,+52 56 1004 7353,"Av. Piracanto 41a, Auris 2, 56376 Chicoloapan de Juárez, Méx., México",Restaurante, Abre a las 9a.m. del lun,Chicoloapan
The Lord Hamburguesas Gourmet,,None Found,+52 55 7994 3041,"Carr. Federal México-Texcoco 30-KM 29 Loc.1, Venustiano Carranza, 56377 Chicoloapan de Juárez, Méx., Mexico, Venustiano Carranza, 56377 Chicoloapan de Juárez, Méx., México",Restaurante, Abre a las 6p.m.,Chicoloapan
Buffet bon apetie,,None Found,,"Av. Allende 19, Cabecera Municipal, 56370 Chicoloapan de Juárez, Méx., México",Buffet libre, Abre a las 9a.m.,Chicoloapan
Buffet bon apetie,,None Found,,"Av. Allende 19, Cabecera Municipal, 56370 Chicoloapan de Juárez, Méx., México",Buffet libre, Abre a las 9a.m.,Chicoloapan
Torteria Bertita,,None Found,,"Cerrada, Cda. Leona Vicario 11, Cabecera Municipal, 56370 Chicoloapan de Juárez, Méx., México",, Abre a las 7a.m.,Chicoloapan
Sarapes y sombreros,,None Found,+52 55 1643 5273,"Av. Zaragoza 68, San Vicente 2, 56370 Chicoloapan de Juárez, Méx., México",, Cierra a las 12p.m. ,Chicoloapan
La Taquicardia Chicoloapan,,None Found,,"Calle Prol Zaragoza Barrio, Los Angeles, 56373 Chicoloapan de Juárez, Méx., México",Taquería, Abre a las 3p.m.,Chicoloapan
LA OAXAQUENA,,None Found,,"Av. Juárez Manzana 010, Taltel, 56370 Chicoloapan de Juárez, Méx., México",Restaurante,,Chicoloapan
Buffet “El rincón de Edith”,,None Found,+52 55 7139 1101,"Cda. Camino Al Monte Manzana 009, El Arenal, 56373 Chicoloapan de Juárez, Méx., México",Restaurante mexicano,,Chicoloapan
Antonio's Pizza,,None Found,+52 55 5921 6417,"Allende 15, Centro, 56370 San Vicente Chicoloapan, Méx., México",Pizzería, Abre a las 11:30a.m.,Chicoloapan
"Antojitos Mexicanos ""Los locos""",,None Found,,"Av. Juárez 1937, Presidentes, 56370 Chicoloapan de Juárez, Méx., México",Restaurante mexicano,,Chicoloapan
El Camarón Loco,,None Found,,"Av. Allende 16, Cabecera Municipal, 56370 Chicoloapan de Juárez, Méx., México",Restaurante,,Chicoloapan
Risky Grill,,None Found,,"Av. Juárez 67, San Vicente, 56377 Chicoloapan de Juárez, Méx., México",Restaurante, Abre a las 4p.m.,Chicoloapan
Sakura Mix SV,,None Found,+52 469 104 6226,"Avenida Juárez 40, MZ 019, San Vicente, Av. Juárez 40, Centro, Cabecera Municipal, 56370 Chicoloapan de Juárez, Méx., México",Buffet libre, Abre a las 12p.m.,Chicoloapan
Pozolería El manzano,,None Found,+52 55 6103 7628,"Av río manzano Chicoloapan de Juarez, 53686 Mexico, Méx., México",Restaurante mexicano, Abre a la 1p.m.,Chicoloapan
Chiqui's Pizza,,None Found,+52 55 5921 4291,"Av. Reforma 4, San Vicente, 56370 Chicoloapan de Juárez, Méx., México",Pizzería, Abre a las 3p.m.,Chicoloapan
Birria Sr. Ronquillo,,None Found,,"Río Manzano, Cda. Emiliano Zapata S/N, 56377 Chicoloapan de Juárez, Méx., México",Restaurante de comida rápida,,Chicoloapan
Birria Sr. Ronquillo,,None Found,,"Río Manzano, Cda. Emiliano Zapata S/N, 56377 Chicoloapan de Juárez, Méx., México",Restaurante de comida rápida,,Chicoloapan
Tortas El Brother,,None Found,+52 55 5296 9327,"C. 2 de Marzo sur s/n, Cabecera Municipal, 56370 Chicoloapan de Juárez, Méx., México",Restaurante mexicano, Abre a las 9a.m.,Chicoloapan
Los Castillo Pozole y Antojitos,,None Found,+52 56 1940 2082,"C. Mina 5, Cabecera Municipal, 56370 Chicoloapan de Juárez, Méx., México",Restaurante mexicano, Abre a las 10a.m. del lun,Chicoloapan
Pizzería Chester,,None Found,+52 55 8508 1726,"Av. Libertad 50, Cabecera Municipal, 56370 Chicoloapan de Juárez, Méx., México",Pizzería, Abre a la 1p.m.,Chicoloapan
"Carnitas ""Los Jaliscos""",,None Found,,"Av. Juárez Manzana 023, Cabecera Municipal, 56370 Chicoloapan de Juárez, Méx., México",Restaurante, Cierra a las 4a.m. ,Chicoloapan
Guarida del Jaguar,,None Found,+52 55 4330 5846,"Av. Juárez 92, Cabecera Municipal, 56370 Chicoloapan de Juárez, Méx., México",Restaurante familiar, Abre a las 12p.m. del sáb,Chicoloapan
HAMBURGUESAS Y HOGS-DOGS.#MARY#,,None Found,+52 56 1426 7155,"Primera Cerrada de 20 de Noviembre 26, San Vicente 2, 56370 Chicoloapan de Juárez, Méx., México",Hamburguesería, Cierra a las 5p.m. ,Chicoloapan
Evil Sushi,,None Found,+52 55 4661 3004,"Av. Juárez 40, Cabecera Municipal, 56370 Chicoloapan de Juárez, Méx., México",Restaurante japonés, Abre a las 2p.m.,Chicoloapan
T jq,,None Found,,"Av. Moctezuma 43, San Vicente, 56370 Chicoloapan de Juárez, Méx., México",Taquería, Abre a las 3p.m.,Chicoloapan
Pozoleria y taquería vela,,None Found,,"Av. Juárez 64, Cabecera Municipal, 56370 Chicoloapan de Juárez, Méx., México",, Abre a las 5:30p.m.,Chicoloapan
Vicky Pizza,,None Found,+52 55 5921 7681,"Mejoramiento del Ambiente 18B, Cabecera Municipal, 56370 Chicoloapan de Juárez, Méx., México",Pizzería, Abre a las 12p.m.,Chicoloapan
Vicky Pizza,,None Found,+52 55 5921 7681,"Mejoramiento del Ambiente 18B, Cabecera Municipal, 56370 Chicoloapan de Juárez, Méx., México",Pizzería, Abre a las 12p.m.,Chicoloapan
La Grill Chicoloapan,facebook.com,None Found,+52 55 6133 1636,"Casa 5 Geovillas De, Río del Carmen, P.º Costitlan Manzana 18 Lote 2, 56380 Chicoloapan de Juárez, Méx., México",Restaurante,,Chicoloapan
DINOBURGERS,,None Found,,"Av. Elba Arrieta 47, Mexico 86, 56377 Chicoloapan de Juárez, Méx., México",Restaurante, Abre a las 12p.m.,Chicoloapan
Javi burguer’s & wings,,None Found,+52 55 7892 5180,"Av. Hidalgo 55, San Vicente, 56370 Chicoloapan de Juárez, Méx., México",Hamburguesería,,Chicoloapan
Mariscaly's Pizza,,None Found,+52 55 5044 1080,"Nogal 10-Loc.1, San Jose, 56377 Chicoloapan de Juárez, Méx., México",Pizzería, Abre a las 12p.m.,Chicoloapan
Pizzería Novatos,,None Found,+52 56 4108 4977,"Av. De las Flores Local 4 Esquina, Tulipanes, Sta Rosa, 56376 Chicoloapan de Juárez, Méx., México",Pizzería, Abre a las 12p.m.,Chicoloapan
Domino's San Vicente Chicoloapan,dominosmx.app.link,None Found,+52 55 9660 6767,"Ave Río Manzano 101-local 7 y 8, San Antonio, 56370 Chicoloapan de Juárez, Méx., México",Pizzería, Abre a las 10a.m.,Chicoloapan
Monkey Papas Chicoloapan,,None Found,+52 56 4003 2309,"Carr. Federal México-Texcoco km. 29, San Vicente, 56370 Chicoloapan de Juárez, Méx., México",Restaurante de comida rápida, Abre a la 1p.m.,Chicoloapan
Jimmy Pizza,,None Found,+52 55 1057 2480,"Carr. Federal México-Texcoco Km 26, Emiliano Zapata, 56390 Chicoloapan de Juárez, Méx., México",Pizzería, Abre a las 12p.m.,Chicoloapan
Tacos De Guisado El Sazon De Mamá,,None Found,+52 55 5184 4543,"Av. Juárez # 4 esquina la barranca San Vicente Chicoloapan de Juárez, 56370 México, Méx., México",Taquería, Abre a las 9a.m. del lun,Chicoloapan
Comida Mexicana SICARU,,None Found,+52 55 7874 6472,"Av Emiliano Zapata 5, San Jose, 56377 Chicoloapan de Juárez, Méx., México",Restaurante, Abre a las 7a.m.,Chicoloapan
Pizzas Perez,,None Found,+52 55 5921 8829,"Mejoramiento del Ambiente 7, Santa Cecilia, 56370 Chicoloapan de Juárez, Méx., México",Pizzería, Abre a las 12p.m.,Chicoloapan
Pizzas Perez,,None Found,+52 55 5921 8829,"Mejoramiento del Ambiente 7, Santa Cecilia, 56370 Chicoloapan de Juárez, Méx., México",Pizzería, Abre a las 12p.m.,Chicoloapan
Ameyal Comida Mexicana,,None Found,+52 56 2813 9882,"Callejon al Monte 2, Cabecera Municipal, 56373 Chicoloapan de Juárez, Méx., México",Restaurante, Abre a las 8a.m.,Chicoloapan
Rosticeria Yolis,,None Found,,"con México Bonito, Av San Alberto Sur esquina, San Vicente, 56380 Chicoloapan de Juárez, Méx., México",Restaurante especializado en pollo, Abre a las 11a.m.,Chicoloapan
Super Tortas Especiales,,None Found,,"Río Colorado, 56386 Chicoloapan de Juárez, Méx., México",, Abre a las 10a.m.,Chicoloapan
Burger King Puerta Texcoco,burgerking.com.mx,None Found,+52 595 921 0738,"Carr. Federal Texcoco-México 136, Santa Martha, Puerta Texcoco, 56101 Chicoloapan de Juárez, Méx., México",Restaurante de comida rápida, Abre a las 10a.m.,Chicoloapan
Las Quesadillas de Paty,,None Found,,"Prol Matamoros 1226, San Vicente, 56370 Chicoloapan de Juárez, Méx., México",Restaurante mexicano,,Chicoloapan
Taquería ''Galvan'',,None Found,,"Av. Reforma 11, Cabecera Municipal, 56370 Chicoloapan de Juárez, Méx., México",Taquería,,Chicoloapan
MR. PAPAS & BURROS,facebook.com,None Found,,"Cda. de Moctezuma 66, San Vicente 2, 56370 Chicoloapan de Juárez, Méx., México",Restaurante de comida rápida, Abre a la 1p.m. del lun,Chicoloapan
La Casa del Sabor,ueniweb.com,None Found,+52 56 1446 0620,"4To Callejón De, Av. Juárez Número 72, 56377 Chicoloapan de Juárez, Méx., México",Restaurante,,Chicoloapan
