Names,Website,Introduction,Phone Number,Address,Type,Opens At,Municipio
Restaurant El 30,,None Found,+52 747 471 2220,"Antonio I. Delgado, 39017 Chilpancingo de los Bravo, Gro., M√©xico",Restaurante, Abre a las 9a.m.,Chilpancingo de los Bravo
Restaurant Tecu√°n,restauranttecuan.com,"Comida cl√°sica, como pozole, chilaquiles y mezcal, en un local colorido con buffets semanales y m√∫sica.",+52 747 471 1827,"M√©xico 95 268, Tatagildo, 39017 Chilpancingo de los Bravo, Gro., M√©xico",Restaurante mexicano, Abre a las 8a.m.,Chilpancingo de los Bravo
100% Natural Chilpancingo,100natural.com,None Found,+52 747 472 5457,"L√°zaro C√°rdenas 12, Col, Temixco I, 39089 Chilpancingo de los Bravo, Gro., M√©xico",Restaurante de comida saludable, Abre a las 7a.m.,Chilpancingo de los Bravo
√önico,,None Found,+52 744 254 1738,"Parque Pezuapa Tequicorral, 39089 Chilpancingo de los Bravo, Gro., M√©xico",Restaurante mexicano, Abre a las 9a.m.,Chilpancingo de los Bravo
Los Cazadores,,None Found,+52 747 105 3465,"L√°zaro C√°rdenas 23, Loma Bonita, 39060 Chilpancingo de los Bravo, Gro., M√©xico",Restaurante mexicano, Abre a las 12p.m.,Chilpancingo de los Bravo
"Restaurant ""La Parrilla""",,None Found,,"Av. Benito Ju√°rez 58, Unidos Por Guerrero, 39030 Chilpancingo de los Bravo, Gro., M√©xico",Restaurante mexicano, Abre a las 8a.m. del lun,Chilpancingo de los Bravo
Restaurant El Mirador,facebook.com,None Found,+52 17471174998,"calle s/n, Zona Sin Asignaci√≥n de Nombre de Col 58, 39074 Chilpancingo de los Bravo, Gro., M√©xico",Restaurante, Abre a las 9a.m.,Chilpancingo de los Bravo
Restaurante Tierrasprietas,,None Found,+52 747 480 0226,"Chilpancingo - Cuernavaca 201, Ixquiapa, Chilpancingo de los Bravo, Gro., M√©xico",Restaurante, Abre a las 8a.m.,Chilpancingo de los Bravo
Restaurant Kenia,,None Found,+52 747 116 8110,"Carretera Federal Mexico Acapulco Km. 4, La Cinca, 39098 Chilpancingo de los Bravo, Gro., M√©xico",Restaurante mexicano, Abre a las 9a.m.,Chilpancingo de los Bravo
Vips Chilpancingo Gro,vips.com.mx,None Found,+52 800 900 8477,"Blvd. Vicente Guerrero 56b, Ciudad de los servicios, Zona Sin Asignaci√≥n de Nombre de Col 47, 39074 Chilpancingo de los Bravo, Gro., M√©xico",Restaurante mexicano, Abre a las 7a.m.,Chilpancingo de los Bravo
Los Portales,,None Found,,"Miguel Hidalgo 1, Centro, 39000 Chilpancingo de los Bravo, Gro., M√©xico",Restaurante,,Chilpancingo de los Bravo
Rustico Restaurante,,None Found,+52 747 192 1033,"13 de Septiembre lote 9-manzana 1, Morelos, 39030 Chilpancingo de los Bravo, Gro., M√©xico",Restaurante mexicano, Abre a las 2p.m.,Chilpancingo de los Bravo
El Huamuchil Restaurante Parrilla,facebook.com,None Found,+52 747 116 8328,"Carretera Nacional Acapulco, 39105 Chilpancingo de los Bravo, Gro., M√©xico",Parrilla, Abre a las 9:30a.m.,Chilpancingo de los Bravo
Restaurante Liverpool,liverpool.com.mx,None Found,+52 747 494 2800,"Ren√© Ju√°rez Cisneros 165, Colonia Predio, Tepango, 39095 Chilpancingo de los Bravo, Gro., M√©xico",Restaurante, Abre a las 11a.m.,Chilpancingo de los Bravo
Restaurante Se√±orial,senorial2018.wixsite.com,None Found,+52 747 115 7075,"Jos√© Francisco Ruiz Massieu S/N, Fracc.villa Moderna, Zona Sin Asignaci√≥n Denombre de Col 21, 39074 Chilpancingo de los Bravo, Gro., M√©xico",Restaurante, Abre a las 8a.m. del lun,Chilpancingo de los Bravo
La caba√±a,,None Found,+52 747 472 9504,"Hidrometr√≠a 2 42, Margarita Salazar de Rodriguez Alcaine, 39068 Chilpancingo de los Bravo, Gro., M√©xico",Restaurante mexicano, Abre a las 10a.m.,Chilpancingo de los Bravo
El Buen Saz√≥n,facebook.com,None Found,+52 747 258 9050,"Chilpancingo - Cuernavaca 201 Tierras prietas, 39017 Chilpancingo de los Bravo, Gro., M√©xico",Restaurante, Abre a las 8a.m.,Chilpancingo de los Bravo
Amaranto Restaurante,,None Found,+52 747 192 8055,"L√°zaro C√°rdenas 18, Temixco I, 39080 Chilpancingo de los Bravo, Gro., M√©xico",Restaurante mexicano, Abre a las 2p.m. del lun,Chilpancingo de los Bravo
Oink! Restaurant-Bar,facebook.com,None Found,,"Emiliano Zapata, Centro, 39000 Chilpancingo de los Bravo, Gro., M√©xico",Restaurante de comida r√°pida, 2a.m. ,Chilpancingo de los Bravo
Restaurant Venezia,,None Found,,"Sta Cruz, 39000 Chilpancingo de los Bravo, Gro., M√©xico",Restaurante, Abre a las 9a.m.,Chilpancingo de los Bravo
La Cava del Capit√°n,,None Found,+52 747 494 5822,"Jos√© Francisco Ruiz Massieu 68, Villa Moderna 1ra y 2da Secc, 39070 Chilpancingo de los Bravo, Gro., M√©xico",Restaurante, Abre a las 12p.m.,Chilpancingo de los Bravo
Restaurant Shifu,facebook.com,None Found,+52 747 116 1168,"Gregorio P√©rez Rodr√≠guez 17, Cuauhtemoc Nte, 39030 Chilpancingo de los Bravo, Gro., M√©xico",Restaurante canton√©s, Abre a las 11a.m.,Chilpancingo de los Bravo
Restaurante Los Casta√±on,,None Found,+52 747 494 7573,"Hermenegildo Galeana 57, Juan N. Alvarez Nte, 39000 Chilpancingo de los Bravo, Gro., M√©xico",Restaurante mexicano, Abre a las 2p.m.,Chilpancingo de los Bravo
Restaurante Taco Rock,,None Found,+52 747 472 3491,"Crist√≥bal Col√≥n 5, Centro, 39000 Chilpancingo de los Bravo, Gro., M√©xico",Restaurante mexicano,,Chilpancingo de los Bravo
La Martina Cantina,,None Found,+52 747 102 8856,"L√°zaro C√°rdenas 36, Universal, 39080 Chilpancingo de los Bravo, Gro., M√©xico",Bar, Cierra a las 3a.m. ,Chilpancingo de los Bravo
Samborns Gastronomico,,None Found,,"Sta Cruz, 39000 Chilpancingo de los Bravo, Gro., M√©xico",Restaurante,,Chilpancingo de los Bravo
D'Polo Restaurante,facebook.com,None Found,+52 747 159 2501,"39060, Margarita Viguri, 39060 Chilpancingo de los Bravo, Gro., M√©xico",Buffet libre, Abre a las 9a.m.,Chilpancingo de los Bravo
El Mes√≥n de Carolina,facebook.com,None Found,+52 747 688 7726,"L√°zaro C√°rdenas #75, Burocratas, 39086 Chilpancingo de los Bravo, Gro., M√©xico",Restaurante, Abre a las 8:30a.m.,Chilpancingo de los Bravo
Restaurante Tapanco,facebook.com,None Found,+52 747 322 0581,"C. Valerio Trujano 13, Centro, San Francisco, 39068 Chilpancingo de los Bravo, Gro., M√©xico",Restaurante mexicano, Abre a las 9a.m. del lun,Chilpancingo de los Bravo
Pozoleria Vero,,None Found,+52 747 472 3767,"Jos√© Ma. Morelos y Pav√≥n 38, Centro, 39030 Chilpancingo de los Bravo, Gro., M√©xico",Restaurante mexicano, Abre a las 8a.m.,Chilpancingo de los Bravo
Sebastiani's,,None Found,+52 747 472 2958,"Av. Ignacio Ram√≠rez 90, Temixco I, 39089 Chilpancingo de los Bravo, Gro., M√©xico",Restaurante italiano, Abre a la 1p.m. del lun,Chilpancingo de los Bravo
Restaurante el Tejado,,None Found,+52 747 139 6279,"Lic. Eduardo Neri, Cuauhtemoc Nte, 39030 Chilpancingo de los Bravo, Gro., M√©xico",Restaurante mexicano,,Chilpancingo de los Bravo
The kapital chilpancingo,,None Found,+52 733 138 5350,"Lic. Ren√© Ju√°rez Cisneros 35, Universal, 39080 Chilpancingo de los Bravo, Gro., M√©xico",Restaurante especializado en tapas, Cierra a las 5a.m. ,Chilpancingo de los Bravo
Ton's Que,restaurantetonsque.com.mx,None Found,+52 747 472 1232,"Plza Portales Altos S/N, Centro, 39000 Chilpancingo de los Bravo, Gro., M√©xico",Restaurante, Abre a las 8a.m.,Chilpancingo de los Bravo
Chilakiller's Restaurante üá≤üáΩ,,None Found,+52 747 491 9091,"Ignacio Zaragoza 51, Centro, 39000 Chilpancingo de los Bravo, Gro., M√©xico",Restaurante mexicano,,Chilpancingo de los Bravo
Terraza Restaurant Bar Puerta Al Cielo,,None Found,,"calle Leonardo da Vinci #14 A colonia San Jos√©, 39020, M√©xico",Bar restaurante, Abre a las 9:30a.m.,Chilpancingo de los Bravo
Mariscos Chegue,,None Found,+52 747 471 6016,"Mariscal Galeana 15, Galeana, 39010 Chilpancingo de los Bravo, Gro., M√©xico",Marisquer√≠a, Abre a las 11a.m.,Chilpancingo de los Bravo
Sabor Es Restaurante,facebook.com,None Found,+52 747 116 2828,"Priv. la Herradura S/N, Col. Villa Moderna, 39070 Chilpancingo de los Bravo, Gro., M√©xico",Restaurante, Abre a las 9a.m. del lun,Chilpancingo de los Bravo
Taqueria El Buen Sabor,,None Found,+52 747 148 2705,"El Porvenir 83, Universal, 39080 Chilpancingo de los Bravo, Gro., M√©xico",Taquer√≠a, Abre a las 8a.m.,Chilpancingo de los Bravo
Taqueria El Buen Sabor,,None Found,+52 747 148 2705,"El Porvenir 83, Universal, 39080 Chilpancingo de los Bravo, Gro., M√©xico",Taquer√≠a, Abre a las 8a.m.,Chilpancingo de los Bravo
Rosarito Restaurante,,None Found,,"Av. Benito Ju√°rez 26B, Centro, 39000 Chilpancingo de los Bravo, Gro., M√©xico",Restaurante mexicano,,Chilpancingo de los Bravo
Costillas JR,,None Found,+52 747 491 6726,"Dr. Liceaga 3, Centro, 39000 Chilpancingo de los Bravo, Gro., M√©xico",Restaurante tex-mex, Abre a las 12p.m.,Chilpancingo de los Bravo
Antojitos Charito,,None Found,+52 747 472 3722,"Te√≥filo Olea y Leyva 36, Sta Cruz, 39000 Chilpancingo de los Bravo, Gro., M√©xico",Restaurante mexicano,,Chilpancingo de los Bravo
M&M BROS,,None Found,+52 747 174 4190,"Gonzalo N. Ram√≠rez, Tribuna Nacional, 39086 Chilpancingo de los Bravo, Gro., M√©xico",Restaurante italiano, Abre a las 2:30p.m.,Chilpancingo de los Bravo
Black Roses Chilpancingo,,None Found,+52 747 478 4498,"Jos√© Ma. Morelos y Pav√≥n 11, Sta Cruz, Centro, 39000 Chilpancingo de los Bravo, Gro., M√©xico",Restaurante, Abre a las 9a.m.,Chilpancingo de los Bravo
Querida Mar√≠a,facebook.com,None Found,+52 747 471 1962,"Nicol√°s Bravo 2, Centro, 39050 Chilpancingo de los Bravo, Gro., M√©xico",Restaurante,,Chilpancingo de los Bravo
La Requinta,,None Found,+52 747 116 2608,"La Requinta, El Encanto, 39040 Chilpancingo de los Bravo, Gro., M√©xico",Restaurante,,Chilpancingo de los Bravo
Mar√≠a Bonita,,None Found,+52 747 137 6860,"Centro Comercial Chilpancingo, local 7a, Universal, Chilpancingo de los Bravo, Gro., M√©xico",Restaurante mexicano, Abre a las 8a.m.,Chilpancingo de los Bravo
Pozoleria Rio Balsas de Do√±a Male Memije,,None Found,,"R√≠o Balsas 2, San Antonio, 39040 Chilpancingo de los Bravo, Gro., M√©xico",,,Chilpancingo de los Bravo
El Calehual,,None Found,,"Av. Ignacio Ram√≠rez 52, San Francisco, 39068 Chilpancingo de los Bravo, Gro., M√©xico",Taquer√≠a, Abre a las 10a.m. del lun,Chilpancingo de los Bravo
El Calehual,,None Found,,"Av. Ignacio Ram√≠rez 52, San Francisco, 39068 Chilpancingo de los Bravo, Gro., M√©xico",Taquer√≠a, Abre a las 10a.m. del lun,Chilpancingo de los Bravo
Pozoleria Do√±a Berna,,None Found,+52 747 143 3466,"Mois√©s Guevara 33, Sta Cruz, 39030 Chilpancingo de los Bravo, Gro., M√©xico",Restaurante de desayunos, Abre a la 1p.m. del jue,Chilpancingo de los Bravo
Cavernicola,facebook.com,None Found,+52 747 491 4061,"17 de marzo 5, Centro, 39000 Chilpancingo de los Bravo, Gro., M√©xico",Hamburgueser√≠a, Abre a las 9a.m.,Chilpancingo de los Bravo
Pozoler√≠a Sta. Rosa,,None Found,,"Valle Sur Santa Rosa, 39070 Chilpancingo de los Bravo, Gro., M√©xico",Restaurante mexicano,,Chilpancingo de los Bravo
Taqueria Los Hornitos,,None Found,+52 747 176 1459,"C. Juan Ruiz de Alarc√≥n 12, San Francisco, 39068 Chilpancingo de los Bravo, Gro., M√©xico",Taquer√≠a, 2a.m. ,Chilpancingo de los Bravo
Bagels & Sushi,facebook.com,None Found,+52 747 491 5827,"Lic. Ren√© Ju√°rez Cisneros 38a, Universal, 39080 Chilpancingo de los Bravo, Gro., M√©xico",Restaurante de sushi, Abre a las 11a.m.,Chilpancingo de los Bravo
Hamburguesas Lidany's,lidanys.com,None Found,+52 747 471 1667,"Av Miguel Alem√°n 22, Centro, 39000 Chilpancingo de los Bravo, Gro., M√©xico",Hamburgueser√≠a, Abre a las 9a.m.,Chilpancingo de los Bravo
La Chona Cocina Mexicana,facebook.com,None Found,+52 747 470 7492,"Te√≥filo Olea y Leyva, Calle Francisco I Madero 14, Centro, 39000 Chilpancingo de los Bravo, Gro., M√©xico",Restaurante, Abre a las 8:30a.m. del lun,Chilpancingo de los Bravo
Restaurant El Carambas,,None Found,+52 747 472 0384,"Universal, 39080 Chilpancingo de los Bravo, Gro., M√©xico",Restaurante mexicano, Abre a las 7:30p.m.,Chilpancingo de los Bravo
Restaurant Alcatr√°z,,None Found,+52 747 494 7805,"Av. Juan N. √Ålvarez Sur 4, Centro, 39000 Chilpancingo de los Bravo, Gro., M√©xico",Restaurante mexicano, Abre a las 9a.m. del lun,Chilpancingo de los Bravo
Restaurant Alcatr√°z,,None Found,+52 747 494 7805,"Av. Juan N. √Ålvarez Sur 4, Centro, 39000 Chilpancingo de los Bravo, Gro., M√©xico",Restaurante mexicano, Abre a las 9a.m. del lun,Chilpancingo de los Bravo
Comida Chilpancingo,,None Found,,"Blvd. Vicente Guerrero 14, Zona Sin Asignaci√≥n de Nombre de Col 47, 39090 Chilpancingo de los Bravo, Gro., M√©xico",Restaurante,,Chilpancingo de los Bravo
Parimbo,,None Found,+52 747 356 1138,"L√°zaro C√°rdenas 19-PA, Loma Bonita, 39080 Chilpancingo de los Bravo, Gro., M√©xico",Restaurante, Abre a las 3p.m.,Chilpancingo de los Bravo
Los Helechos,,None Found,+52 747 133 2701,"C. Belizario Dominguez 1, Centro, 39000 Chilpancingo de los Bravo, Gro., M√©xico",Restaurante familiar, Abre a las 8a.m.,Chilpancingo de los Bravo
Ristoranti Italiano Amore,,None Found,+52 747 117 0260,"El Potrerito, 39070 Chilpancingo de los Bravo, Gro., M√©xico",Pizzer√≠a, Abre a las 2:30p.m.,Chilpancingo de los Bravo
Babilonia,,None Found,+52 747 112 2759,"5 de Mayo 22, Centro, 39000 Chilpancingo de los Bravo, Gro., M√©xico",Restaurante, Abre a la 1p.m.,Chilpancingo de los Bravo
Tacos Xalico,,None Found,+52 747 491 3980,"Calle Amado Nervo 4, Centro, 39000 Chilpancingo de los Bravo, Gro., M√©xico",Taquer√≠a, Abre a las 10:30a.m.,Chilpancingo de los Bravo
Tangelo Restaurante y Tienda Org√°nica,,None Found,+52 747 137 1209,"Gral. Baltazar R. Leyva Mancilla 68, San Antonio, 39000 Chilpancingo de los Bravo, Gro., M√©xico",Restaurante org√°nico, Abre a las 9a.m.,Chilpancingo de los Bravo
Casa Caliza,,None Found,+52 747 121 3627,"AVENIDA L√ÅZARO C√ÅRDENAS, Villa Temixco #22, 39089 Chilpancingo de los Bravo, Gro., M√©xico",Restaurante mexicano, Abre a las 10a.m.,Chilpancingo de los Bravo
Autentica Comida China Buffet,,None Found,+52 747 494 7967,"Av. Juan N. √Ålvarez Sur 9, Centro, 39000 Chilpancingo de los Bravo, Gro., M√©xico",Restaurante chino, Abre a las 11a.m.,Chilpancingo de los Bravo
Tacos Orientales,,None Found,+52 747 105 6576,"Av. Vicente Guerrero 48, Centro, 39000 Chilpancingo de los Bravo, Gro., M√©xico",Taquer√≠a, Cierra a las 3a.m. ,Chilpancingo de los Bravo
MAMEY HEALTHY FOOD,facebook.com,None Found,+52 17471386094,"De la Juventud 5, El Centenario, 39086 Chilpancingo de los Bravo, Gro., M√©xico",Restaurante, Abre a las 8a.m. del lun,Chilpancingo de los Bravo
MAMEY HEALTHY FOOD,facebook.com,None Found,+52 17471386094,"De la Juventud 5, El Centenario, 39086 Chilpancingo de los Bravo, Gro., M√©xico",Restaurante, Abre a las 8a.m. del lun,Chilpancingo de los Bravo
Restaurante Mam√° Quina,,None Found,+52 747 105 0802,"FGXJ+8V, 39105 Petaquillas, Gro., M√©xico",Restaurante,,Chilpancingo de los Bravo
"Restaurante ""Don Pepe""",,None Found,+52 747 545 6677,"Principal, Agua Potable y Alcantarillado, 39070 Chilpancingo de los Bravo, Gro., M√©xico",Restaurante, Abre a las 9a.m.,Chilpancingo de los Bravo
"Restaurante ""Don Pepe""",,None Found,+52 747 545 6677,"Principal, Agua Potable y Alcantarillado, 39070 Chilpancingo de los Bravo, Gro., M√©xico",Restaurante, Abre a las 9a.m.,Chilpancingo de los Bravo
Toninos Pizza Y Pasta,,None Found,+52 747 145 1212,"L√°zaro C√°rdenas 19, Loma Bonita, 39086 Chilpancingo de los Bravo, Gro., M√©xico",Restaurante italiano, Abre a las 9a.m.,Chilpancingo de los Bravo
Restaurant y Marisqueria Los Magueyes,,None Found,,"Paseo Alejandro Cervantes Delgado 16, San Francisco, 39050 Chilpancingo de los Bravo, Gro., M√©xico",Marisquer√≠a, Abre a las 11a.m.,Chilpancingo de los Bravo
Tora Japanese Food & Sushi Bar,,None Found,+52 747 116 0235,"L√°zaro C√°rdenas 36, Universal, 39080 Chilpancingo de los Bravo, Gro., M√©xico",Restaurante de sushi, Abre a la 1:30p.m.,Chilpancingo de los Bravo
Pozoleria La Casita,facebook.com,None Found,,"C. Belizario Dominguez 34-36, San Mateo, 39022 Chilpancingo de los Bravo, Gro., M√©xico",Restaurante mexicano, Abre a las 8a.m.,Chilpancingo de los Bravo
El chivito Alegre,,None Found,+52 747 130 3815,"Gral. Baltazar R. Leyva Mancilla 21, San Antonio, 39069 Chilpancingo de los Bravo, Gro., M√©xico",Restaurante, Abre a las 9a.m.,Chilpancingo de los Bravo
Mam√° Quina - Restaurante Parador gastron√≥mico,facebook.com,None Found,+52 747 105 0799,"Carretera Nacional M√©xico Acapulco Km 269.5, Lazaro Cardenas, 39010 Chilpancingo de los Bravo, Gro., M√©xico",Restaurante, Abre a las 9a.m.,Chilpancingo de los Bravo
Hotel Y Restaurant Cuauhtemoc,,None Found,+52 747 113 6546,"Av Miguel Alem√°n 14, Centro, 39000 Chilpancingo de los Bravo, Gro., M√©xico",,,Chilpancingo de los Bravo
Restaurante Casa Texcalco,,None Found,,"Leonardo Garc√≠a 7, Zona Sin Asignaci√≥n de Nombre de Col 51, 39077 Chilpancingo de los Bravo, Gro., M√©xico",Restaurante, Abre a las 2a.m. del vie,Chilpancingo de los Bravo
Tavos Hamburguesas,,None Found,+52 747 479 7874,"Sta. Cruz 12, colonia obrera, Sta Cruz, 39030 Chilpancingo de los Bravo, Gro., M√©xico",Hamburgueser√≠a, Abre a las 4p.m.,Chilpancingo de los Bravo
SALON CORREGIDORA RESTAURANTE CANTINA,instagram.com,None Found,+52 744 325 1187,"Corregidora 9, San Mateo, 39022 Chilpancingo de los Bravo, Gro., M√©xico",Restaurante mexicano, Abre a las 10a.m.,Chilpancingo de los Bravo
Caf√© Punta del Cielo,puntadelcielo.com.mx,None Found,+52 747 116 1892,"L√°zaro C√°rdenas 31, Loma Bonita, 39087 Chilpancingo de los Bravo, Gro., M√©xico",Cafeter√≠a, Abre a las 8a.m.,Chilpancingo de los Bravo
Caf√© Punta del Cielo,puntadelcielo.com.mx,None Found,+52 747 116 1892,"L√°zaro C√°rdenas 31, Loma Bonita, 39087 Chilpancingo de los Bravo, Gro., M√©xico",Cafeter√≠a, Abre a las 8a.m.,Chilpancingo de los Bravo
LOS TARASCOS CHILPANCINGO,ubereats.com,None Found,+52 747 117 3905,"L√°zaro C√°rdenas 89 COL, entre AV. LA JUVENTUD, Burocratas, 39086 Chilpancingo de los Bravo, Gro., M√©xico",Restaurante, 2a.m. ,Chilpancingo de los Bravo
A Las Brasas,sites.google.com,None Found,+52 747 155 7796,"EDUARDO MENDOZA S COL, Margarita Viguri, 39086 Chilpancingo de los Bravo, Gro., M√©xico",Restaurante especializado en barbacoa, Abre a las 8:30a.m.,Chilpancingo de los Bravo
El Toronjil del zocalo,,None Found,+52 747 143 3378,"Primer Congreso de An√°huac SN, Centro, 39000 Chilpancingo de los Bravo, Gro., M√©xico",Restaurante mexicano, Abre a las 9a.m.,Chilpancingo de los Bravo
Pozoler√≠a Do√±a Docha,,None Found,+52 17474722185,"3a. Calle de Allende 46, Centro, 39000 Chilpancingo de los Bravo, Gro., M√©xico",Restaurante mexicano, Abre a las 9:30a.m.,Chilpancingo de los Bravo
Sabor... es vida saludable ( antes nutriligth),nutrilight.com.mx,None Found,+52 747 137 3061,"Crist√≥bal Col√≥n, Centro, 39000 Chilpancingo de los Bravo, Gro., M√©xico",Restaurante, Abre a las 7a.m. del lun,Chilpancingo de los Bravo
P√öA Brasa y Vino,,None Found,+52 747 109 0227,"L√°zaro C√°rdenas 15, Loma Bonita, 39060 Chilpancingo de los Bravo, Gro., M√©xico",Restaurante especializado en barbacoa,,Chilpancingo de los Bravo
"Don Pizza, Matriz",,None Found,+52 747 529 1059,"L√°zaro C√°rdenas 88, Zona Sin Asignaci√≥n Denombre de Col 21, 39080 Chilpancingo de los Bravo, Gro., M√©xico",Restaurante de comida r√°pida, Abre a las 2p.m.,Chilpancingo de los Bravo
Caf√© de Mendoza,facebook.com,None Found,+52 747 471 3231,"Av. Juan N. √Ålvarez Sur 58B, Centro, 39000 Chilpancingo de los Bravo, Gro., M√©xico",Restaurante de desayunos, Abre a las 8:30a.m. del lun,Chilpancingo de los Bravo
Galer√≠as Chilpancingo,galerias.com,None Found,+52 747 494 9834,"Ren√© Ju√°rez Cisneros 130, Fraccionamiento Villas Vicente Guerrero, 39095 Chilpancingo de los Bravo, Gro., M√©xico",Centro comercial, Abre a las 11a.m.,Chilpancingo de los Bravo
Kyojido Restaurante Japon√©s,facebook.com,None Found,+52 747 132 2006,"ignacio zaragoza 41, Ignacio Zaragoza 39, Centro, 39000 Chilpancingo de los Bravo, Gro., M√©xico",Restaurante, Abre a las 3p.m.,Chilpancingo de los Bravo
Mr. Baxter & Don Jacinto cantina club,,None Found,+52 747 115 6735,"Emiliano Zapata, Centro, 39000 Chilpancingo de los Bravo, Gro., M√©xico",Restaurante, Abre a las 9a.m.,Chilpancingo de los Bravo
Little Caesars Chilpancingo,mexico.littlecaesars.com,Local de comida para llevar con pizzas cl√°sicas y pan de queso estilo italiano.,+52 800 668 0472,"Blvd. Vicente Guerrero, Zona Sin Asignaci√≥n de Nombre de Col 20, 39080 Chilpancingo de los Bravo, Gro., M√©xico",Pizzer√≠a, Abre a las 9:30a.m.,Chilpancingo de los Bravo
Little Caesars Chilpancingo,mexico.littlecaesars.com,Local de comida para llevar con pizzas cl√°sicas y pan de queso estilo italiano.,+52 800 668 0472,"Blvd. Vicente Guerrero, Zona Sin Asignaci√≥n de Nombre de Col 20, 39080 Chilpancingo de los Bravo, Gro., M√©xico",Pizzer√≠a, Abre a las 9:30a.m.,Chilpancingo de los Bravo
Tacos el cordero,,None Found,+52 747 177 6408,"Av. 5 de Febrero & Calle Allende, Av. 5 de Febrero 19, San Antonio, 39069 Chilpancingo de los Bravo, Gro., M√©xico",Taquer√≠a, Abre a las 9a.m.,Chilpancingo de los Bravo
Pozoleria Bella Vista,,None Found,+52 747 185 3860,"M√°rtires de Cananea 5, Omiltemi, 39030 Chilpancingo de los Bravo, Gro., M√©xico",Restaurante,,Chilpancingo de los Bravo
Enchiladas las m√°s sabrosas,facebook.com,None Found,+52 747 183 1508,"Av. Ignacio Ram√≠rez 12, Centro, 39000 Chilpancingo de los Bravo, Gro., M√©xico",Restaurante mexicano,,Chilpancingo de los Bravo
Restaurante Man√° del Cielo,instagram.com,None Found,+52 747 218 7973,"Emiliano Zapata esquina, con Madero, 39000 Chilpancingo de los Bravo, Gro., M√©xico",Restaurante, Abre a las 8:30a.m.,Chilpancingo de los Bravo
La Jungla Restaurant Bar,facebook.com,None Found,+52 747 143 5161,"Callej√≥n de la Rosa, Colonia Universal no. 97-Planta Alta, Barrio de Tequicorral, 39070 Chilpancingo de los Bravo, Gro., M√©xico",Bar restaurante, Abre a las 12p.m.,Chilpancingo de los Bravo
Las Delicias,,None Found,+52 747 472 2476,"Av Miguel Alem√°n 12, Centro, 39000 Chilpancingo de los Bravo, Gro., M√©xico",Restaurante de desayunos, Abre a las 8a.m.,Chilpancingo de los Bravo
Los Tarascos expr√©ss plaza Chilpancingo,tarascosexpress.negocio.site,None Found,+52 747 116 0555,"PLAZA SORIANA, CENTRO COMERCIAL NUMERO 3 LETRA C, Universal, 39080 Chilpancingo de los Bravo, Gro., M√©xico",Restaurante mexicano, Abre a la 1p.m.,Chilpancingo de los Bravo
La pasi√≥n de Natasha/ Restaurante,,None Found,+52 747 154 5144,"C. Juan Ruiz de Alarc√≥n 26, San Francisco, 39068 Chilpancingo de los Bravo, Gro., M√©xico",Restaurante mexicano, Abre a las 9a.m. del lun,Chilpancingo de los Bravo
LIENZOS Y RAICES,facebook.com,None Found,+52 747 150 4090,"Galo soberon Calle : Francisco I, Hermenegildo Galeana 39, Sta Cruz, 39000 Chilpancingo de los Bravo, Gro., M√©xico",Restaurante, Abre a las 8a.m. del lun,Chilpancingo de los Bravo
LIENZOS Y RAICES,facebook.com,None Found,+52 747 150 4090,"Galo soberon Calle : Francisco I, Hermenegildo Galeana 39, Sta Cruz, 39000 Chilpancingo de los Bravo, Gro., M√©xico",Restaurante, Abre a las 8a.m. del lun,Chilpancingo de los Bravo
MCDONALD'S CHILPANCINGO CENTRO,mcdonalds.com.mx,Cl√°sica cadena de comida r√°pida de larga trayectoria conocida por sus hamburguesas y papas fritas.,+52 800 300 3435,"Emiliano Zapata 6, entre Morelos y Calle Francisco I Madero, Centro, 39000 Petaquillas, Gro., M√©xico",Restaurante de comida r√°pida, Abre a las 12p.m.,Chilpancingo de los Bravo
MCDONALD'S CHILPANCINGO CENTRO,mcdonalds.com.mx,Cl√°sica cadena de comida r√°pida de larga trayectoria conocida por sus hamburguesas y papas fritas.,+52 800 300 3435,"Emiliano Zapata 6, entre Morelos y Calle Francisco I Madero, Centro, 39000 Petaquillas, Gro., M√©xico",Restaurante de comida r√°pida, Abre a las 12p.m.,Chilpancingo de los Bravo
Delizzia pizza,facebook.com,None Found,+52 747 224 2647,"Calle Cuauhtemoc Esquina con 16 de Septiembre, 39000 Chilpancingo de los Bravo, Gro., M√©xico",Restaurante de comida r√°pida, Abre a las 3:30p.m.,Chilpancingo de los Bravo
La Toscana Pizza,,None Found,+52 747 110 3143,"Sexta calle, Del PRI, 39070 Chilpancingo de los Bravo, Gro., M√©xico",Pizzer√≠a, Abre a la 1:30p.m.,Chilpancingo de los Bravo
Fast Food & Parrilla La Le√±a,,None Found,,"Te√≥filo Olea y Leyva 3, Sta Cruz, 39000 Chilpancingo de los Bravo, Gro., M√©xico",Restaurante, Abre a las 9a.m.,Chilpancingo de los Bravo
Romanzza,,None Found,+52 747 491 8781,"Nicol√°s Bravo 2, Centro, 39000 Chilpancingo de los Bravo, Gro., M√©xico",Helader√≠a, Abre a las 10a.m.,Chilpancingo de los Bravo
Hamburguesas 4ever,m.facebook.com,None Found,+52 747 220 1313,"C. Hero√≠nas del Sur Esquina, Alejandro Cervanted, 39030 Chilpancingo de los Bravo, Gro., M√©xico",Hamburgueser√≠a, Abre a las 3p.m.,Chilpancingo de los Bravo
La casa del hot cakes,,None Found,+52 747 275 2537,"Av. Ignacio Ram√≠rez 52, San Francisco, 39068 Chilpancingo de los Bravo, Gro., M√©xico",Restaurante, Abre a las 8a.m.,Chilpancingo de los Bravo
KFC,,None Found,+52 747 133 9781,"Av. Benito Ju√°rez 12a, Centro, 39000 Chilpancingo de los Bravo, Gro., M√©xico",Restaurante, Abre a las 9a.m.,Chilpancingo de los Bravo
