Names,Website,Introduction,Phone Number,Address,Type,Opens At,Municipio
La parrillita,,None Found,,"Cda. de Uni√≥n 50, San Pablo, 56334 Chimalhuac√°n, M√©x., M√©xico",Bar restaurante, Cierra a las 11p.m.,Chimalhuac√°n
La Casa de To√±o en Plaza Chimalhuac√°n,sucursales.lacasadetono.mx,None Found,+52 55 9331 4671,"Av. Nezahualc√≥yotl Manzana 004, Sta Maria Nativitas, 56335 Chimalhuac√°n, M√©x., M√©xico",Restaurante mexicano, Cierra a las 11p.m.,Chimalhuac√°n
La Caba√±a del Patr√≥n,,None Found,,"Avenda√±o Manzana 002, Acuitlapilco, 56335 Chimalhuac√°n, M√©x., M√©xico",Restaurante, Cierra a la 1a.m.,Chimalhuac√°n
Asadero Platence Chimalhuac√°n,,None Found,+52 55 2173 9721,"Jos√© Mar√≠a Vilaseca 5-132, Sta Maria Nativitas, 56330 Chimalhuac√°n, M√©x., M√©xico",Restaurante, Cierra a las 10p.m.,Chimalhuac√°n
El Canto de la Rana,,None Found,+52 55 6587 9306,"Av. del Pe√±on Manzana 034, Villa Xochitenco, 56356 Chimalhuac√°n, M√©x., M√©xico",Restaurante, 9p.m. ,Chimalhuac√°n
Ibiza restaurant terraza,,None Found,,"Cda. de Uni√≥n 7, San Pablo, 56334 Chimalhuac√°n, M√©x., M√©xico",Restaurante, Cierra a las 12a.m.,Chimalhuac√°n
"La Taberna Chimalhuac√°n,Hamburguesas, Nachos, Alitas y Bebidas en Chimalhuac√°n",,None Found,+52 55 7461 4131,"Calle Canteros, Manzana 2 Lote 1 Calle, Canteros, 56357 Chimalhuac√°n, M√©x., M√©xico",Restaurante, Cierra a las 11p.m.,Chimalhuac√°n
Terraza COMO DIOS MANDA,,None Found,,"Martinica 2, Sta Maria Nativitas, 56335 Chimalhuac√°n, M√©x., M√©xico",Restaurante, Cierra a la 1a.m.,Chimalhuac√°n
MERLOT Restaurant,drive.google.com,None Found,+52 55 9194 1739,"Av. Felipe Berriozabal Manzana 1 Lote 32, Hojalateros, 56366 Chimalhuac√°n, M√©x., M√©xico",Restaurante argentino,,Chimalhuac√°n
Pescados y Mariscos El Puerto,,None Found,+52 55 2228 7081,"Local 27, Av. Bordo de Xochiaca Mz. 9-Lt. 4, Xaltipac, 56346 Chimalhuac√°n, M√©x., M√©xico",Marisquer√≠a, 8:30p.m. ,Chimalhuac√°n
Los Jefes,,None Found,+52 55 6113 4475,"Tecatl 3, San Pablo, 56334 Chimalhuac√°n, M√©x., M√©xico",Hamburgueser√≠a, Cierra a las 12a.m.,Chimalhuac√°n
Taqueria El Mexicano,,None Found,,"C. 16 de Septiembre Manzana 004, Cabecera Municipal, 56330 Chimalhuac√°n, M√©x., M√©xico",Taquer√≠a, Cierra a las 12a.m.,Chimalhuac√°n
El Rey de Las Conchas Chimalhuac√°n,elreydelasconchas.com,None Found,+52 221 872 9323,"Calle Amargura Esq Nezahualc√≥yotl Cabecera, 56334 Chimalhuac√°n, M√©x., M√©xico",Restaurante de postres, Cierra a las 10p.m.,Chimalhuac√°n
La tartha,,None Found,+52 55 8282 5334,"Av Ameyalco 12, Transportistas, 56363 Chimalhuac√°n, M√©x., M√©xico",Restaurante de brunch, 8:45p.m. ,Chimalhuac√°n
Ricos Caldos De Gallina Y Sabroso Pozole Tejupilco,,None Found,+52 55 7601 5575,"Av. del Pe√±on Manzana 061, Villa Xochitenco, 56360 Chimalhuac√°n, M√©x., M√©xico",Restaurante, Cierra a la 1a.m.,Chimalhuac√°n
El Molcajete,,None Found,+52 56 3489 8655,"Av Arca de Noe 181, Acuitlapilco, 56335 Chimalhuac√°n, M√©x., M√©xico",Bar restaurante, Cierra a las 2a.m.,Chimalhuac√°n
Cocina y Parrilla La Unica,,None Found,+52 55 5852 7892,"Tecatl Mz 180 Lt 16, Hojalateros, 56366 Chimalhuac√°n, M√©x., M√©xico",Restaurante argentino, 9p.m. ,Chimalhuac√°n
El gaucho argentino tacos & grill,,None Found,+52 55 7513 1351,"Av. del Pe√±on Manzana 024, Villa Xochitenco, 56360 Chimalhuac√°n, M√©x., M√©xico",Restaurante familiar, Cierra a las 10:30p.m.,Chimalhuac√°n
Antojitos Mexicanos Cuatro Hermanos,antojitosmx4hmns.com,None Found,+52 55 4951 1107,"Mochitl√°n LT1, Carpinteros, 56367 Chimalhuac√°n, M√©x., M√©xico",Restaurante, Cierra a las 11p.m.,Chimalhuac√°n
Marisquer√≠a Junior,,None Found,+52 55 5044 3828,"Av. Nezahualc√≥yotl 87, Sta Maria Nativitas, 56330 Chimalhuac√°n, M√©x., M√©xico",Marisquer√≠a, Abre a las 9a.m. del dom,Chimalhuac√°n
"Pozoleria "" El ranchito""",,None Found,+52 55 9047 8983,"C. Guerrero Chimalhuacan 16, Cabecera Municipal, 56330 Chimalhuac√°n, M√©x., M√©xico",Restaurante familiar, Cierra a las 10p.m.,Chimalhuac√°n
Caldos de gallina don julio,,None Found,+52 55 7267 3472,"56366, Santa Elena, 56366 Chimalhuac√°n, M√©x., M√©xico",Restaurante de sopas,,Chimalhuac√°n
Marisquer√≠a El Cu√±ado,,None Found,,"Av Arca de Noe Mz.1 Lot.1, Acuitlapilco, 56335 Chimalhuac√°n, M√©x., M√©xico",Marisquer√≠a, Abre a las 9a.m. del dom,Chimalhuac√°n
Taqueria Chimalhuacan,,None Found,,"Av. Nezahualc√≥yotl Manzana 004, Cabecera Municipal, 56330 Chimalhuac√°n, M√©x., M√©xico",Taquer√≠a, Cierra a las 4a.m.,Chimalhuac√°n
Pozoleria el rincon de juquila,,None Found,,"C. Apantli LT21, Talabarteros, 56356 Chimalhuac√°n, M√©x., M√©xico",, Cierra a las 11p.m.,Chimalhuac√°n
Garnacheria Urbana CHBK,linktr.ee,None Found,+52 55 7491 5064,"Viejo Vergel Mz 52 Lt 29, Vergel Lote Viejo, Cd Alegre, 56335 Chimalhuac√°n, M√©x., M√©xico",Restaurante de comida r√°pida, Cierra a las 11p.m.,Chimalhuac√°n
Taqueria y Pizzer√≠a El farolito de Don Luis,,None Found,+52 56 1547 2709,"Av. Nezahualc√≥yotl 1, Sta Maria Nativitas, 56330 Chimalhuac√°n, M√©x., M√©xico",Taquer√≠a, Cierra a las 3a.m.,Chimalhuac√°n
Carnitas Chimalhuac√°n Estilo Michoacan,,None Found,+52 55 5731 7222,"Av. Chimalhuac√°n 427-A, Benito Ju√°rez, 57000 Cdad. Nezahualc√≥yotl, M√©x., M√©xico",Restaurante mexicano, Abre a las 9a.m. del dom,Chimalhuac√°n
Taqueria Maximo y Raziel,,None Found,+52 55 5433 9031,"Av. Felipe Berriozabal 4-21, Alfareros, 56363 Chimalhuac√°n, M√©x., M√©xico",Taquer√≠a, Cierra a las 12a.m.,Chimalhuac√°n
"La Pozoleria ""Con el sazon de mi tierra""",,None Found,,"Av. del Refugio 5, Predio el Molino, San Pedro, 56334 Chimalhuac√°n, M√©x., M√©xico",, Cierra a las 10p.m.,Chimalhuac√°n
Pozoleria Mam√° Bella,,None Found,+52 55 2849 4412,"C. 16 de Septiembre, Cabecera Municipal, 56330 Chimalhuac√°n, M√©x., M√©xico",Restaurante mexicano, Cierra a las 10p.m.,Chimalhuac√°n
Elotes Locos Mary,,None Found,+52 56 4653 0750,"Av. Manuel Alas LT16, Talabarteros, 56356 Chimalhuac√°n, M√©x., M√©xico",Restaurante, Cierra a las 10p.m.,Chimalhuac√°n
Restaurante Armando's Jr,,None Found,+52 56 4394 8886,"Av. Nezahualc√≥yotl 12, Cabecera Municipal, 56330 Chimalhuac√°n, M√©x., M√©xico",Restaurante mexicano, Abre a las 9a.m. del lun,Chimalhuac√°n
antojeria la chimalhuacana,,None Found,+52 55 6505 6021,"Cda. de Uni√≥n 234, San Pablo, 56334 Chimalhuac√°n, M√©x., M√©xico",Restaurante mexicano, Cierra a las 11p.m.,Chimalhuac√°n
Taquer√≠a Los Toritos,,None Found,,"Av. del Pe√±on 46, San Pablo, 56334 Chimalhuac√°n, M√©x., M√©xico",Taquer√≠a, Cierra a las 5a.m. del dom,Chimalhuac√°n
Garabato's,,None Found,+52 56 1525 5386,"Av Sindicalismo Manzana 038, Talabarteros, 56356 Chimalhuac√°n, M√©x., M√©xico",Pizzer√≠a, Cierra a las 10p.m.,Chimalhuac√°n
Sal√≥n El Correo,,None Found,+52 55 2770 3218,"Av Francisco I. Madero 49, Sta Maria Nativitas, 56335 Chimalhuac√°n, M√©x., M√©xico",Sal√≥n para eventos, Abre a las 10a.m. del lun,Chimalhuac√°n
Marisqueria Miramar,,None Found,,"Av de Los Patos LT20, Artesanos, 56334 Chimalhuac√°n, M√©x., Av Patos LT20, Artesanos, Chimalhuac√°n, M√©x., M√©xico",Marisquer√≠a, 9p.m. ,Chimalhuac√°n
Ex√≥ticos Junior (Marisquer√≠a),,None Found,+52 55 7264 1729,"Av. Acuitlapilco Manzana 007, San Miguel, 56335 Chimalhuac√°n, M√©x., M√©xico",Marisquer√≠a, Abre a las 9a.m. del dom,Chimalhuac√°n
Restaurante familiar la reyna,,None Found,+52 55 6687 4213,"Av. del Pe√±on S/N, Herreros, 56334 Chimalhuac√°n, M√©x., M√©xico",Restaurante, Cierra a las 11p.m.,Chimalhuac√°n
Antojitos Mexicanos Do√±a Flor,,None Found,+52 55 5853 3763,"56337, Capul√≠n 14, Olmedo II, 56337 Chimalhuac√°n, M√©x., M√©xico",Restaurante, Cierra a las 11:30p.m.,Chimalhuac√°n
Marisqueria El Pulpazo No.1,,None Found,+52 55 6183 6605,"Calle ecapatli lt14 mz394, Alfareros, 56363 Chimalhuac√°n, M√©x., M√©xico",Marisquer√≠a, Abre a las 9a.m. del dom,Chimalhuac√°n
Burgerland,instagram.com,None Found,+52 56 3478 2819,"Av. Agrarismo 2243, entre calle Santo Tom√°s y Nezahualpilli, Saraperos, 56356 Chimalhuac√°n, M√©x., M√©xico",Hamburgueser√≠a,,Chimalhuac√°n
ISHI SUSHI,,None Found,+52 55 2026 4658,"Av. Benito Ju√°rez 20, San Lorenzo, 56340 Chimalhuac√°n, M√©x., M√©xico",Restaurante, Cierra a las 10p.m.,Chimalhuac√°n
Grill Burger Town,,None Found,+52 56 4916 0640,"Av Arenal 1461, Pescadores, 56334 Chimalhuac√°n, M√©x., M√©xico",Restaurante de comida r√°pida, Cierra a la 1a.m.,Chimalhuac√°n
"Bielas y Pistones Wings, hamburguesas, costillas y alitas Chimalhuacan",facebook.com,None Found,+52 55 9190 8514,"Av. Bordo de Xochiaca Manzana 10 Lote 6, Tlatelco, 56353 Chimalhuac√°n, M√©x., M√©xico",Restaurante, Cierra a las 4a.m.,Chimalhuac√°n
Mala M√≠a M√©xico,,None Found,+52 443 520 6708,"Av. Del Pe√±√≥n, Jazm√≠n esq, San Pedro, 56334 Chimalhuac√°n, M√©x., M√©xico",Pub,,Chimalhuac√°n
pollos Betzaida,,None Found,,"Manzana 010, Mineros, 56334 Chimalhuac√°n, M√©x., M√©xico",Restaurante especializado en pollo, Cierra a las 10p.m.,Chimalhuac√°n
Taqueria juquilita,,None Found,+52 55 7257 3031,"Heroes del 47 LT45, Herreros, 56334 Chimalhuac√°n, M√©x., M√©xico",Taquer√≠a, Cierra a las 2a.m.,Chimalhuac√°n
Rivera's Pizza Italiana,,None Found,+52 55 3763 7494,"Calle aldama mz2 lt7 Sobre, Av. del Pe√±on, 56360 Chimalhuac√°n, M√©x., M√©xico",Pizzer√≠a, Cierra a las 10p.m.,Chimalhuac√°n
El patio,,None Found,+52 33 3635 1108,"C. 4 LT8, Villa Xochitenco, 56334 Chimalhuac√°n, M√©x., M√©xico",Restaurante familiar, Cierra a las 11p.m.,Chimalhuac√°n
Higal,,None Found,,"Cda. Cognahuac 9, San Pedro, 56334 Chimalhuac√°n, M√©x., M√©xico",Restaurante,,Chimalhuac√°n
"Antojitos Mexicanos ""TETE""",,None Found,,"C. Axoquen 13, Mineros, 56334 Chimalhuac√°n, M√©x., M√©xico",Restaurante, Cierra a las 11:30p.m.,Chimalhuac√°n
Restaurante Casa Asturias,,None Found,+52 56 3426 2933,"Chimalhuacan 3a. Cda. de Asturias 2-4, Villa Xochitenco, 56360 Chimalhuac√°n, M√©x., M√©xico",Restaurante familiar, Abre a las 9:30a.m. del dom,Chimalhuac√°n
Shi Hu Rooll,,None Found,+52 55 6561 0453,"Av. Bordo de Xochiaca 80, Tlatelco, 56353 Chimalhuac√°n, M√©x., M√©xico",Restaurante de sushi, Cierra a las 10p.m.,Chimalhuac√°n
Carnitas Chimalhuac√°n üê∑üåÆ,,None Found,,"Calle Lirio esquina con calle Violeta Barrio, parte baja, San Pablo, 56334 Chimalhuac√°n, M√©x., M√©xico",Restaurante familiar,,Chimalhuac√°n
ovni pizza,,None Found,+52 55 5853 6788,"Apatzcalli, Hojalateros, 56366 Chimalhuac√°n, M√©x., M√©xico",Pizzer√≠a, Cierra a las 10p.m.,Chimalhuac√°n
CARNITAS GIL,,None Found,,"Cehuan, C. Amoxtli esq, Curtidores, 56366 Chimalhuac√°n, M√©x., M√©xico",Taquer√≠a, Abre a las 9a.m. del dom,Chimalhuac√°n
BURRO-TIME Chimalhuacan,,None Found,+52 55 2015 1268,"C. Primavera 616, Nat√≠vitas, Sta Maria Nativitas, 56335 Chimalhuac√°n, M√©x., M√©xico",Restaurante, Cierra a las 10p.m.,Chimalhuac√°n
Restaurante La Plaza Mar y tierra,,None Found,+52 624 125 3755,"56330, Ignacio Zaragoza 3, Cabecera Municipal, 56330 Chimalhuac√°n, M√©x., M√©xico",Restaurante, Abre a las 9a.m. del dom,Chimalhuac√°n
CANNELO'S PIZZA,,None Found,+52 55 5853 4222,"Cda. Capul√≠n Mz 400-Lt 4, Alfareros, 56363 Chimalhuac√°n, M√©x., M√©xico",Pizzer√≠a, Cierra a las 10:30p.m.,Chimalhuac√°n
El Rincon del Sabor,,None Found,+52 55 2312 4382,"Av. Felipe Berriozabal 39, Hojalateros, 56363 Chimalhuac√°n, M√©x., M√©xico",Restaurante,,Chimalhuac√°n
"Pozoleria ""El Buen Sazon""",,None Found,,"Av. Cehuan Manzana 011, Canasteros, 56334 Chimalhuac√°n, M√©x., M√©xico",Restaurante mexicano, Abre a las 11a.m. del dom,Chimalhuac√°n
Sushin-gon,instagram.com,None Found,+52 56 5081 2662,"56366, Tlatel Xochitenco, 56366 Chimalhuac√°n, M√©x., M√©xico",Restaurante de sushi, 9p.m. ,Chimalhuac√°n
Mac Pizza,menu.pweb.mx,None Found,+52 55 5853 7156,"Av. Morelos Manzana 004, San Pedro, 56334 Chimalhuac√°n, M√©x., M√©xico",Pizzer√≠a, Cierra a las 10:30p.m.,Chimalhuac√°n
"Bar Familiar ""La Catrina""",,None Found,,"Tecatl Mz 1 Lt 6, Hojalateros, 56360 Chimalhuac√°n, 56366 Ciudad de M√©xico, M√©x., M√©xico",Bar restaurante, Cierra a la 1a.m.,Chimalhuac√°n
La Mexicana,,None Found,+52 55 2666 7339,"Ecapatli, Ebanistas, 56356 Chimalhuac√°n, M√©x., M√©xico",Restaurante, Cierra a las 12a.m.,Chimalhuac√°n
AKa Las tortas Chimalhuac√°n,,None Found,+52 951 237 1535,"Av Organizaci√≥n Popular Manzana 014 Lote 3, Herreros, 56334 Chimalhuac√°n, M√©x., M√©xico",Restaurante de comida r√°pida al estilo de Hong Kong, Cierra a las 10p.m.,Chimalhuac√°n
Chukicrepas4,,None Found,,"Av Arca de Noe Manzana 068, Acuitlapilco, 56335 Chimalhuac√°n, M√©x., M√©xico",Creper√≠a, Cierra a las 12p.m. del dom,Chimalhuac√°n
Charly Pizza Pe√±√≥n,facebook.com,None Found,+52 55 5111 0916,"56356, Ixtle LT24, Talabarteros, 56356 Chimalhuac√°n, M√©x., M√©xico",Pizzer√≠a, Cierra a las 10:30p.m.,Chimalhuac√°n
Cocina el Tenedor,,None Found,+52 55 9242 5189,"C. Paseo Hidalgo 3, Cabecera Municipal, 56330 Chimalhuac√°n, M√©x., M√©xico",Restaurante, Abre a las 8:30a.m. del lun,Chimalhuac√°n
KARY'Z PIZZA AV.PE√ëON,,None Found,+52 55 5853 0395,"Av del Pe√±on esquina Ezpamitl, Mineros, 56334 Chimalhuac√°n, M√©x., M√©xico",Pizzer√≠a, Cierra a las 10p.m.,Chimalhuac√°n
EL CAFECITO,,None Found,+52 55 5853 3071,"Av. del Pe√±on, San Pablo, 56334 Chimalhuac√°n, M√©x., M√©xico",, Cierra a las 10p.m.,Chimalhuac√°n
Comedor Santa Mar√≠a Chimalhuac√°n,,None Found,,"Tlatel Xochitenco, 56366 Chimalhuac√°n, M√©x., M√©xico",Restaurante, Abre a las 11:30a.m. del lun,Chimalhuac√°n
"Caldos De Gallina ""Guaraila""",,None Found,,"Av Organizaci√≥n Popular, Mineros, 56334 Chimalhuac√°n, M√©x., M√©xico",Restaurante de sopas, Abre a las 9a.m. del dom,Chimalhuac√°n
La Chingada,,None Found,,"Tlatel 202, Plateros, 56356 Chimalhuac√°n, M√©x., M√©xico",Restaurante,,Chimalhuac√°n
McDonald's,mcdonalds.com.mx,Cl√°sica cadena de comida r√°pida de larga trayectoria conocida por sus hamburguesas y papas fritas.,+52 800 300 3435,"Av. Nezahualc√≥yotl Manzana 004, Sta Maria Nativitas, 56335 Chimalhuac√°n, M√©x., M√©xico",Restaurante de comida r√°pida, Cierra a las 10p.m.,Chimalhuac√°n
Caf√© Mictlan,,None Found,,"C. Lirio, Xochitenco Mz. 7-Lt. 59, 56360 Chimalhuac√°n, M√©x., M√©xico",Cafeter√≠a, Cierra a las 11p.m.,Chimalhuac√°n
SUPER TORTAS CHUPACABRAS,es.restaurantguru.com,None Found,+52 55 6184 5800,"Las Cruces 35, San Pablo, 56334 Chimalhuac√°n, M√©x., M√©xico",, Cierra a las 11p.m.,Chimalhuac√°n
DO√ëA GALLINA ‚ÄúCaldos y Antojitos mexicanos‚Äù,,None Found,+52 56 2751 3828,"av Morelos con Esquina Dalia San Pedro, 56334 Chimalhuac√°n, M√©x., M√©xico",Restaurante, Abre a las 9a.m. del dom,Chimalhuac√°n
Pizza Yair,,None Found,+52 55 5044 0297,"Av Patos 13, San Pedro, 56334 Chimalhuac√°n, M√©x., M√©xico",Pizzer√≠a, Cierra a las 11p.m.,Chimalhuac√°n
Starbucks Plaza Chimalhuac√°n,starbucks.com.mx,"Cadena de cafeter√≠as de Seattle famosa por su caf√© tostado, bocados ligeros y disponibilidad de Wi‚ÄëFi.",,"Av. Nezahualc√≥yotl SN-0, Sta Maria Nativitas, 56335 Chimalhuac√°n, M√©x., M√©xico",Cafeter√≠a, Cierra a las 10p.m.,Chimalhuac√°n
MI RESTAURANT-CHITO,,None Found,+52 55 1152 0510,"Av. del Pe√±on S/N, Villa Xochitenco, 56334 Chimalhuac√°n, M√©x., M√©xico",Restaurante, Abre a las 8a.m. del dom,Chimalhuac√°n
China food wu's,,None Found,+52 55 6693 1525,"Av. Nezahualc√≥yotl 79, Nat√≠vitas, Sta Maria Nativitas, 56335 Chimalhuac√°n, M√©x., M√©xico",Comida china para llevar, 8:30p.m. ,Chimalhuac√°n
John¬¥s Pizza Chimalhuacan,johnspizzachimalhuacan.com,None Found,+52 55 5853 5916,"C. 16 de Septiembre 8, Cabecera Municipal, 56330 Chimalhuac√°n, M√©x., M√©xico",Pizzer√≠a, Cierra a las 10:30p.m.,Chimalhuac√°n
La caminera chimalhuacan,facebook.com,None Found,+52 55 4403 1417,"Avenida del pe√±√≥n manzana 1 lote 6 barrio san Pablo parte baja Barrio san Pablo parte baja Chimalhuacan, 56334 Mexico, M√©x., M√©xico",Snack bar, 9p.m. ,Chimalhuac√°n
La caba√±a de chimalhuacan,,None Found,+52 55 3191 8837,"Cda. de Pirules Manzana 027, La Mina, 56337 Chimalhuac√°n, M√©x., M√©xico",Restaurante,,Chimalhuac√°n
Santi's Pizza,,None Found,+52 55 5113 9513,"Av Patos Mz4 Lt5, Carpinteros, 56334 Chimalhuac√°n, M√©x., M√©xico",Pizzer√≠a, Cierra a las 10:30p.m.,Chimalhuac√°n
"Tacos ""El Rey""",,None Found,,"Av. Arca de No√© casi esq. Bugambilias, Ciudad Alegre, 56335 Chimalhuac√°n, 56335 M√©xico, M√©x., M√©xico",Taquer√≠a, Cierra a la 1:30a.m.,Chimalhuac√°n
Melao,,None Found,+52 55 2277 3628,"Av. Nezahualc√≥yotl 94, Col, Sta Maria Nativitas, 56335 Chimalhuac√°n, M√©x., M√©xico",Restaurante,,Chimalhuac√°n
Restaurant Bethesda,restaurantbethesda.pweb.mx,None Found,+52 55 7264 8577,"C. Yacatli 594, Vidrieros, 56356 Chimalhuac√°n, M√©x., M√©xico",Restaurante, Cierra a las 9:30p.m.,Chimalhuac√°n
Ebenezer Pizza,,None Found,+52 55 5113 5357,"Juan escutia y Vicente guerrero, Av Arenal entre calles, Carpinteros, 56334 Chimalhuac√°n, M√©x., M√©xico",Pizzer√≠a, Cierra a las 10:30p.m.,Chimalhuac√°n
Dullibel Crepas,,None Found,,"C. 16 de Septiembre LT14, Cabecera Municipal, 56330 Chimalhuac√°n, M√©x., M√©xico",Creper√≠a, Cierra a las 10:30p.m.,Chimalhuac√°n
Regules Pizzas,pweb.mx,None Found,+52 55 5111 2653,"Av. del Pe√±on 17, Xochiaca, 56353 Chimalhuac√°n, M√©x., M√©xico",Pizzer√≠a, Cierra a las 11p.m.,Chimalhuac√°n
Pizzas TORO'S,,None Found,+52 55 8458 4639,"Castillo de Chapultepec LT10, Herreros, 56334 Chimalhuac√°n, M√©x., M√©xico",Pizzer√≠a, Cierra a las 10:30p.m.,Chimalhuac√°n
Garc√≠a's pizzas,,None Found,+52 55 4342 9466,"Ave. del Pe√±on, Los Olivos Supermanzana Esquina Manzana 1 Lote 3, Xochiaca, 56350 Chimalhuac√°n, M√©x., M√©xico",Restaurante,,Chimalhuac√°n
Antojitos Mexicanos Coty,,None Found,+52 55 5853 4437,"Cjon. la Paz Manzana 009 Lote 11, Cabecera Municipal, 56337 Chimalhuac√°n, M√©x., M√©xico",Restaurante mexicano,,Chimalhuac√°n
Cuemont Pizza,,None Found,,"Acalote, C. Lirio &, Villa Xochitenco, 56334 Chimalhuac√°n, M√©x., M√©xico",Pizzer√≠a, Cierra a las 10p.m.,Chimalhuac√°n
Italy's Pizza Chimalhuac√°n,,None Found,+52 55 5853 3556,"Av Organizaci√≥n Popular Manzana 026 Lote 18, Mineros, 56334 Chimalhuac√°n, M√©x., M√©xico",Restaurante, Cierra a las 10:30p.m.,Chimalhuac√°n
RESTAURANTE LA OAXAQUE√ëA,,None Found,+52 55 5501 3799,"KM 29, Carr. Federal M√©xico-Texcoco 38, San Jose, 56377 Chicoloapan de Ju√°rez, M√©x., M√©xico",Restaurante de desayunos, Abre a las 8a.m. del dom,Chimalhuac√°n
"Pozoleria y antojitos mexicanos""la casa de Yoya""",,None Found,,"Av Patos 12, Fundidores, 56334 Chimalhuac√°n, M√©x., M√©xico",Restaurante mexicano, Cierra a las 11:30p.m.,Chimalhuac√°n
Prime sushi,,None Found,+52 55 7397 6160,"Av. del Pe√±on 9242, Talladores, 56366 Chimalhuac√°n, M√©x., M√©xico",Restaurante chino,,Chimalhuac√°n
"Antojitos Mexicanos ""Robles""",,None Found,,"Av Organizaci√≥n Popular 5126, Talladores, 56366 Chimalhuac√°n, M√©x., M√©xico",Restaurante mexicano, Cierra a las 10:30p.m.,Chimalhuac√°n
M√©xico Beer & Tacos,,None Found,,"Av Patos Manzana 4 Lote 34, Herreros, 56334 Chimalhuac√°n, M√©x., M√©xico",Taquer√≠a, Cierra a las 12p.m. del dom,Chimalhuac√°n
Cervecer√≠a Momo Chimalhuac√°n,facebook.com,None Found,,"Av Patos Manzana 042, Fundidores, 56324 Chimalhuac√°n, M√©x., M√©xico",Cervecer√≠a al aire libre, Cierra a las 11p.m.,Chimalhuac√°n
Pizza Pizza,,None Found,+52 55 5852 7568,"Av. Acuitlapilco, Cipreses Esq, 56335 Chimalhuac√°n, M√©x., M√©xico",Pizzer√≠a, Cierra a las 10:30p.m.,Chimalhuac√°n
Los garcia restaurante,,None Found,,"56335, Apapasco, 56335 Chimalhuac√°n, M√©x., M√©xico",Restaurante, Cierra a las 10p.m.,Chimalhuac√°n
Vikingas pizza,,None Found,+52 56 2423 8989,"Calle Quetzalli 497, Talabarteros, 56356 Chimalhuac√°n, M√©x., M√©xico",Pizzer√≠a, Cierra a las 11p.m.,Chimalhuac√°n
Shady Pizza,,None Found,+52 55 3093 3906,"Avenida del Pe√±on Mza 3 Lte 1 No. 1, Acuitlapilco, 56335 Chimalhuac√°n, M√©x., M√©xico",Pizzer√≠a, Cierra a las 10p.m.,Chimalhuac√°n
Antonio's pizza Chimalhuac√°n,m.facebook.com,None Found,+52 55 5910 1106,"San Miguel Manzana 001, Canteros, 56357 Chimalhuac√°n, M√©x., M√©xico",Pizzer√≠a, Cierra a las 11p.m.,Chimalhuac√°n
Danny's Pizzas,,None Found,+52 55 2126 1531,"Av Organizaci√≥n Popular 475, Hojalateros, 56366 Chimalhuac√°n, M√©x., M√©xico",Pizzer√≠a, Cierra a las 11p.m.,Chimalhuac√°n
Asador Argentino,,None Found,+52 55 5852 7507,"Av. Nezahualc√≥yotl 152, Sta Maria Nativitas, 56335 Chimalhuac√°n, M√©x., M√©xico",Restaurante argentino,,Chimalhuac√°n
"Antojitos Mexicanos ""La Favorita""",,None Found,,"Molino 1, San Pedro, 56334 Chimalhuac√°n, M√©x., M√©xico",Restaurante, Abre a las 9a.m. del lun,Chimalhuac√°n
Los Migueros,c-h5.didi-food.com,None Found,+52 55 6150 0895,"C. Abundio Gomez Manzana 8 Lote 5, Carpinteros, 56367 Chimalhuac√°n, M√©x., M√©xico",Restaurante mexicano, Abre a las 9a.m. del dom,Chimalhuac√°n
Taqueria Chimalhuac√°n,,None Found,,"Av. Morelos 19, San Pablo, 56334 Chimalhuac√°n, M√©x., M√©xico",Restaurante mexicano,,Chimalhuac√°n
"Pozoleria y Antojitos ""LA CASA DE LOS ABUELOS""",,None Found,+52 56 2147 5157,"S. Andr√©s LT7, San Pedro, 56334 Ciudad de M√©xico, M√©x., M√©xico",Restaurante, Cierra a las 12a.m.,Chimalhuac√°n
Cocina Econ√≥mica Chimalhuacan,,None Found,,"C. 16 de Septiembre 1, Cabecera Municipal, 56330 Chimalhuac√°n, M√©x., M√©xico",Restaurante, Abre a la 1p.m. del lun,Chimalhuac√°n
Super tortas los patos,,None Found,+52 56 3350 1655,"Av Patos 314, San Pablo, 56334 Chimalhuac√°n, M√©x., M√©xico",Restaurante de comida r√°pida, Cierra a las 10:30p.m.,Chimalhuac√°n
EDUARDO¬¥S PIZZA,lospatos.publiwebs.com.mx,None Found,+52 55 2613 1063,"Av Patos Manzana 033, Ampliacion San Agust√≠n, 56343 Chimalhuac√°n, M√©x., M√©xico",Pizzer√≠a, Cierra a las 10:30p.m.,Chimalhuac√°n
"""Antojitos Mexicanos Tere""",,None Found,,"C. Sor Juana In√©s de la Cruz 24, Acuitlapilco, 56335 Chimalhuac√°n, M√©x., M√©xico",Taquer√≠a, Cierra a las 10p.m.,Chimalhuac√°n
