Names,Website,Introduction,Phone Number,Address,Type,Opens At,Municipio
Mr. Pampas,mrpampas.com,None Found,+52 938 111 2918,"Av Concordia 22, Petrolera, 24179 Cdad. del Carmen, Camp., México",Restaurante brasileño, Cierra a las 10p.m.,Ciudad del Carmen
OV Vaquero Restaurante & Taqueria,ovvaquero.com.mx,"Espacio casual con toques campestres y área infantil donde se comen tacos, carnes asadas y platos mexicanos.",+52 938 286 1155,"Av Periferica Nte 301, Francisco I. Madero, 24190 Cdad. del Carmen, Camp., México",Restaurante mexicano, Abre a la 1p.m.,Ciudad del Carmen
Cocteleria Cajun,,None Found,+52 938 382 1421,"Calle 28, Puntilla, 24139 Cdad. del Carmen, Camp., México",Marisquería, Abre a las 10a.m.,Ciudad del Carmen
Mosto Beer House,mostobeerhouse.com,"Desenfadado lugar con decoración ecléctica y grandes ventanales en donde se ofrecen pizzas, tapas y cervezas.",+52 938 111 1992,"Plaza Tamarindo, Av Isla de Tris No. 56, Francisco I. Madero, 24190 Cdad. del Carmen, Camp., México",Restaurante, Abre a las 2p.m.,Ciudad del Carmen
Marea Restaurante,facebook.com,None Found,+52 938 386 5881,"Blvd. Playa Nte. S/N-Local 4, Justo Sierra, 24114 Cdad. del Carmen, Camp., México",Restaurante, Abre a la 1p.m.,Ciudad del Carmen
Restaurante El Ancla,,None Found,+52 938 157 8755,"Av. 10 de Julio #508, Francisco I. Madero, 24190 Cdad. del Carmen, Camp., México",Marisquería,,Ciudad del Carmen
El Pavo de Mariscos,,Restaurante amplio y popular con ambiente familiar y servicio al bar que ofrece cocina mexicana del mar.,+52 938 111 8398,"P.º del Mar 106, Justo Sierra, 24114 Cdad. del Carmen, Camp., México",Marisquería, Abre a las 11a.m.,Ciudad del Carmen
El Ostioncito Escondido,,None Found,+52 938 147 0113,"Av Juárez 7, Benito Juárez, 24180 Cdad. del Carmen, Camp., México",Marisquería, Abre a las 8a.m.,Ciudad del Carmen
Vips Cd. Del Carmen,vips.com.mx,None Found,+52 82861227,"Av Periferica Nte 52, Asa Poniente, 24197 Cdad. del Carmen, Camp., México",Restaurante mexicano, Abre a las 7a.m.,Ciudad del Carmen
La Chance - Restaurante en Ciudad del Carmen,,None Found,+52 998 937 5705,"C. Los Pinos 73, Playa Nte., 24115 Cdad. del Carmen, Camp., México",Restaurante mexicano, Abre a las 8a.m. del lun,Ciudad del Carmen
Il Giglio,,None Found,+52 938 382 4708,"C. 24 33, Centro, 24100 Cdad. del Carmen, Camp., México",Restaurante italiano, Abre a la 1p.m.,Ciudad del Carmen
El Pavo de Mariscos,,"Comida del mar con cerveza en un espacio cálido con atmósfera casual, ventanas grandes y manteles colorido.",+52 938 382 6181,"C. 36-A 9, Guadalupe, 24130 Cdad. del Carmen, Camp., México",Marisquería, Abre a las 10a.m.,Ciudad del Carmen
Antojitos Mexicanos Restaurante,facebook.com,None Found,+52 938 150 3034,"Ongay García 233, Isla del Carmen 2000, 24100 Cdad. del Carmen, Camp., México",Restaurante mexicano, Abre a las 7a.m.,Ciudad del Carmen
Mamitas Restaurant buffet and drinks,,None Found,+52 938 122 2515,"Av. Malecon costero Nelson Barrera, entre raya y corcovado, 24114 Cdad. del Carmen, Camp., México",Buffet libre,,Ciudad del Carmen
El Rodeo,facebook.com,None Found,+52 938 382 5270,"Av Eugenio Echeverría Castellot, Playa Nte., 24115 Cdad. del Carmen, Camp., México",Restaurante especializado en filetes, Abre a la 1p.m.,Ciudad del Carmen
La Cazona del Mar,,None Found,+52 938 160 9135,"20 por 27 y 27-A, Centro, 24100 Cdad. del Carmen, Camp., México",Restaurante, Abre a la 1p.m.,Ciudad del Carmen
Restaurante Familiar El Botanero de Poza Rica,,None Found,+52 938 112 0497,"16 de Septiembre 16, Francisco I. Madero, 24190 Cdad. del Carmen, Camp., México",Restaurante familiar, Abre a las 8:30a.m.,Ciudad del Carmen
Cayo Arcas Restaurante,facebook.com,None Found,+52 938 286 0917,"No. 98, Avenida 56, Calle 53-A, Caleta, 24120 Cdad. del Carmen, Camp., México",Marisquería, Abre a las 11:30a.m.,Ciudad del Carmen
Lapa Lapa,lapalaparest.com,None Found,+52 938 382 2100,"Av Concordia S/N, Petrolera, 24179 Cdad. del Carmen, Camp., México",Bar restaurante,,Ciudad del Carmen
Bendita Carmelita,benditacarmelita.mx,None Found,+52 938 688 7070,"Calle 20 102, entre Calle 27-A, Centro, 24100 Cdad. del Carmen, Camp., México",Restaurante,,Ciudad del Carmen
La Veracruzana,,None Found,+52 938 116 8445,"Centro, 24100 Cdad. del Carmen, Camp., México",Restaurante mexicano, Abre a las 9a.m. del lun,Ciudad del Carmen
Restaurante Siboney Ciudad del Carmen,,None Found,+52 938 136 2948,"C. 20 Local 17, Centro, 24100 Cdad. del Carmen, Camp., México",Restaurante,,Ciudad del Carmen
Asador Castellano,asadorcastellano.com.mx,None Found,+52 938 112 4087,"Av Eugenio Echeverría Castellot 151-A, Revolución, 24120 Cdad. del Carmen, Camp., México",Parrilla, Abre a la 1p.m.,Ciudad del Carmen
Marisquería El Sabor Veracruzano,,None Found,+52 938 111 0308,"Calle 56 107, Benito Juárez, 24180 Cdad. del Carmen, Camp., México",Marisquería, Abre a las 8a.m.,Ciudad del Carmen
RODIZIO CD DEL CARMEN,rodizio.com.mx,None Found,+52 938 120 6397,"Av Periferica Nte 52, Asa Poniente, 24197 Cdad. del Carmen, Camp., México",Restaurante brasileño, Abre a la 1p.m.,Ciudad del Carmen
Restaurante Bariloche,barilocherestauran3.wixsite.com,None Found,+52 938 382 0332,"Av Juárez 230, Justo Sierra, 24114 Cdad. del Carmen, Camp., México",Restaurante argentino, Abre a la 1p.m.,Ciudad del Carmen
Antojitos Doña Eva La Panuquense,,None Found,,"Av Periferica Nte 10, Francisco I. Madero, 24190 Cdad. del Carmen, Camp., México",Restaurante, Abre a las 7a.m.,Ciudad del Carmen
Taqueria El Capricho,,None Found,+52 938 106 0943,"Emiliano Zapata, Francisco I. Madero, 24190 Cdad. del Carmen, Camp., México",Taquería, Abre a las 8a.m.,Ciudad del Carmen
Italianni's Cd. del Carmen,italiannis.com.mx,None Found,+52 938 688 5067,"Centro Comercial Zentralia, Av Corregidora 26-Local 53b, Aeropuerto, 24199 Cdad. del Carmen, Camp., México",Restaurante italiano, Abre a las 9a.m.,Ciudad del Carmen
El sazón de doña veva,,None Found,+52 938 389 3728,"C. 21 número 29, Benito Juárez, 24180 Cdad. del Carmen, Camp., México",Restaurante mexicano, Abre a las 9a.m.,Ciudad del Carmen
"Paradise Island Casino (Cd. del Carmen, Campeche)",paradiseisland.com.mx,None Found,+52 938 382 5747,"C. 60 68, Petrolera, 24179 Cdad. del Carmen, Camp., México",Casino,,Ciudad del Carmen
Lo Mejor de P. R.,,None Found,+52 938 116 8383,"Lirio 326, Puente de la Unidad, 24118 Cdad. del Carmen, Camp., México",Restaurante, Abre a las 5a.m. del lun,Ciudad del Carmen
Don tapatío cd del Carmen,,None Found,+52 938 105 4517,"Escultores, Av. Puerto de Campeche 17, 24157 Cdad. del Carmen, Camp., México",Restaurante, Abre a las 9a.m.,Ciudad del Carmen
Toks Zentralia Ciudad del Carmen,toks.com.mx,None Found,+52 938 688 5143,"Centro comercial Zentralia, Av Corregidora 12, Aeropuerto, 24119 Cdad. del Carmen, Camp., México",Restaurante mexicano, Abre a las 7a.m.,Ciudad del Carmen
TOKS CIUDAD DEL CARMEN,,None Found,+52 938 286 0405,"Av. Concordia s/n, Col. Asa poniente, 24121 Cdad. del Carmen, Camp., México",Restaurante, Abre a las 7a.m.,Ciudad del Carmen
Las Picadas,,None Found,+52 938 382 0130,"C. las Americas 2, Francisco I. Madero, 24190 Cdad. del Carmen, Camp., México",Restaurante,,Ciudad del Carmen
Casa Briceño,casabriceno.com,None Found,+52 938 688 5535,"Carmen - Puerto Real km 5.5, Bivalvo, 24158 Cdad. del Carmen, Camp., México",Restaurante de alta cocina, Abre a las 8a.m.,Ciudad del Carmen
Chiltepinos Wings,linktr.ee,None Found,+52 938 111 1985,"Carmen Center Plaza, Av Isla de Tris 1A, Aeropuerto, 24119 Cdad. del Carmen, Camp., México",Restaurante de alas de pollo, Abre a la 1p.m.,Ciudad del Carmen
Picañas Grill,grupopicanhas.com,None Found,+52 938 286 1687,"Carretera, Carmen - Puerto Real N°1-Km. 8, Colonia Puesta del Sol, 24157 Cdad. del Carmen, Camp., México",Restaurante brasileño, Abre a las 12p.m.,Ciudad del Carmen
Mordis,facebook.com,None Found,+52 938 197 3954,"C. 35-C 28, Malibrán, 24197 Cdad. del Carmen, Camp., México",Restaurante mexicano, Abre a las 6p.m.,Ciudad del Carmen
Restaurante Pablos Paseo del Mar,,None Found,+52 938 171 0345,"P.º del Mar, San Carlos, 24116 Cdad. del Carmen, Camp., México",Marisquería, Abre a las 11a.m.,Ciudad del Carmen
Wing's Army Ciudad del Carmen,wingsarmy.mx,None Found,+52 938 381 4888,"Av. Aviación 1801, int. 01 Mega Soriana CIudad del Carmen, Local 01, Petrolera, 24179 Cdad. del Carmen, Camp., México",Restaurante de alas de pollo, Abre a las 12p.m.,Ciudad del Carmen
La Red Punta Carmen,laredpuntacarmen.com,None Found,+52 938 382 0544,"C. 28 4, Puntilla, 24139 Cdad. del Carmen, Camp., México",Marisquería, Abre a las 11:30a.m.,Ciudad del Carmen
"Señor Pez, Antojitos Del Mar",facebook.com,None Found,,"Av Concordia, Camaroneros 2, Petrolera, 24180 Cdad. del Carmen, Camp., México",Marisquería, Abre a las 11a.m.,Ciudad del Carmen
Mariscos La Sierra,facebook.com,None Found,,"Av. 10 de Julio 7, Francisco I. Madero, 24190 Cdad. del Carmen, Camp., México",Restaurante, Abre a las 8a.m.,Ciudad del Carmen
Carnitas el kaporal Cd del Carmen,,None Found,+52 938 153 1180,"24116, San Carlos, 24116 Cdad. del Carmen, Camp., México",Restaurante, Abre a las 8a.m.,Ciudad del Carmen
Simplementedeli,simplementedeli.com,None Found,+52 938 384 1270,"Av Concordia 35, Camaroneros 2, Camaroneros, 24169 Cdad. del Carmen, Camp., México",Cafetería, Abre a las 9a.m.,Ciudad del Carmen
Pescaderia El Retorno 4,,None Found,+52 938 129 4697,"P.º del Mar 180, Justo Sierra, 24114 Cdad. del Carmen, Camp., México",Marisquería, Abre a las 12p.m.,Ciudad del Carmen
Restaurante Liverpool,liverpool.com.mx,None Found,+52 938 381 0100,"Av Corregidora 130, Aeropuerto, 24199 Cdad. del Carmen, Camp., México",Buffet libre, Abre a las 8a.m.,Ciudad del Carmen
La Poblanita,,None Found,,"Av Periferica Nte 23, Benito Juárez, 24180 Cdad. del Carmen, Camp., México",Restaurante mexicano,,Ciudad del Carmen
Taquería la Cerca,,None Found,+52 938 111 1029,"Av. Aviacion 1528, Francisco I. Madero, 24199 Cdad. del Carmen, Camp., México",Taquería, Abre a las 6p.m.,Ciudad del Carmen
"MOJARRA Frita ""Dña Finita""",,None Found,+52 938 135 3434,"Av. 10 de Julio 58, Francisco I. Madero, 24190 Cdad. del Carmen, Camp., México",Marisquería,,Ciudad del Carmen
El Puestezzito,,None Found,+52 938 177 8324,"Avenida de las Américas, Francisco I. Madero, 24190 Cdad. del Carmen, Camp., México",Restaurante, Abre a las 6p.m.,Ciudad del Carmen
Cocina Economica El Velero,,None Found,+52 938 136 2589,"Av. Aviacion 22, Centro, 24100 Cdad. del Carmen, Camp., México",Restaurante, Abre a las 7a.m. del lun,Ciudad del Carmen
Cocina Economica El Velero,,None Found,+52 938 136 2589,"Av. Aviacion 22, Centro, 24100 Cdad. del Carmen, Camp., México",Restaurante, Abre a las 7a.m. del lun,Ciudad del Carmen
Azul Hotel & Restaurante,azulcme.com.mx,None Found,+52 938 112 1126,"P.º del Mar 110-A, Justo Sierra, 24114 Cdad. del Carmen, Camp., México",,,Ciudad del Carmen
Taquería El Ranchero,rappi.app.link,None Found,+52 938 106 0653,"Calle 31 No. 1214 col. Aeropuerto Avenida Aviación, Avenidas, Av Corregidora, 24170 Cdad. del Carmen, Camp., México",Taquería, Abre a las 6:30p.m.,Ciudad del Carmen
Azul Playa,azulcme.com.mx,None Found,+52 938 195 1344,"Playa Nte., 24114 Cdad. del Carmen, Camp., México",Restaurante, 2:30a.m. ,Ciudad del Carmen
La Trinidad Pan Artesanal,,None Found,+52 938 112 2864,"Av Concordia 42, Justo Sierra, 24166 Cdad. del Carmen, Camp., México",Restaurante, Abre a las 8a.m.,Ciudad del Carmen
Broken Heart Waffles Cd del Carmen,facebook.com,None Found,+52 938 105 4687,"Miguel Hidalgo y Costilla 25, Francisco I. Madero, 24190 Cdad. del Carmen, Camp., México",Restaurante, Abre a las 6p.m. del lun,Ciudad del Carmen
La Casa Azul Panucheria,,None Found,+52 938 183 9753,"C. las Americas 108, Francisco I. Madero, 24190 Cdad. del Carmen, Camp., México",Marisquería, Abre a las 7a.m.,Ciudad del Carmen
El Ojo de Vidrio,,None Found,+52 938 134 5948,"Galeana, Pedro Sainz de Baranda s/n, 94195 Cdad. del Carmen, Camp., México",Restaurante de comida rápida, Abre a las 8a.m.,Ciudad del Carmen
Church's Texas Chicken Carmen,gruges.com.mx,None Found,+52 938 688 2971,"24180 Av. Petrolera S/N, Petrolera, 24180 Cdad. del Carmen, Camp., México",Restaurante especializado en pollo, Abre a las 10a.m.,Ciudad del Carmen
Bulebar Beach Bar,,None Found,+52 938 184 7120,"Malecon Costero, San Carlos, 24116 Cdad. del Carmen, Camp., México",Restaurante, 3a.m. ,Ciudad del Carmen
Hamburguesas del Malvado Doctor,facebook.com,None Found,+52 938 150 9254,"Calle las Americas & Juventino Rosas, Francisco I. Madero, 24190 Cdad. del Carmen, Camp., México",Hamburguesería, Abre a las 6p.m. del lun,Ciudad del Carmen
"Antojitos ""Glez"" Bocoles",,None Found,+52 938 111 0747,"24180, Av Periferica Nte 15, Benito Juárez, Cdad. del Carmen, Camp., México",Restaurante, Abre a las 8:30a.m. del lun,Ciudad del Carmen
Antojitos La Ranita,,None Found,+52 938 119 0878,"24110, Calle 66 14, San Agustín de Palmar, Cdad. del Carmen, Camp., México",Restaurante, Abre a las 7a.m.,Ciudad del Carmen
Restaurante Alma&Viento,casavientohotel.com,None Found,+52 938 152 6103,"P.º del Mar 274, San Carlos, 24116 Cdad. del Carmen, Camp., México",Restaurante mexicano, Abre a las 7:30a.m.,Ciudad del Carmen
Casa Ongay,casaongay.com,None Found,+52 938 195 8179,"Ongay García 1, Isla del Carmen 2000, 24154 Cdad. del Carmen, Camp., México",Restaurante, Abre a las 8a.m.,Ciudad del Carmen
El Antojo,facebook.com,None Found,+52 938 170 1724,"C. 25 68, Benito Juárez, 24180 Cdad. del Carmen, Camp., México",Comida a domicilio, Abre a las 9a.m. del lun,Ciudad del Carmen
Carnitas Vikingos,,None Found,,"Av. 10 de Julio 7A, Benito Juárez, 24180 Cdad. del Carmen, Camp., México",Restaurante mexicano, Abre a las 9a.m.,Ciudad del Carmen
Tacos Ramón,,None Found,+52 938 152 2214,"Av. Aviacion 1209, Fovissste, 24199 Cdad. del Carmen, Camp., México",Taquería, Abre a las 3p.m.,Ciudad del Carmen
Mr Carboncito...(La Pálida),,None Found,+52 938 134 9327,"C. 60, Petrolera, 24179 Cdad. del Carmen, Camp., México",Hamburguesería, Abre a las 7a.m. del lun,Ciudad del Carmen
La Cueva de Chucho,,None Found,,"Plaza Zentralia, Av. Correguidora s/n, Local 42, Aeropuerto, 24119 Cdad. del Carmen, Camp., México",Restaurante mexicano, Abre a las 11a.m.,Ciudad del Carmen
Rush Barra De Café,,None Found,+52 938 112 0173,"Av Periferica Nte 168, Morelos, 24115 Cdad. del Carmen, Camp., México",Cafetería, Abre a las 5p.m.,Ciudad del Carmen
Juanito Abdul suc. Concordia,,None Found,+52 938 596 0270,"Avenida concordia entres Juárez y calle 62, Justo Sierra, 24266 Cdad. del Carmen, Camp., México",Restaurante de comida rápida, Abre a las 6p.m.,Ciudad del Carmen
Cafetería Terraza 21,,None Found,+52 938 382 0029,"Carmen Puerto Real K9, Mundo Maya, 24158 Cdad. del Carmen, Camp., México",Cafetería, Abre a las 8a.m.,Ciudad del Carmen
Espadas Grill,,None Found,+52 938 164 1415,"Carretera Puerto Real Lote 73 Col. Isla De Tris 24155 Ciudad del Carmen Camp MX, entre Av. Isla De Tris y Calle El Tamborcito, México",Restaurante brasileño, Abre a la 1p.m.,Ciudad del Carmen
Ajolote Healthy Bar,facebook.com,None Found,+52 938 151 0434,"Av Concordia 1, Fovissste, 24119 Cdad. del Carmen, Camp., México",Restaurante vegetariano, Abre a las 9a.m.,Ciudad del Carmen
El Faro de la Atalaya,,None Found,+52 938 381 1500,"Av. Aviacion 274-4to Piso, Benito Juárez, 24180 Cdad. del Carmen, Camp., México",Bar, 3a.m. ,Ciudad del Carmen
Tortillería y Comidas Real Reloj Sucursal El Reloj,,None Found,+52 938 111 0221,"Av Periferica Nte 4b, Asa Poniente, 24180 Cdad. del Carmen, Camp., México",Restaurante, Abre a las 5a.m.,Ciudad del Carmen
Antojitos Mexicanos,,None Found,+52 938 381 8709,"Carr. Federal s/n, Luis Donaldo Colosio Murrieta, 24150 Cdad. del Carmen, Camp., México",Restaurante mexicano, Abre a las 7a.m.,Ciudad del Carmen
Casa Gloria Restaurante,,None Found,+52 938 388 5128,"Plaza Las Palmas, Locales 16, 17 y 18B, Avenida, Carmen - Puerto Real, Belisario Domínguez, 24150 Cdad. del Carmen, Camp., México",Restaurante mexicano, Abre a las 8a.m.,Ciudad del Carmen
Wingstop Ciudad del Carmen,wingstop.com.mx,Cadena informal de servicio en caja que ofrece una variedad de alitas de pollo y acompañamientos.,+52 938 112 6914,"Av Corregidora 25, Aeropuerto, 24419 Cdad. del Carmen, Camp., México",Restaurante de alas de pollo, Abre a las 12:30p.m.,Ciudad del Carmen
Papas locas,,None Found,+52 938 115 2124,"Av. Aviacion 1213, Aeropuerto, 24119 Cdad. del Carmen, Camp., México",Restaurante, Abre a las 6:30p.m.,Ciudad del Carmen
Restaurante Bar Steak & Beer,,None Found,+52 938 131 0050,"Aeropuerto Internacional de Ciudad del Carmen, Av. Aviacion s/n, Aeropuerto, Cdad. del Carmen, México",Bar restaurante, Abre a las 6a.m.,Ciudad del Carmen
Cocina Delicious,,None Found,,"Aeropuerto, 24119 Cdad. del Carmen, Camp., México",Restaurante,,Ciudad del Carmen
"Coktelería y antojitos ""DON CHIVA""",,None Found,,"Av Isla de Tris 71, Francisco I. Madero, 24190 Cdad. del Carmen, Camp., México",Marisquería, Abre a las 10a.m.,Ciudad del Carmen
Pollo Feliz,pollofeliz.com,None Found,,"Av Isla de Tris 14, Francisco I. Madero, 24190 Cdad. del Carmen, Camp., México",Restaurante especializado en pollo, Abre a las 10a.m.,Ciudad del Carmen
El after árabe,,None Found,+52 938 385 1845,"C. 60, Petrolera, 24179 Cdad. del Carmen, Camp., México",Restaurante, 3a.m. ,Ciudad del Carmen
Lonchería La Acapulqueña,,None Found,+52 938 382 4736,"Av. Aviacion 1213, Aeropuerto, 24119 Cdad. del Carmen, Camp., México",Restaurante de brunch, Abre a las 9a.m. del lun,Ciudad del Carmen
El Reyna Mariscos Ciudad del Carmen,,None Found,,"Malibrán, 24197 Cdad. del Carmen, Camp., México",Marisquería, Abre a las 12p.m.,Ciudad del Carmen
Taqueria La Moraleja,,None Found,+52 938 255 3650,"Av Concordia 10, Fovissste, 24199 Cdad. del Carmen, Camp., México",Taquería,,Ciudad del Carmen
POLLO RANCHERO,,None Found,+52 938 156 7652,"Av. Aviacion 1214, Aeropuerto, 24199 Cdad. del Carmen, Camp., México",Restaurante especializado en pollo, Abre a las 10a.m.,Ciudad del Carmen
Muun Club beach,softrestaurant.com,None Found,+52 938 110 6431,"Carmen - Puerto Real, 24150 Cdad. del Carmen, Camp., México",Restaurante, Abre a las 11a.m.,Ciudad del Carmen
Pasta Di Carmen,facebook.com,None Found,+52 938 116 8471,"Av Concordia 8, Petrolera, 24179 Cdad. del Carmen, Camp., México",Restaurante, Abre a las 8p.m. del mié,Ciudad del Carmen
Maradonios CME,facebook.com,None Found,+52 938 104 7653,"Av Corregidora, Santa Rosalía, 24119 Cdad. del Carmen, Camp., México",Restaurante argentino, Abre a las 6p.m.,Ciudad del Carmen
Tacos Roy,,None Found,+52 938 147 3280,"Av. Aviacion, Fovissste, 24199 Cdad. del Carmen, Camp., México",Taquería, Abre a las 8a.m. del lun,Ciudad del Carmen
Domino's Cd. Del Carmen III,dominosmx.app.link,Cadena de comida a domicilio o para llevar con gran variedad de pizzas y otros platos y acompañamientos.,+52 938 286 2020,"C. 24 53, Centro, 24100 Cdad. del Carmen, Camp., México",Pizzería, Abre a las 10a.m.,Ciudad del Carmen
Fiesta Inn Ciudad del Carmen,fiestainn.com,None Found,+52 938 381 0200,"Av. Periférico Norte s/n, Av Concordia esq, Petrolera, 24170 Cdad. del Carmen, México",,,Ciudad del Carmen
Fiesta Inn Ciudad del Carmen,fiestainn.com,None Found,+52 938 381 0200,"Av. Periférico Norte s/n, Av Concordia esq, Petrolera, 24170 Cdad. del Carmen, México",,,Ciudad del Carmen
La güera Fovissste,,None Found,,"Del Petirrojo, Fovissste, 24199 Cdad. del Carmen, Camp., México",Restaurante de desayunos,,Ciudad del Carmen
Antojitos doña Prude,,None Found,+52 938 107 3856,"Cerca de, Av Contadores, Fraccionamiento Mediterraneo, Solidaridad Urbana, 24156 Cdad. del Carmen, Camp., México",Restaurante mexicano, Abre a las 6a.m. del lun,Ciudad del Carmen
Caruso Pizzas,,None Found,+52 938 382 2937,"Pinosuarez, Francisco Villa entre primero mayo, Francisco I. Madero, 24190 Cdad. del Carmen, Camp., México",Pizzería, Abre a las 6:30p.m.,Ciudad del Carmen
Carl's Jr.-Zentralia,carlsjr.com.mx,"Cadena de comida rápida, famosa por su variedad de hamburguesas apiladas y promociones, además de batidos.",+52 938 688 5599,"Av Corregidora 26-LOCAL 38, Aeropuerto, 24199 Cdad. del Carmen, Camp., México",Restaurante de comida rápida, Abre a las 11a.m.,Ciudad del Carmen
Macareno Zentralia,,None Found,,"Av Corregidora 26, Aeropuerto, 24199 Cdad. del Carmen, Camp., México",Bar restaurante,,Ciudad del Carmen
Avbistrorestaurante,,None Found,+52 938 137 0414,"Av. Aviacion S/N, Aeropuerto, 24119 Cdad. del Carmen, Camp., México",Restaurante asiático, Abre a las 10a.m.,Ciudad del Carmen
ARABISC COMIDA EGIPCIA,pusiness.site,None Found,+52 938 171 8493,"C. las Americas, Francisco I. Madero, 24190 Cdad. del Carmen, Camp., México",Restaurante egipcio, Abre a las 12p.m.,Ciudad del Carmen
KFC,kfc.com.mx,None Found,+52 55 1515 4747,"Av. Aviacion S/N, Benito Juárez, 24180 Cdad. del Carmen, Camp., México",Restaurante de comida rápida,,Ciudad del Carmen
Mi Angelito Favorito,,None Found,+52 938 177 3568,"Miguel Hidalgo y Costilla 35, Francisco I. Madero, 24190 Cdad. del Carmen, Camp., México",Restaurante, Abre a las 6p.m.,Ciudad del Carmen
Desayunos y Comida Casera “Junior”,,None Found,+52 938 135 6405,"Calle Guadalupe Victoria 16, Insurgentes, 24197 Cdad. del Carmen, Camp., México",Restaurante, Abre a las 7a.m. del lun,Ciudad del Carmen
Jugueria Melocotón,,None Found,+52 938 102 5876,"Perforadora México, Av. Aviacion frente a, Francisco I. Madero, 24190 Cdad. del Carmen, Camp., México",Tienda de zumos, Abre a las 6:30a.m. del lun,Ciudad del Carmen
Little Caesars Pizza,locations.copizza.mx,"Cadena de comida para llevar que ofrece alitas de pollo, palitos de pan y pizza hecha con masa casera.",+52 938 111 1920,"Calle Guadalupe Victoria Av Periférica Norte S/N, 24197 Cdad. del Carmen, Camp., México",Pizzería, Abre a las 10a.m.,Ciudad del Carmen
Long Hang,,None Found,,"Aeropuerto, 24119 Cdad. del Carmen, Camp., México",Restaurante, Abre a las 10a.m.,Ciudad del Carmen
"Hamburgueseria ""Mapitos""",,None Found,+52 938 195 9278,"Av. Aviacion 1213, entre calle España y Avenida Corregidora, Aeropuerto, 24119 Cdad. del Carmen, Camp., México",Hamburguesería, Abre a las 7p.m.,Ciudad del Carmen
Pizza Hut,pizzahut.com.mx,"Cadena de comida para llevar y a domicilio, conocida por sus pizzas, alitas, pasta, postres y guarniciones.",+52 55 1515 3737,"Calle 31, Av Periferica Nte S/N, Benito Juárez, 24180 Cdad. del Carmen, Camp., México",Pizzería, Abre a las 11a.m.,Ciudad del Carmen
Restaurant Chiper,,None Found,,"Avenida Paseo del Mar # 148 entre las calles Mero y Curvina Colonia Justo Sierra, Segunda Sección, 24114 Cdad. del Carmen, Camp., México",Marisquería, Abre a las 9a.m.,Ciudad del Carmen
"REstaurant ""Eloi""",,None Found,,"Av. 10 de Julio, Francisco I. Madero, 24190 Cdad. del Carmen, Camp., México",Restaurante,,Ciudad del Carmen
Kazoku Sushi Roll,,None Found,+52 938 139 3894,"Calle Guadalupe Victoria 32, Insurgentes, 24197 Cdad. del Carmen, Camp., México",Comida a domicilio, Abre a las 2p.m.,Ciudad del Carmen
Tortas Chema ADO,,None Found,+52 938 388 4903,"Av. 10 de Julio 18, Francisco I. Madero, 24190 Cdad. del Carmen, Camp., México",Restaurante de comida rápida, Abre a las 8a.m. del lun,Ciudad del Carmen
