Names,Website,Introduction,Phone Number,Address,Type,Opens At,Municipio
El Lindero Madero Centro,,None Found,+52 833 575 4464,"CENTRO DE EVENTOS SE?ORIAL, Av. Álvaro Obregón SN-S, Primero de Mayo, 89450 Cd Madero, Tamps., México",Restaurante, Abre a las 7a.m.,Ciudad Madero
El Sauce Restaurante,fb.com,None Found,+52 833 186 7787,"Av. Tamaulipas 702, Héroe de Nacozari, 89520 Cd Madero, Tamps., México",Restaurante, Abre a las 6:30a.m.,Ciudad Madero
El Lindero 2,facebook.com,"Restaurante relajado en donde se sirven platillos abundantes de carnes y mariscos, con bar y un área de juegos para niños.",+52 833 215 5902,"Nayarit 400, Unidad Nacional, 89410 Cd Madero, Tamps., México",Restaurante mexicano, Abre a las 7a.m.,Ciudad Madero
Pipolos Suc.Madero,pipolos.com,"Comida mexicana y opciones internacionales a la carta, en paquetes o en bufé en un comedor básico y familiar.",+52 833 454 0000,"Av. Álvaro Obregón, Unidad Nacional, 89410 Cd Madero, Tamps., México",Restaurante mexicano, Abre a las 8a.m.,Ciudad Madero
El Negro De Ozuluama Calle 10 Madero,,None Found,+52 833 386 2652,"C. 10 308 Sur, Jardín 20 de Noviembre, 89440 Cd Madero, Tamps., México",Restaurante, Abre a las 8a.m.,Ciudad Madero
Los Faroles Madero,,None Found,+52 833 511 8082,"C. Sor Juana Inés de La Cruz 812, Lázaro Cárdenas, 89430 Cd Madero, Tamps., México",Restaurante, Abre a las 4:30p.m.,Ciudad Madero
Restaurante Catalino's,facebook.com,None Found,+52 833 215 5225,"Ramos Arizpe 1110, Vicente Guerrero, 89580 Cd Madero, Tamps., México",Marisquería, Abre a las 12p.m.,Ciudad Madero
"Restaurante de Mariscos ""El Flaco Madero""",,"Restaurante cómodo, luminoso y tranquilo con platos de mariscos de estilo familiar, además de cervezas y cocteles.",+52 833 459 9272,"C. Sor Juana Inés de La Cruz 105, Ricardo Flores Magón, 89460 Cd Madero, Tamps., México",Marisquería, Abre a las 12p.m.,Ciudad Madero
El Samborcito de Margot,,None Found,+52 833 359 6721,"Av Jalisco 146, Las Americas, 89420 Cd Madero, Tamps., México",Restaurante mexicano, Abre a las 8a.m.,Ciudad Madero
Antojitos mexicanos Sabor a mí,,None Found,+52 833 256 8266,"C. Revolución 401, Primero de Mayo, 89450 Cd Madero, Tamps., México",Restaurante mexicano, Abre a las 6p.m.,Ciudad Madero
Restaurante Vallejo Suc. Madero,,None Found,+52 833 259 9937,"Priv. 1º de Mayo 1807, Jardín 20 de Noviembre, 89440 Cd Madero, Tamps., México",Marisquería, Abre a las 11:30a.m.,Ciudad Madero
La Guarida del Puma,,None Found,+52 833 218 6014,"Pedro José Méndez 1102, Primero de Mayo, 89450 Cd Madero, Tamps., México",Restaurante mexicano, Abre a las 6p.m.,Ciudad Madero
El Maderense,elmaderense.com,None Found,+52 833 618 5639,"Durango 311, Zona Centro, 89400 Cd Madero, Tamps., México",Marisquería, Abre a las 12p.m.,Ciudad Madero
"""Las Sabrosas"" Restaurante",,None Found,+52 833 302 4627,"con, Boulevard Adolfo López Mateos, Prol. Primero de Mayo esq, Jardín 20 de Noviembre, 89440 Cd Madero, Tamps., México",Restaurante, Abre a las 8a.m.,Ciudad Madero
Restaurant-Bar Demar,,None Found,+52 833 216 1470,"C. Colombia 1404, Lázaro Cárdenas, 89430 Cd Madero, Tamps., México",Bar restaurante,,Ciudad Madero
Restaurante La Hacienda,,None Found,+52 833 399 9188,"Colima 216 sur esq, Nayarit, Unidad Nacional, 89410 Cd Madero, Tamps., México",Restaurante, Abre a las 12p.m.,Ciudad Madero
Stars & Cream Madero,starscream.mx,None Found,+52 833 215 5045,"Av. Álvaro Obregón 115 Sur, Zona Centro, 89400 Cd Madero, Tamps., México",Restaurante, Abre a las 7a.m.,Ciudad Madero
Los Antojitos de Frida,,None Found,+52 833 252 0280,"Tlaxcala 117, Unidad Nacional, 89417 Cd Madero, Tamps., México",Restaurante,,Ciudad Madero
Restaurante Marítimo,,None Found,+52 833 575 4406,"Republica de cuba 504 entre haiti y, Guayaquil, Ricardo Flores Magón, 89460 Cd Madero, Tamps., México",Restaurante, Abre a las 12:30p.m.,Ciudad Madero
La Casita,,None Found,,"89580, Honduras 310, Vicente Guerrero, 89580 Cd Madero, Tamps., México",Restaurante, Abre a las 8:30a.m. del lun,Ciudad Madero
Restaurante Juana Cata,,None Found,+52 888 739 0113,"Hotel Maeva Miramar, Blvd. Costero S/N, Playa Miramar, 89540 Cd Madero, Tamps., México",Restaurante mexicano,,Ciudad Madero
El Chachalaco,,None Found,+52 833 256 6942,"Av. Tamaulipas 3006, Miramar, 89540 Cd Madero, Tamps., México",Marisquería, Abre a las 11a.m.,Ciudad Madero
Antojitos Mexicanos Sabor A Mi Ampliación,facebook.com,None Found,+52 833 154 8922,"89510, 20 de Noviembre 100, Ampliacion Unidad Nacional, 89510 Cd Madero, Tamps., México",Restaurante, Abre a las 5:30p.m.,Ciudad Madero
La Reina de las Huastecas,,None Found,+52 833 175 1014,"13 de Enero 206, Zona Centro, 89400 Cd Madero, Tamps., México",Restaurante, Abre a las 8a.m.,Ciudad Madero
MAIZ - SABOR A CASA,,None Found,+52 833 532 6036,"5 de Mayo 200, Felipe Carrillo Puerto, 89450 Cd Madero, Tamps., México",Restaurante, Abre a las 9a.m. del lun,Ciudad Madero
Parrilla El Bisteck,,None Found,+52 833 568 1310,"4a. Avenida 605, Jardín 20 de Noviembre, 89440 Cd Madero, Tamps., México",Parrilla, Abre a las 5p.m.,Ciudad Madero
PARRILLA NUEVE 9,,None Found,+52 833 403 2881,"89440, C. 9 501, Jardín 20 de Noviembre, Cd Madero, Tamps., México",Parrilla, Abre a las 6a.m.,Ciudad Madero
La Casa del Buffet,,None Found,+52 833 133 1727,"Álvaro Obregón 305, Ampliacion Unidad Nacional, 89520 Cd Madero, Tamps., México",Restaurante, Abre a las 12p.m.,Ciudad Madero
Tortas Chencho,,None Found,+52 831 149 3212,"Av. Álvaro Obregón, Felipe Carrillo Puerto, 89430 Cd Madero, Tamps., México",Restaurante de desayunos, Abre a las 6:30a.m.,Ciudad Madero
Barra de Café Mi Lupe,,None Found,,"Av. Álvaro Obregón 118, Zona Centro, 89400 Cd Madero, Tamps., México",Restaurante,,Ciudad Madero
ENCHILADA HUASTECA Madero,,None Found,+52 833 105 6978,"Linares 103, Linares103, 89450 Cd Madero, Tamps., México",Restaurante, Abre a las 7a.m.,Ciudad Madero
La Restinga De Oro,,None Found,+52 833 511 1464,"C. Niños Héroes 108-d, Zona Centro, 89400 Cd Madero, Tamps., México",Marisquería, Abre a las 12p.m.,Ciudad Madero
Michelotes Madero,,None Found,+52 833 386 1194,"13 de Enero s/n, Zona Centro, 89400 Cd Madero, Tamps., México",Restaurante de comida rápida, Abre a las 3p.m.,Ciudad Madero
Lechuza's,,None Found,+52 833 688 2673,"Guillermo Prieto 200, Unidad Nacional, 89510 Cd Madero, Tamps., México",Restaurante, Abre a las 7a.m.,Ciudad Madero
El Puerquito Feliz,,None Found,+52 833 210 1346,"89606 Ricardo flores magon 100 esq con, Republica de Cuba, 89640 Cd Madero, Tamps., México",Taquería, Abre a las 9a.m.,Ciudad Madero
El Pulpito De Morón,,None Found,+52 836 111 1118,"Guatemala SN-C OXXO, Poniente, 89580 Cd Madero, Tamps., México",Marisquería, Abre a las 11:30a.m.,Ciudad Madero
Church's Texas Chicken sucursal Madero Centro,churchs.com.mx,None Found,+52 833 357 5700,"Av. Álvaro Obregón 206, Zona Centro, 89450 Cd Madero, Tamps., México",Restaurante especializado en pollo, Abre a las 10a.m.,Ciudad Madero
Heroes & Villains,facebook.com,None Found,+52 833 274 0159,"Durango 102, Zona Centro, 89400 Cd Madero, Tamps., México",Hamburguesería, Abre a las 2p.m.,Ciudad Madero
Pancakes La Frida,,None Found,+52 833 531 2526,"Avenida Universidad 5, Monte Verde, 89420 Cd Madero, Tamps., México",Restaurante de desayunos, Abre a las 8:30a.m.,Ciudad Madero
Antojitos Jessy,,None Found,,"89430, Allende 206, Felipe Carrillo Puerto, 89000 Cd Madero, Tamps., México",Restaurante mexicano, Abre a las 5p.m.,Ciudad Madero
El Gordo de Madero,facebook.com,None Found,,"Rivas Guillén, Av. Primero de Mayo &, Zona Centro, 89400 Cd Madero, Tamps., México",Taquería, Abre a las 7:30p.m.,Ciudad Madero
Tacos Los Primos,,None Found,+52 833 147 3636,"89430, Henry Dunnan 31, Cd Madero, Tamps., México",Taquería,,Ciudad Madero
Antojitos Mexicanos Diana Maria,,None Found,+52 833 201 9778,"5 de Mayo 709, Vicente Guerrero, 89580 Cd Madero, Tamps., México",Restaurante mexicano, Abre a las 5p.m.,Ciudad Madero
Antojitos Mexicanos Diana Maria,,None Found,+52 833 201 9778,"5 de Mayo 709, Vicente Guerrero, 89580 Cd Madero, Tamps., México",Restaurante mexicano, Abre a las 5p.m.,Ciudad Madero
Mariscos del Golfo Lolita,,None Found,+52 833 207 1881,"Av. Álvaro Obregón, Zona Centro, 89400 Cd Madero, Tamps., México",Marisquería, Abre a las 9a.m.,Ciudad Madero
La Arrachera Express Suc Jalisco,facebook.com,None Found,+52 833 210 7000,"Av Jalisco #217, Las Americas, 89420 Cd Madero, Tamps., México",Restaurante especializado en filetes, Abre a las 10a.m.,Ciudad Madero
Fajita Express Madero,fajitaexpress.com.mx,None Found,+52 833 221 2100,"Calle Necaxa, C. Guatemala &, Vicente Guerrero, 89580 Cd Madero, Tamps., México",Restaurante especializado en chuletas, Abre a las 9a.m.,Ciudad Madero
Fritanga Chilanga,,None Found,,"esquina con, Necaxa 302, Quintero col, miguel hidalgo pte, 89570 Cd Madero, Tamps., México",Taquería,,Ciudad Madero
Gorditas Saris,,None Found,+52 833 216 3548,"Pte Entre Necaxa y Orizaba 700, Pedro José Méndez, 89450 Cd Madero, Tamps., México",Restaurante mexicano, Abre a las 8a.m.,Ciudad Madero
Restaurante de Mariscos Don Camarone Playa Miramar,,None Found,+52 833 850 1773,"89540, Playa Miramar, 89540 Cd Madero, Tamps., México",Marisquería, Abre a las 10a.m.,Ciudad Madero
La SEÑORA de los troles,,None Found,,"Calle Carranza 215, Zona Centro, 89400 Cd Madero, Tamps., México",Snack bar, Abre a las 2p.m.,Ciudad Madero
"Taquería ""El Fogón""",,None Found,+52 833 453 3431,"Av. Álvaro Obregón 511-A, Vicente Guerrero, 89580 Cd Madero, Tamps., México",Taquería, Abre a las 6:30p.m.,Ciudad Madero
Comedor La Lupita,,None Found,+52 833 215 8354,"Allende 805-S COMEDOR LUPITA, Primero de Mayo, 89450 Cd Madero, Tamps., México",Restaurante,,Ciudad Madero
Restaurant de mariscos el muelle 2,,None Found,+52 833 334 0135,"5a. Avenida, C. 11 1005 esq, Jardín 20 de Noviembre, 89440 Cd Madero, Tamps., México",Restaurante,,Ciudad Madero
el yucateco 1,,None Found,+52 833 399 1127,"Av. Álvaro Obregón 1706, COL, Hidalgo Oriente, 89570 Cd Madero, Tamps., México",Restaurante de comida rápida, Abre a las 7a.m.,Ciudad Madero
el yucateco 1,,None Found,+52 833 399 1127,"Av. Álvaro Obregón 1706, COL, Hidalgo Oriente, 89570 Cd Madero, Tamps., México",Restaurante de comida rápida, Abre a las 7a.m.,Ciudad Madero
Don Borrego Sarabia,,None Found,,"Av. Francisco Sarabia 704, Primero de Mayo, 89450 Cd Madero, Tamps., México",Asador de cordero, Abre a las 7a.m.,Ciudad Madero
Beto Charangas Restaurant,,None Found,+52 833 221 2302,"B. Juárez 803, Vicente Guerrero, 89580 Cd Madero, Tamps., México",Marisquería, Abre a las 9a.m.,Ciudad Madero
Taqueria Danny,,None Found,+52 833 126 1626,"Av. Francisco Sarabia, Primero de Mayo, 89450 Cd Madero, Tamps., México",Taquería, Abre a las 6p.m.,Ciudad Madero
Piolo's,,None Found,+52 833 210 5812,"Blvrd A. López Mateos 302-C, Unidad Nacional, 89410 Cd Madero, Tamps., México",Restaurante mexicano, Abre a las 7a.m.,Ciudad Madero
Panadería El Itacate,,None Found,+52 833 216 2030,"C. 10 215, Jardín 20 de Noviembre, 89440 Cd Madero, Tamps., México",Panadería, Abre a las 6a.m.,Ciudad Madero
Casa Moro,,None Found,+52 833 104 5022,"C. Guerrero 113 A, Unidad Nacional, 89410 Cd Madero, Tamps., México",Restaurante mexicano, Abre a las 8:30a.m.,Ciudad Madero
COMALITO BUFFET SUCURSAL MADERO,,None Found,,"Felipe Carrillo Puerto, 89430 Cd Madero, Tamps., México",Restaurante de brunch, Abre a las 8a.m.,Ciudad Madero
Gorditas Tampico Suc. Sarabia,,None Found,+52 833 181 3981,"Sarabia 408 Esq. Linares, Calle Primero de Mayo Col, 89450 Cd Madero, Tamps., México",Restaurante, Abre a las 7a.m.,Ciudad Madero
El Charly MADERO,,None Found,+52 833 100 5270,"José María Morelos 102, Emilio Carranza, 89540 Cd Madero, Tamps., México",Hamburguesería, Cierra a las 12p.m.,Ciudad Madero
Tacos Ana Cd. Madero,,None Found,+52 833 334 4438,"Rivas Guillén 116, Zona Centro, 89400 Cd Madero, Tamps., México",Restaurante, Abre a las 7a.m.,Ciudad Madero
Tacos Ana Cd. Madero,,None Found,+52 833 334 4438,"Rivas Guillén 116, Zona Centro, 89400 Cd Madero, Tamps., México",Restaurante, Abre a las 7a.m.,Ciudad Madero
Ke-Alitas Madero,,None Found,+52 833 215 6226,"Av. Francisco Sarabia 308, Primero de Mayo, 89450 Cd Madero, Tamps., México",Restaurante de alas de pollo, Abre a la 1p.m.,Ciudad Madero
A La Burguer,facebook.com,None Found,+52 833 281 8528,"Av. Primero de Mayo 803, Felipe Carrillo Puerto, 89430 Cd Madero, Tamps., México",Hamburguesería, Abre a las 11a.m.,Ciudad Madero
Tortas Rivera Z.c. Madero Tamps,m.facebook.com,None Found,+52 833 126 2307,"Av. Álvaro Obregón, Felipe Carrillo Puerto, 89430 Cd Madero, Tamps., México",Restaurante de comida rápida, Abre a las 7:40a.m.,Ciudad Madero
El Farolito,facebook.com,None Found,+52 833 233 3041,"Priv. Bugambilia 102, Del Maestro, 89550 Cd Madero, Tamps., México",Hamburguesería, Abre a las 5p.m. del mar,Ciudad Madero
Taquería El Trompo Vaquero,,None Found,+52 833 589 9758,"C. Necaxa 609, Felipe Carrillo Puerto, 89430 Cd Madero, Tamps., México",Taquería, Abre a las 6p.m.,Ciudad Madero
Little Caesar's Pizza,littlecaesars.com.mx,"Cadena de comida para llevar que ofrece alitas de pollo, palitos de pan y pizza hecha con masa casera.",+52 833 215 9808,"Av. Álvaro Obregón 403, Arboledas, 89496 Cd Madero, Tamps., México",Pizzería, Abre a las 10a.m.,Ciudad Madero
Carnitas Arturo's,,None Found,+52 833 216 1000,"CARNITAS ARTURO'S, Monterrey 402 ote, Zona Centro, 89400 Cd Madero, Tamps., México",Restaurante, Abre a las 8a.m.,Ciudad Madero
Tacolandia en Cd Madero tacos y tostadas Siberia .,,None Found,+52 833 274 2121,"Av. Primero de Mayo 802, Primero de Mayo, 89450 Cd Madero, Tamps., México",Restaurante, Abre a las 5:30p.m.,Ciudad Madero
Tacolandia en Cd Madero tacos y tostadas Siberia .,,None Found,+52 833 274 2121,"Av. Primero de Mayo 802, Primero de Mayo, 89450 Cd Madero, Tamps., México",Restaurante, Abre a las 5:30p.m.,Ciudad Madero
Café Selecto Madero,,None Found,+52 833 274 1712,"Av. Primero de Mayo 1202, Primero de Mayo, 89450 Cd Madero, Tamps., México",Cafetería, Abre a las 7a.m.,Ciudad Madero
Pizzas Hipopotamus Rose Retro (Cd.Madero),,None Found,+52 833 213 8390,"Calle Allende 107 Norte Entre 1 de mayo y Niños Heroes Centro, 89400 Cd Madero, Tamps., México",Pizzería, Abre a la 1p.m.,Ciudad Madero
Puerto Madero San Ángel,puertomaderorestaurantes.com,None Found,+52 55 5550 3535,"Av. de la Paz 6, San Ángel, Álvaro Obregón, 01000 Ciudad de México, CDMX, México",Restaurante argentino, Abre a la 1p.m.,Ciudad Madero
El Lindero Universidad,,None Found,+52 833 688 3770,"Avenida Universidad 26, Los Pinos, 89100 Tampico, Tamps., México",Restaurante, Abre a las 7a.m.,Ciudad Madero
"Gorditas y Tacos ""DOÑA TOMY""",,None Found,+52 833 216 2179,"C. Colombia 204, entre Allende y Juárez, Vicente Guerrero, 89580 Cd Madero, Tamps., México",Restaurante, Abre a las 6a.m. del lun,Ciudad Madero
Tino el Marino,,None Found,+52 833 181 3667,"Monte Verde, 89420 Cd Madero, Tamps., México",Marisquería, Abre a las 9a.m.,Ciudad Madero
Tino el Marino,,None Found,+52 833 181 3667,"Monte Verde, 89420 Cd Madero, Tamps., México",Marisquería, Abre a las 9a.m.,Ciudad Madero
Gorditas Ludy,,None Found,+52 833 426 2353,"Vicente Guerrero, 89580 Cd Madero, Tamps., México",Taquería, Abre a las 8:40a.m.,Ciudad Madero
Gorditas y Tortas Las Sabrosas,facebook.com,None Found,+52 833 444 0911,"República de Chile 100-A, Benito Juárez, 89580 Cd Madero, Tamps., México",Restaurante familiar, Abre a las 8a.m.,Ciudad Madero
Restaurante Pelicanos Bar,,None Found,,"Av. Álvaro Obregón, Vicente Guerrero, 89580 Cd Madero, Tamps., México",Bar restaurante,,Ciudad Madero
Tacos y tortas de cecina con papas,,None Found,,"Vicente Guerrero, 89580 Cd Madero, Tamps., México",Taquería,,Ciudad Madero
Tortas de la barda Don Meme,,None Found,,"89580, 5 de Mayo SN-S TORTAS EL SOBRINO, Vicente Guerrero, Cd Madero, Tamps., México",, Abre a las 6:30a.m.,Ciudad Madero
Sunbokae | 순보캐,instagram.com,None Found,+52 833 291 6531,"Salvador Díaz Mirón 1006, entre 18 de Marzo y Ramos Arizpe, Felipe Carrillo Puerto, 89430 Cd Madero, Tamps., México",Restaurante coreano, Abre a la 1:30p.m.,Ciudad Madero
Restaurant Buffet de Mariscos,,None Found,+52 833 269 0153,"Playa Miramar, 89540 Cd Madero, Tamps., México",Marisquería, Abre a las 12p.m.,Ciudad Madero
Restaurant Buffet de Mariscos,,None Found,+52 833 269 0153,"Playa Miramar, 89540 Cd Madero, Tamps., México",Marisquería, Abre a las 12p.m.,Ciudad Madero
Tacos Y Tortas De Cecina Los Mexicanos,,None Found,+52 833 379 1645,"Felipe Carrillo Puerto, 89430 Cd Madero, Tamps., México",Taquería, Abre a las 6p.m.,Ciudad Madero
Arenas del Mar,arenasdelmar.com.mx,None Found,+52 833 357 5750,"Blvd. Costero No.504, Playa Miramar, 89540 Cd Madero, Tamps., México",,,Ciudad Madero
Tacos Hermanos Juarez,,None Found,+52 833 188 1640,"C. Guatemala 502, Vicente Guerrero, 89580 Cd Madero, Tamps., México",Taquería, Abre a las 6p.m.,Ciudad Madero
Stars & Cream Cruz Roja Madero,starscream.mx,None Found,+52 833 216 5391,"Av. Álvaro Obregón 210, Zona Centro, 89400 Cd Madero, Tamps., México",Restaurante, Abre a las 8a.m.,Ciudad Madero
La Mary’s Cenaduria,,None Found,+52 833 772 1835,"5 de Mayo 805, Vicente Guerrero, 89580 Cd Madero, Tamps., México",Restaurante, Abre a las 6p.m.,Ciudad Madero
Cómo en casa,,None Found,+52 833 325 9177,"Obrera, 89490 Cd Madero, Tamps., México",Restaurante de desayunos, Abre a las 7:30a.m. del lun,Ciudad Madero
KONG Comida China,,None Found,+52 833 301 2919,"89580, C. Necaxa 1100-1103, Vicente Guerrero, Cd Madero, Tamps., México",Restaurante chino, Abre a las 10a.m.,Ciudad Madero
KONG Comida China,,None Found,+52 833 301 2919,"89580, C. Necaxa 1100-1103, Vicente Guerrero, Cd Madero, Tamps., México",Restaurante chino, Abre a las 10a.m.,Ciudad Madero
"Antojitos mexicanos ""La Pequeña"" (Galeana)",,None Found,+52 833 110 8172,"Priv. Aguascalientes 100, Tinaco, 89590 Cd Madero, Tamps., México",Restaurante mexicano, Abre a las 6p.m.,Ciudad Madero
Café Madero,,None Found,+52 833 132 8740,"16 de Septiembre 214, Árbol Grande, 89490 Cd Madero, Tamps., México",Cafetería, Abre a las 8a.m.,Ciudad Madero
Tacos y Tortas La Necaxa,,None Found,+52 833 120 3774,"Calle Necaxa SN-C PAPELERIA, Hidalgo Poniente, 89570 Cd Madero, Tamps., México",Restaurante, Abre a las 7p.m.,Ciudad Madero
Tacos Checo's,,None Found,+52 833 150 8097,"89450 Avenida Francisco Sarabia SN-C MISCELANEA MARINA, Primero de Mayo, 89450 Cd Madero, Tamps., México",Taquería, Abre a las 6:30p.m.,Ciudad Madero
Antojitos mexicanos Doña Chabe,,None Found,,"S. Díaz Mirón, Orizaba &, Felipe Carrillo Puerto, 89430 Cd Madero, Tamps., México",Restaurante, Abre a las 7p.m.,Ciudad Madero
"Tripitas ""Aarón""",,None Found,+52 833 118 3765,"89430, Monterrey 203, Felipe Carrillo Puerto, 89580 Cd Madero, Tamps., México",Restaurante de comida rápida, Abre a las 6:30p.m. del lun,Ciudad Madero
"Tripitas ""Aarón""",,None Found,+52 833 118 3765,"89430, Monterrey 203, Felipe Carrillo Puerto, 89580 Cd Madero, Tamps., México",Restaurante de comida rápida, Abre a las 6:30p.m. del lun,Ciudad Madero
RESTAURANTE DE MARISCOS LA ISLA DE CAREAGA “MADERO”,,None Found,+52 833 699 1911,"Av. Primero de Mayo 501, Felipe Carrillo Puerto, 89430 Cd Madero, Tamps., México",Restaurante, Abre a las 10a.m.,Ciudad Madero
El Puerquito Feliz,,None Found,+52 833 126 1106,"B. Juárez 108, Primero de Mayo, 89450 Cd Madero, Tamps., México",Restaurante, Abre a las 9a.m.,Ciudad Madero
Centro Botanero Casa Madero,,None Found,,"Av. Francisco I. Madero 201, Unidad Nacional, 89410 Cd Madero, Tamps., México",Restaurante, Abre a la 1p.m.,Ciudad Madero
Restaurante Bar La Herencia,,None Found,+52 833 370 0498,"Rhin 102, Hidalgo Oriente, 89570 Cd Madero, Tamps., México",Marisquería,,Ciudad Madero
Domino's Miramar,dominosmx.app.link,Cadena de comida a domicilio o para llevar con gran variedad de pizzas y otros platos y acompañamientos.,+52 833 274 1101,"Av. Álvaro Obregón 306, Primero de Mayo, 89450 Cd Madero, Tamps., México",Pizzería, Abre a las 10a.m.,Ciudad Madero
cafeteria memo's,,None Found,+52 833 183 0914,"C. Niños Héroes 208, Zona Centro, 89430 Cd Madero, Tamps., México",Cafetería, Abre a las 6:30a.m.,Ciudad Madero
"Antojitos Mexicanos ""Vicky""",,None Found,,"C. Ocotlán 901, Hidalgo Oriente, 89570 Cd Madero, Tamps., México",Restaurante, Abre a las 4p.m. del jue,Ciudad Madero
Tortas de la barda Chicharrín,,None Found,+52 833 259 5210,"Francia 603, Vicente Guerrero, 89580 Cd Madero, Tamps., México",, Abre a las 8a.m.,Ciudad Madero
"Mariscos Del Golfo, Tradición desde 1975",,None Found,,"13 de Enero 229-S BAR LOS FRANCOS, Zona Centro, 89400 Cd Madero, Tamps., México",Marisquería, Abre a las 10:30a.m.,Ciudad Madero
Pizza Deprizza Madero Tec,pizzadeprizza.com,None Found,+52 833 575 8786,"Av. Primero de Mayo 1404, Primero de Mayo, 89460 Cd Madero, Tamps., México",Pizzería, Abre a las 10:30a.m.,Ciudad Madero
Pizza Deprizza Madero Tec,pizzadeprizza.com,None Found,+52 833 575 8786,"Av. Primero de Mayo 1404, Primero de Mayo, 89460 Cd Madero, Tamps., México",Pizzería, Abre a las 10:30a.m.,Ciudad Madero
Domino's Cd. Madero,dominosmx.app.link,Cadena de comida a domicilio o para llevar con gran variedad de pizzas y otros platos y acompañamientos.,+52 833 210 2828,"Blvd. A. López Mateos 200, Unidad Nacional, 89410 Cd Madero, Tamps., México",Pizzería, Abre a las 10a.m.,Ciudad Madero
Tacos Y Tortas Los 4 Vientos Madero,,None Found,+52 833 185 8960,"C. Niños Héroes 704A, Felipe Carrillo Puerto, 89430 Cd Madero, Tamps., México",Restaurante, Abre a las 8a.m.,Ciudad Madero
El Asador Terraza,elasadorterraza.com,None Found,+52 833 130 5263,"Av. Miguel Hidalgo 2005, Smith, 89140 Tampico, Tamps., México",Parrilla, Abre a la 1p.m.,Ciudad Madero
