Names,Website,Introduction,Phone Number,Address,Type,Opens At,Municipio
Casa Hidalgo,casahidalgo.com,"Desayuno y brunch en patio con jardín, y platos especiales como el filete tártaro preparado en la mesa.",+52 777 312 2749,"Miguel Hidalgo 6, Cuernavaca Centro, Centro, 62000 Cuernavaca, Mor., México",Restaurante mexicano, Abre a las 8:30a.m. del dom,Cuernavaca
El Madrigal,,"Platos mexicanos e internacionales en un lugar elegante con columnas, cuadros de arte y jardines extensos.",+52 777 100 7700,"Sonora 115, zona 1, Vista Hermosa, 62290 Cuernavaca, Mor., México",Restaurante, Abre a las 8a.m. del dom,Cuernavaca
El Origen,facebook.com,"Restaurante espacioso con cocina mexicana contemporánea, una atmósfera familiar y mesas al aire libre.",+52 777 318 9840,"Av. Cuauhtémoc 60, Cantarranas, 62448 Cuernavaca, Mor., México",Restaurante mexicano, Abre a las 8a.m. del dom,Cuernavaca
House Restaurant,lascasasbb.com,"Restaurante tranquilo y lujoso con cocteles sofisticados, carnes y mariscos refinados con toque internacional.",+52 777 318 7777,"Fray Bartolomé de Las Casas 110, Cuernavaca Centro, Centro, 62000 Cuernavaca, Mor., México",Restaurante mediterráneo, Abre a las 9a.m. del dom,Cuernavaca
Los Colorines De Cuernavaca,facebook.com,None Found,+52 777 364 5567,"Av. Emiliano Zapata 598, Tlaltenango, 62140 Cuernavaca, Mor., México",Restaurante mexicano, Abre a las 8a.m. del dom,Cuernavaca
Restaurante La India Bonita,laindiabonita.com.mx,Histórico restaurant bar mexicano en clásica casona colonial con jardines frondosos y amueblado tradicional.,+52 777 333 0100,"Dwight W. Morrow 15 B, Cuernavaca Centro, Centro, 62000 Cuernavaca, Mor., México",Restaurante mexicano, Abre a las 8a.m. del dom,Cuernavaca
Casa Manzano Restaurante Boutique,casamanzano.mx,Se ofrecen recetas de origen local y brunch en este elegante lugar con un frondoso jardín.,+52 777 317 3711,"Av Teopanzolco 400, Reforma, 62260 Cuernavaca, Mor., México",Restaurante mexicano, Abre a las 8a.m. del dom,Cuernavaca
Restaurante Marco Polo Cuernavaca Trattoria,marco-polo.com.mx,Casona con terraza en donde se sirve clásica comida italiana en un comedor estilo trattoria con aire familiar.,+52 777 312 3484,"Miguel Hidalgo 30, Cuernavaca Centro, Centro, 62000 Cuernavaca, Mor., México",Restaurante italiano,,Cuernavaca
Restaurante Bar Emiliano's,,None Found,+52 777 202 9042,"Calle Lic. Ignacio L. Rayon 5-C, Cuernavaca Centro, Centro, 62000 Cuernavaca, Mor., México",Restaurante mexicano, Abre a las 8a.m. del dom,Cuernavaca
Rincón del Bife,rincondelbife.mx,"Restaurante de carnes tranquilo, con zona de juegos para niños, varios cortes de carne asada y empanadas.",+52 777 315 4794,"Av. San Diego 1001, zona 1, Vista Hermosa, 62290 Cuernavaca, Mor., México",Restaurante de platos de carne, Abre a las 8a.m. del dom,Cuernavaca
Gusto Cuernavaca Hotel&Restaurante,gustocuernavaca.mx,None Found,+52 777 318 3563,"C. 16 de Septiembre 44, Acapantzingo, 62440 Cuernavaca, Mor., México",,,Cuernavaca
La Maga Café,,Relajado restaurante y bar con decoración clásica en donde se combina la gastronomía mexicana con el arte.,+52 777 310 3871,"Dwight W. Morrow 9, Cuernavaca Centro, Centro, 62000 Cuernavaca, Mor., México",Restaurante, Abre a las 12p.m. del lun,Cuernavaca
Restaurante Teely Bistrot,teelybistrot.com,Un local pequeño y hogareño donde se encuentran especialidades de la cocina francesa con toques a la mexicana.,,"Manuel Ávila Camacho 274, Plaza Laurel, 62179 Cuernavaca, Mor., México",Restaurante,,Cuernavaca
Bons Café,,Acogedor restaurante decorado con cuadros de arte y fotografía para tomar café y gastronomía variada.,+52 777 310 1982,"Ignacio Comonfort 6B, Cuernavaca Centro, Centro, 62000 Cuernavaca, Mor., México",Restaurante, Abre a las 8a.m. del dom,Cuernavaca
Casa Gabilondo,casagabilondo.mx,Alta cocina mexicana con influencia internacional en un restaurante íntimo con bar y terraza en la parte alta.,+52 777 310 1322,"Comonfort 5, Cuernavaca Centro, Centro, 62000 Cuernavaca, Mor., México",Restaurante, Abre a las 8:30a.m. del dom,Cuernavaca
Mi Gusto Es,migustoes.com.mx,None Found,+52 777 322 4357,"Av. San Diego 12, zona 1, Vista Hermosa, 62290 Cuernavaca, Mor., México",Marisquería, Abre a las 12p.m. del dom,Cuernavaca
Pavarotti Ristorante,,Gastronomía tradicional italiana en un restaurant-bar de ambiente clásico con comedor abierto hacia un jardín.,+52 777 318 5842,"Av Teopanzolco 1, Vista Hermosa, 62290 Cuernavaca, Mor., México",Restaurante italiano,,Cuernavaca
Parrilla Las Leñas,parrillalaslenas.com.mx,Casona estilo hacienda que sirve especialidades mexicanas y argentinas a la parrilla en un comedor clásico.,+52 777 318 8221,"José María Morelos 78, Chipitlan, 62070 Cuernavaca, Mor., México",Restaurante argentino, 12a.m. ,Cuernavaca
El Faisán,elfaisan.com.mx,Un restaurante informal decorado en naranja y blanco que ofrece gastronomía del estado de Yucatán.,+52 777 317 5281,"Av. Emiliano Zapata 1233, Buena Vista, 62130 Cuernavaca, Mor., México",, Abre a las 8a.m. del dom,Cuernavaca
Kookaburra Cuernavaca,kookaburracuernavaca.com,None Found,+52 777 688 6656,"Av Teopanzolco 307, Vista Hermosa, 62290 Cuernavaca, Mor., México",Restaurante, 12a.m. ,Cuernavaca
Restaurante El Secreto,m.facebook.com,None Found,+52 777 314 6274,"esquina con Teopanzolco, C. Río Tepozteco 211, Reforma, 62260 Cuernavaca, Mor., México",Cafetería, Abre a las 8a.m. del dom,Cuernavaca
Restaurante Bar México Lindo Cantina Mexicana,facebook.com,Alegre y amplio salón para bailar con música en vivo en donde se ofrece comida mexicana típica y tragos.,+52 777 312 6119,"Blvd. Lic. Benito Juárez 42, Las Palmas, 62040 Cuernavaca, Mor., México",Restaurante mexicano, Cierra a las 2a.m.,Cuernavaca
Carlitos Grill and Garden,carlitosgrillandgarden.com,None Found,+52 777 311 2064,"Av. Domingo Diez 711, El Empleado, 62250 Cuernavaca, Mor., México",Parrilla, 11:30p.m. ,Cuernavaca
Mesón Gaucho,mesongaucho-mexico.com,Un espacio cosmopolita decorado en madera negra que sirve cortes de carne y platillos argentinos con vino.,+52 777 372 1121,"Av. Domingo Diez 1460, San Cristobal, 62230 Cuernavaca, Mor., México",Restaurante argentino, 12a.m. ,Cuernavaca
Los Colorines,,None Found,+52 777 322 8024,"Río Usumacinta 2, Vista Hermosa, 62290 Cuernavaca, Mor., México",Restaurante mexicano, Abre a las 8a.m. del dom,Cuernavaca
Restaurante de carnes Los Karbones,,None Found,+52 777 217 7718,"Av Atlacomulco 65, Acapantzingo, 62440 Cuernavaca, Mor., México",Restaurante de platos de carne, Abre a las 12p.m. del dom,Cuernavaca
Don Atilio,donatilio.com.mx,"Restaurante refinado con terraza arbolada y ambiente de lujo donde se sirven carnes, pasta y mariscos.",+52 777 315 0074,"C. Galeana 55, Acapantzingo, 62440 Cuernavaca, Mor., México",Restaurante argentino, Abre a la 1p.m. del dom,Cuernavaca
Tamuz Restaurante,sites.google.com,Alta cocina con toques orientales y mediterráneos en un espacio moderno con aire hogareño y terraza grande.,+52 777 311 2223,"Av. Reforma N. 501, Reforma, 62260 Cuernavaca, Mor., México",Restaurante mediterráneo, Abre a las 8a.m. del dom,Cuernavaca
"Emilia, Restaurante, Hotel & Spa",multiplataforma.tech,None Found,+52 777 452 8891,"Av Teopanzolco 305-A, Vista Hermosa, 62290 Cuernavaca, Mor., México",Restaurante, Cierra a la 1a.m.,Cuernavaca
LA 1200 RESTAURANT - BAR,,None Found,,"Av. San Diego 316, zona 1, Vista Hermosa, 62290 Cuernavaca, Mor., México",Pub restaurante, Cierra a las 3a.m.,Cuernavaca
Lucca Cuernavaca,luccacuernavaca.com.mx,None Found,+52 777 314 5500,"Av Teopanzolco 223, Vista Hermosa, 62290 Cuernavaca, Mor., México",Restaurante italiano, 11:30p.m. ,Cuernavaca
Cocina de Raíz Restaurante,,None Found,+52 777 144 0260,"Av. Compositores 202, Analco, 62166 Cuernavaca, Mor., México",Restaurante, Abre a las 8a.m. del dom,Cuernavaca
Los Quelites,,None Found,+52 777 315 3284,"Av Teopanzolco 9B, Vista Hermosa, 62290 Cuernavaca, Mor., México",Restaurante familiar, Abre a las 9a.m. del dom,Cuernavaca
MERAKI,,None Found,,"Miguel Hidalgo 7, Cuernavaca Centro, Centro, 62000 Cuernavaca, Mor., México",Restaurante, Abre a las 2p.m. del dom,Cuernavaca
Verdesalvia Restaurante,verdesalvia.mx,None Found,+52 55 1915 0238,"Río Amacuzac.10, Vista Hermosa esquina chilpancingo, Río Amacuzac No.10, Vista Hermosa, 62290 Cuernavaca, Mor., México",Restaurante italiano, Abre a las 7a.m. del dom,Cuernavaca
Las Mañanitas,lasmananitas.com.mx,None Found,+52 777 362 0000,"Ricardo Linares 107, Cuernavaca Centro, Centro, 62000 Cuernavaca, Mor., México",,,Cuernavaca
Pueblo Mágico Restaurante,,None Found,+52 55 5104 0060,"Av. Alta tensión #232 esq, Blvd. Gustavo Díaz Ordaz, Cantarranas, 62448 Cuernavaca, Mor., México",Restaurante mexicano, Abre a las 8a.m. del dom,Cuernavaca
Chili's Río Mayo Cuernavaca,chilis.com.mx,Cadena apta para familias que ofrece alimentos estadounidenses y tex-mex en un ambiente sureño.,+52 777 310 2535,"Av Río Mayo S/N, Vista Hermosa, 62290 Cuernavaca, Mor., México",Restaurante americano, Cierra a la 1a.m.,Cuernavaca
Chili's Río Mayo Cuernavaca,chilis.com.mx,Cadena apta para familias que ofrece alimentos estadounidenses y tex-mex en un ambiente sureño.,+52 777 310 2535,"Av Río Mayo S/N, Vista Hermosa, 62290 Cuernavaca, Mor., México",Restaurante americano, Cierra a la 1a.m.,Cuernavaca
BraaiAsao Churrascaria,braaiasao.com,None Found,+52 777 310 0500,"San Diego 125 B Esquina Privada, Sinaloa 1, Vista Hermosa, 62290 Cuernavaca, Mor., México",Restaurante brasileño, Abre a la 1p.m. del dom,Cuernavaca
Fonda la Güera,,None Found,+52 777 311 6279,"C. Río Tepozteco 310, zona 1, Reforma, 62269 Cuernavaca, Mor., México",Restaurante mexicano, Abre a las 8a.m. del dom,Cuernavaca
Sapori gastronomia,,None Found,+52 777 241 8492,"Rufino Tamayo 68, Acapantzingo, 62440 Cuernavaca, Mor., México",Restaurante de cocina del norte de Italia, Abre a las 12p.m. del dom,Cuernavaca
Pancracio,pancracio.mx,None Found,+52 777 202 4948,"Calle Lic. Ignacio L. Rayon 22-Local 18, Cuernavaca Centro, Centro Histórico, 62000 Cuernavaca, Mor., México",Restaurante de cocina española, Abre a las 8:30a.m. del dom,Cuernavaca
Restaurante Casa Taxco Centro,,None Found,+52 777 688 6776,"Calle Gral. H. Galeana 17, Cuernavaca Centro, Centro, 62000 Cuernavaca, Mor., México",Restaurante mexicano, Abre a las 8a.m. del dom,Cuernavaca
La Chilanguita,,None Found,+52 777 114 5574,"Mexico-Acapulco, Villas del Lago, 62374 Cuernavaca, Mor., México",Restaurante mexicano, Cierra a las 3a.m.,Cuernavaca
Restaurante y Pastelería el Vienés,vienes.com.mx,None Found,+52 777 241 5223,"Lerdo de Tejada 10, Cuernavaca Centro, Centro, 62000 Cuernavaca, Mor., México",Restaurante mexicano, Abre a las 8a.m. del dom,Cuernavaca
Brother's Prime Cuerna,brothersmx.com,None Found,+52 777 312 8963,"Av. Plan de Ayala 426, Amatitlán, 62410 Cuernavaca, Mor., México",Bar restaurante, 11:30p.m. ,Cuernavaca
Roys Cuernavaca,visitaroys.com,None Found,+52 777 311 3388,"Av Vicente Guerrero 1160, zona 1, Lomas de la Selva, 62290 Cuernavaca, Mor., México",Restaurante mexicano, Abre a las 9a.m. del dom,Cuernavaca
Roys Cuernavaca,visitaroys.com,None Found,+52 777 311 3388,"Av Vicente Guerrero 1160, zona 1, Lomas de la Selva, 62290 Cuernavaca, Mor., México",Restaurante mexicano, Abre a las 9a.m. del dom,Cuernavaca
Bistro Q,,None Found,+52 777 314 5500,"Av Teopanzolco 223-L3, Vista Hermosa, 62290 Cuernavaca, Mor., México",Restaurante, 12a.m. ,Cuernavaca
Iguanas Green’s,,None Found,+52 777 245 0750,"Calle Lic. Ignacio L. Rayon 190, Cuernavaca Centro, Centro, 62000 Cuernavaca, Mor., México",Restaurante mexicano, Abre a las 8a.m. del dom,Cuernavaca
Nicté Restaurante Galeria,facebook.com,None Found,+52 777 448 6097,"Blvd. Lic. Benito Juárez 10-3er piso, Cuernavaca Centro, Centro, 62000 Cuernavaca, Mor., México",Restaurante mexicano, Abre a las 9a.m. del dom,Cuernavaca
La Puerta de Tres Marias,,None Found,+52 777 482 3728,"Av Río Mayo 1490, Vista Hermosa, 62290 Cuernavaca, Mor., México",Restaurante mexicano,,Cuernavaca
Restaurante Cuernavaca Jardín,,None Found,+52 777 526 2948,"Matamoros esquina, No Reelección 2, Cuernavaca Centro, 62000 Cuernavaca, Mor., México",Restaurante mexicano, Abre a las 8a.m. del dom,Cuernavaca
Le Pastis Bistro,,None Found,+52 777 681 8066,"Miguel Hidalgo 20, Cuernavaca Centro, Centro, 62030 Cuernavaca, Mor., México",Restaurante francés,,Cuernavaca
Anticavilla Hotel & Spa,anticavilla.com,None Found,+52 777 313 3131,"Río Amacuzac No.10, Vista Hermosa, 62290 Cuernavaca, Mor., México",,,Cuernavaca
Los Cochinitos (Cuernavaca),loscochinitos.com.mx,None Found,,"Mexico-Acapulco Km. 88,400, Delicias, 62330 Cuernavaca, Mor., México",Restaurante mexicano, Abre a las 7a.m. del dom,Cuernavaca
Hilo Negro Cuernavaca,hilonegro.com.mx,None Found,+52 777 526 2683,"Comonfort 2, Cuernavaca Centro, Centro, 62000 Cuernavaca, Mor., México",Pizzería, Abre a las 12p.m. del dom,Cuernavaca
Restaurante El Salto,,None Found,+52 777 318 1219,"Av del Salto 31, San Anton, 62020 Cuernavaca, Mor., México",Restaurante mexicano, Abre a las 11a.m. del dom,Cuernavaca
Culichioso Cuernavaca,culichioso.com,None Found,+52 777 832 2733,"Av Río Mayo 115, Vista Hermosa, 62290 Cuernavaca, Mor., México",Restaurante mexicano, Abre a las 8a.m. del dom,Cuernavaca
Mariscos Tía Licha Bistro Rio Mayo,facebook.com,Comedor abierto decorado con motivos náuticos que sirve variado menú de pescados y mariscos junto con tragos.,+52 777 310 2697,"Ixcateopan 500, Vista Hermosa, 62290 Cuernavaca, Mor., México",Marisquería, Abre a las 11a.m. del dom,Cuernavaca
Medio Habanero,mediohabanero.com,None Found,+52 777 331 1291,"Nueva Bélgica 14, zona 1, San Cristobal, 62240 Cuernavaca, Mor., México",Restaurante mexicano, Abre a las 9a.m. del dom,Cuernavaca
La Santa Res,,None Found,,"José Ma. Morelos y Pavón 174, Cuernavaca Centro, Centro, 62000 Cuernavaca, Mor., México",Restaurante, Abre a las 8:30a.m. del dom,Cuernavaca
Raíces Restaurant,instagram.com,None Found,+52 777 482 8434,"Av Teopanzolco 402, Reforma, 62260 Cuernavaca, Mor., México",Restaurante mexicano, Abre a las 8a.m. del dom,Cuernavaca
Fonda Marce,fondamarce.com,None Found,+52 777 375 1811,"Cta. Hermosa 21, San Cristobal, 62230 Cuernavaca, Mor., México",Restaurante mexicano, Abre a las 8a.m. del dom,Cuernavaca
Los Alcatraces,hotelvilladelconquistador.com,None Found,+52 777 313 1166,"Av Paseo del Conquistador 134, Lomas de Cortes, 62240 Cuernavaca, Mor., México",Restaurante, Abre a las 8a.m. del dom,Cuernavaca
Los Arcos,facebook.com,None Found,+52 777 312 4486,"Miguel Hidalgo 4, Cuernavaca Centro, Centro, 62000 Cuernavaca, Mor., México",Restaurante mexicano, 12a.m. ,Cuernavaca
Pixca Reforma Restaurante en Cuernavaca,pixcareforma.com,None Found,+52 777 804 1459,"Av. Reforma, Xochicalco Esquina, 62260 Cuernavaca, Mor., México",Restaurante, Abre a las 8a.m. del dom,Cuernavaca
Venezia cuernavaca,,None Found,+52 777 682 0213,"Av. Plan de Ayala 830, Jacarandas, 62420 Cuernavaca, Mor., México",Restaurante, Abre a las 9a.m. del dom,Cuernavaca
LA PATRONA CUERNAVACA,,None Found,+52 777 603 1904,"Av. Plan de Ayala 708, Jacarandas, 62420 Cuernavaca, Mor., México",Bar restaurante, Cierra a las 2a.m.,Cuernavaca
El Savoy Tavern&Grill,,None Found,+52 777 246 6157,"C. Río Tepozteco 200, zona 1, Reforma, 62260 Cuernavaca, Mor., México",Restaurante, Abre a las 10a.m. del dom,Cuernavaca
La Caza Del Venado,,None Found,+52 777 317 9575,"Av. Emiliano Zapata 816, Buena Vista, 62130 Cuernavaca, Mor., México",Restaurante de desayunos, Abre a las 9a.m. del dom,Cuernavaca
Terraza Catedral Cuernavaca,,None Found,+52 777 376 2888,"Av. José María Morelos, Cuernavaca Centro, Miguel Hidalgo, 62000 Cuernavaca, Mor., México",Restaurante,,Cuernavaca
Restaurante Puerto Pacífico,puertopacifico.com.mx,None Found,+52 777 312 6683,"Av. Palmira 34, Palmira, 62490 Cuernavaca, Mor., México",Marisquería, Abre a las 8a.m. del dom,Cuernavaca
El Romántico Restaurante-Bar,,None Found,,"Plazuela del Zacate, Fray Bartolomé de Las Casas 3B, Centro, 62000 Cuernavaca, Mor., México",Bar restaurante, Cierra a las 2a.m.,Cuernavaca
El Rey de la Arrachera,dely-login.com,"Local informal de tacos de carne, hamburguesas, cortes de vacuno y guarniciones como frijoles y sopas.",+52 777 289 2926,"Blvd. Gustavo Díaz Ordaz 117, Acapantzingo, 62440 Cuernavaca, Mor., México",Taquería,,Cuernavaca
"El Camarón Guasaveño, Cuernavaca",elcamaronguasaveno.com,None Found,,"Av. Plan de Ayala 517, Lomas del Mirador, 62350 Cuernavaca, Mor., México",Marisquería, Abre a las 11a.m. del dom,Cuernavaca
Casa Tikal,,None Found,+52 777 202 9063,"Comonfort 13BIS, Cuernavaca Centro, Centro, 62000 Cuernavaca, Mor., México",Restaurante mexicano, Abre a las 9a.m. del dom,Cuernavaca
Restaurante LA UNIVERSAL,,None Found,+52 777 318 5970,"Calle, Guerrero #2, Centro, 62000 Cuernavaca, Mor., México",Restaurante mexicano, 12a.m. ,Cuernavaca
La Casa de los Abuelos,,None Found,+52 777 312 7263,"Mariano Abasolo 59-local1, Cuernavaca Centro, Centro, 62000 Cuernavaca, Mor., México",Restaurante mexicano, Abre a las 8a.m. del dom,Cuernavaca
IHOP Cuernavaca,ihopmexico.com,Cadena de larga data que sirve gran variedad de panqueques y otras comidas de desayuno y cena estadounidenses.,+52 777 322 1504,"Autopista Mexico Acapulco Km. 87.50 Local SA-02, Enrique Flores Magón, 62370 Cuernavaca, México",Restaurante americano, Abre a las 8a.m. del dom,Cuernavaca
Pozolerias El barco sucursal Centro,facebook.com,None Found,+52 777 314 1020,"Comonfort 6A, Cuernavaca Centro, Centro, 62000 Cuernavaca, Mor., México",Restaurante mexicano,,Cuernavaca
La Tía de las Muchachas,instagram.com,None Found,+52 777 212 2787,"esquina con, Ignacio López Rayón, Juan Ruiz de Alarcón 7-local A-5, Centro, 62000 Cuernavaca, Mor., México",Restaurante mexicano, Abre a las 10a.m. del dom,Cuernavaca
Café Alondra Sucursal Centro,cafealondra.com,Lugar acogedor con estilo minimalista y terraza grande que ofrece platillos mexicanos e internacionales.,+52 777 228 0474,"Miguel Hidalgo 22, Cuernavaca Centro, Centro, 62000 Cuernavaca, Mor., México",Restaurante, Abre a las 8a.m. del dom,Cuernavaca
Hilo Negro Restaurant,,None Found,+52 777 791 0858,"Iguala 29A, Vista Hermosa, 62290 Cuernavaca, Mor., México",Restaurante italiano,,Cuernavaca
"Sanborns Cuernavaca | Restaurante, Tienda y Farmacia",sanborns.com.mx,None Found,+52 777 318 4602,"Bvld. Benito Juárez y Mariano Abasolo 28, Mariano Abasolo, Centro, 62000 Cuernavaca, Mor., México",Restaurante, Abre a las 8a.m. del dom,Cuernavaca
Fresco Restaurante & Hostal,,None Found,+52 777 246 8154,"Mariano Abasolo 20, Cuernavaca Centro, Centro, 62000 Cuernavaca, Mor., México",, Abre a la 1p.m. del dom,Cuernavaca
"RESTAURANTE FLOR DE LIS, Cuernavaca",,None Found,+52 777 482 9821,"Av Teopanzolco 223-q, Vista Hermosa, 62290 Cuernavaca, Mor., México",Restaurante mexicano, Abre a las 9a.m. del dom,Cuernavaca
Restaurante Casa Torres,,None Found,+52 777 244 6111,"Av. Domingo Diez 109, Miraval, 62270 Cuernavaca, Mor., México",Restaurante mexicano, Abre a las 8a.m. del dom,Cuernavaca
Vips Cuernavaca Centro,vips.com.mx,None Found,+52 73128223,"Blvd. Lic. Benito Juárez 3, Cuernavaca Centro, Centro, 62000 Cuernavaca, Mor., México",Restaurante mexicano, Abre a las 7a.m. del dom,Cuernavaca
Armando's Pizzeria y Restaurante,,None Found,+52 777 317 1955,"Rio, C. Amacuzac 2, Vista Hermosa, 62290 Cuernavaca, Mor., México",Pizzería, Abre a las 2p.m. del dom,Cuernavaca
"Sanborns Plaza Cuernavaca | Restaurante, Tienda y Farmacia",sanborns.com.mx,None Found,+52 777 318 8474,"Av Vicente Guerrero 1110, Lomas de la Selva, 62270 Cuernavaca, Mor., México",Restaurante, Abre a las 8a.m. del dom,Cuernavaca
Ristorante Paparazzi,,None Found,+52 777 246 6258,"Río Balsas 13, Vista Hermosa, 62283 Cuernavaca, Mor., México",Restaurante italiano, Abre a la 1:30p.m. del dom,Cuernavaca
Restaurante Terraza Cuernavaca Bar,facebook.com,None Found,,"Calle Lic. Ignacio L. Rayon 103, Cuernavaca Centro, Centro, 62000 Cuernavaca, Mor., México",Restaurante mexicano, Abre a las 8a.m. del dom,Cuernavaca
Mercado Comonfort,,None Found,+52 777 241 6602,"Comonfort 4, Cuernavaca Centro, Centro, 62000 Cuernavaca, Mor., México",Bar restaurante, 12a.m. ,Cuernavaca
Tony's Restaurante,facebook.com,None Found,+52 777 352 7041,"Blvd. Gustavo Díaz Ordaz 106, Manantiales, 62450 Cuernavaca, Mor., México",Restaurante mexicano, Abre a las 7:30a.m. del dom,Cuernavaca
La Flor Del Maizal,,None Found,+52 777 312 8895,"Francisco Zarco 11, Cuernavaca Centro, Centro, 62000 Cuernavaca, Mor., México",Restaurante mexicano, Abre a las 2p.m. del dom,Cuernavaca
Amaranto Restaurant,,None Found,+52 777 141 8138,"Calle Gral. H. Galeana 29, Cuernavaca Centro, Centro, 62000 Cuernavaca, Mor., México",Restaurante mexicano, Abre a las 8a.m. del dom,Cuernavaca
P.F. Chang's Galerías Cuernavaca,pfchangsmexico.com.mx,None Found,+52 777 322 4613,"Cdad. de México - Cuernavaca Km 87.5, Tulipanes, 62376 Cuernavaca, Mor., México",Restaurante asiático, 12a.m. ,Cuernavaca
La Envidiosa,,None Found,+52 777 608 9964,"Av Teopanzolco 204, Teopanzolco, 62290 Cuernavaca, Mor., México",Restaurante, Abre a la 1p.m. del dom,Cuernavaca
Restaurante Casa Victoria (Buffet),,None Found,+52 777 388 2949,"C. Moctezuma 4, Los Ramos, 62220 Cuernavaca, Mor., México",Restaurante, Abre a las 9a.m. del dom,Cuernavaca
ES3 Bistrot,m.facebook.com,None Found,+52 777 310 4179,"Calle Lic. Ignacio L. Rayon 22, Cuernavaca Centro, Centro, 62000 Cuernavaca, Mor., México",Restaurante, Abre a las 2p.m. del dom,Cuernavaca
Hotel Restaurant La Provence,laprovence.com.mx,None Found,+52 777 318 2996,"Plutarco Elías Calles 22, Club de Golf de Cuernavaca, 62030 Cuernavaca, Mor., México",,,Cuernavaca
Fonda Típica Verónica.,,None Found,+52 777 313 1198,"Carr. Federal A Cuernavaca Km 69.5, Santa María Ahuacatitlán, 62100 Cuernavaca, Mor., México",Restaurante mexicano, Abre a las 8:30a.m. del dom,Cuernavaca
Samborcito Cuernavaca,,None Found,+52 777 180 0657,"C. del Arco 26, Amatitlán, 62410 Cuernavaca, Mor., México",Restaurante, Abre a las 10a.m. del dom,Cuernavaca
Café Canela,,None Found,+52 777 364 6173,"Av Teopanzolco S/N, zona 1, Reforma, 62260 Cuernavaca, Mor., México",Cafetería, Abre a las 9a.m. del dom,Cuernavaca
Casa del Mixiote Cuernavaca,facebook.com,None Found,+52 777 708 5140,"Privada, Benito Juárez 5, Cuernavaca Centro, Centro, 62000 Cuernavaca, Mor., México",Restaurante mexicano,,Cuernavaca
Italianni's Cuernavaca,italiannis.com.mx,None Found,+52 777 100 1687,"Km 87.85, Mexico-Acapulco, Centro Comercial Galerías, Ricardo Flores Magon, 62370 Cuernavaca, Mor., México",Restaurante italiano, Abre a las 8a.m. del dom,Cuernavaca
El Muelle 37 Cuernavaca,,None Found,+52 777 158 4048,"10 de Enero 8, Vicente Estrada Cajigal, 62460 Cuernavaca, Mor., México",Marisquería, Abre a las 11a.m. del dom,Cuernavaca
Hamburguesas Chon,,None Found,+52 777 322 9020,"Aguascalientes 8, Ricardo Flores Magon, 62370 Cuernavaca, Mor., México",Hamburguesería, Abre a las 4p.m. del dom,Cuernavaca
Boquería Cuernavaca,,None Found,+52 777 716 0496,"Av. Cuauhtémoc 125-local 18, Chapultepec, 62450 Cuernavaca, Mor., México",Restaurante, Abre a las 2p.m. del dom,Cuernavaca
Las Orquideas,,None Found,+52 777 314 5883,"Centro, Netzahualcoyotl 33, Centro, 62000 Centro, Mor., México",Restaurante,,Cuernavaca
Las Campanas,,None Found,,"Comonfort 2, Cuernavaca Centro, Centro, 62000 Cuernavaca, Mor., México",Restaurante, Abre a las 8a.m. del dom,Cuernavaca
Log Yin,,Platos regionales de cocina china en un restaurante estilo pagoda con motivos orientales y vista panorámica.,+52 777 312 4142,"Calle Morelos #46 Poblado, C. Morelos 46, Acapantzingo, 62440 Cuernavaca, Mor., México",Restaurante de cocina mandarina, Abre a la 1p.m. del dom,Cuernavaca
Las Carmelitas,,None Found,+52 777 169 2230,"Av Río Mayo 1100, Vista Hermosa, 62290 Cuernavaca, Mor., México",Restaurante, Abre a las 8a.m. del lun,Cuernavaca
El Chiringuito,,None Found,+52 777 457 6926,"Av. Plan de Ayala 420, Amatitlán, 62410 Cuernavaca, Mor., México",Taquería, Cierra a las 3a.m.,Cuernavaca
Los Callos de Cortés,loscallosdecortes.com,None Found,+52 777 347 5264,"Boulevard, Juan Pablo II #10, Vista Hermosa, 62290 Cuernavaca, Mor., México",Restaurante, Abre a la 1p.m. del dom,Cuernavaca
Taquería Erendira,facebook.com,None Found,,"Av. Plan de Ayala 1008, Vicente Guerrero, 62430 Cuernavaca, Mor., México",Taquería, Cierra a las 3a.m.,Cuernavaca
La Caricatura Music Bar,,None Found,+52 777 775 8809,"Bjd. de Chapultepec 1-Local A, Chapultepec, 62450 Cuernavaca, Mor., México",Bar restaurante, Cierra a las 3a.m.,Cuernavaca
Kuno Cuernavaca,instagram.com,None Found,+52 777 682 4388,"Sonora 1000, zona 1, Extension Vista Hermosa, 62295 México, Mor., México",Restaurante,,Cuernavaca
