Names,Website,Introduction,Phone Number,Address,Type,Opens At,Municipio
Restaurante Maria Rivera,,None Found,+52 442 486 2703,"Av. Paseo Constituyentes 1690, El Pueblito, 76904 El Pueblito, Qro., México",Restaurante mexicano, Abre a las 9a.m.,El Pueblito
El Mezquite Tradicional,elmezquitetradicional.com,None Found,+52 442 225 3484,"Fray Sebastián Gallegos, Calz. David Alfaro Siqueiros esquina, El Pueblito, 76900 El Pueblito, Qro., México",Restaurante, Abre a las 9a.m.,El Pueblito
LAS BRAZAS DE OAXACA,,None Found,,"Josefa Ortiz de Domínguez 78 A, El Pueblito, 76900 El Pueblito, Qro., México",Taquería, Abre a las 10a.m.,El Pueblito
Birria Jauregui Sucursal El Pueblito,facebook.com,None Found,+52 442 305 2251,"Av Don Bosco 41, El Pueblito, 76900 Santiago de Querétaro, Qro., México",Restaurante mexicano, Abre a las 8:30a.m.,El Pueblito
El Porron Del Pueblito,m.facebook.com,None Found,+52 442 228 0732,"P.º de Tejeda 200-B, Tejeda, 76904 El Pueblito, Qro., México",Bar restaurante, Abre a la 1p.m.,El Pueblito
El Rincon de Don Marce,,None Found,+52 442 225 0391,"Heroico Colegio Militar 38-S RESTAURANT EL RINCONCITO DE DON MARCE, El Pueblito, 76900 El Pueblito, Qro., México",Restaurante, Abre a las 12p.m.,El Pueblito
La Martinica,facebook.com,None Found,+52 446 114 2059,"Ex Hacienda El Cerrito, El Pueblito, 76900 Santiago de Querétaro, Qro., México",Restaurante, Abre a las 8a.m.,El Pueblito
"GA el pueblito, GloriAlina",,None Found,+52 442 317 3859,"Prol. Cuauhtémoc 25, El Pueblito, 76900 El Pueblito, Qro., México",Restaurante, Abre a las 9a.m.,El Pueblito
El Pariente Carnitas El Pueblito,,None Found,,"Josefa Ortiz de Domínguez 109, El Pueblito, 76900 El Pueblito, Qro., México",Restaurante mexicano, Abre a las 9a.m.,El Pueblito
Restaurante Viva México,restaurantevivamexico.com,"Gran espacio iluminado con velas, donde se sirven almuerzo y desayuno tipo buffet, con espectáculos nocturnos.",+52 656 629 0157,"Av. Abraham Lincoln 900-1, Zona Pronaf Condominio La Plata, 32310 Juárez, Chih., México",Restaurante mexicano, Abre a las 8a.m.,El Pueblito
La Mojarra Feliz Camino a Los Olvera,,None Found,+52 442 295 7000,"Camino a Los Olvera Km 1+ 100 s/n, Los Olvera, 76900 El Pueblito, Qro., México",Marisquería, Abre a las 11a.m.,El Pueblito
marucocinaparati,marucocinaparati.blogspot.com,None Found,+52 442 195 6077,"76900, El Pueblito, 76900 Qro., México",Restaurante mexicano, Abre a las 8a.m. del lun,El Pueblito
Restaurante Marieta,,None Found,+52 442 446 6334,"con, Hidalgo, Fray Sebastián Gallegos Supermanzana esquina, 76900 Santiago de Querétaro, Qro., México",Restaurante, Abre a las 8a.m.,El Pueblito
Restaurant Pueblito Mexicano,,None Found,+52 444 812 0492,"Calle Miguel Hidalgo 250-A, Centro, 78000 San Luis Potosí, S.L.P., México",Restaurante mexicano, Abre a las 9a.m.,El Pueblito
El Changarrito... Querétano,facebook.com,None Found,,"Fray Sebastián Gallegos 25, Privada de las Capillas, 76900 El Pueblito, Qro., México",Restaurante mexicano, Abre a las 6p.m.,El Pueblito
Señora Pueblito,,None Found,+52 446 112 1092,"Prol Jazmín 25, Jardines de la Negreta, 76907 La Negreta, Qro., México",Restaurante, Abre a las 9a.m.,El Pueblito
El Rincón del Pachi,elrincondelpachi.com,None Found,+52 446 147 6921,"Libramiento sur poniento km 4 +150, local 3, Mision Mariana II, 76903 Corregidora, Qro., México",Restaurante mexicano, Abre a las 9a.m.,El Pueblito
EL PUEBLITO,glamouroso.com.mx,None Found,+52 56 6123 5905,"Miguel Hidalgo #62, El Pueblito, 76900 El Pueblito, Qro., México",Restaurante, Abre a las 9a.m. del lun,El Pueblito
Potzoldencano,potzoldencano.com.mx,None Found,+52 442 680 0660,"76904, Tejeda, 76904 Qro., México",Restaurante mexicano, Abre a las 10a.m.,El Pueblito
Mi Queretaro Restaurante,,None Found,+52 442 806 7388,"76900, Santuarios Residencial, 76900 Corregidora, Qro., México",Restaurante mexicano, Abre a las 8:30a.m.,El Pueblito
El Pueblito De Don Cuco,,None Found,+52 656 217 4832,"Av. P.º de la Victoria 2118, Partido Senecú, 32459 Juárez, Chih., México",Restaurante, Abre a la 1p.m.,El Pueblito
ROCK'N PARK,,None Found,+52 442 231 4299,"Prol Paseo de Amsterdam, 76900 El Pueblito, Qro., México",Restaurante, Abre a las 2p.m.,El Pueblito
Atakear Queretaro,facebook.com,None Found,+52 442 740 7162,"Av. Paseo Constituyentes 1601 Local 03, Corregidora, 76904 El Pueblito, Qro., México",Taquería,,El Pueblito
ANTOJERIA DEL PUEBLITO,facebook.com,None Found,+52 442 225 2348,"Miguel Hidalgo 68, El Pueblito, 76900 El Pueblito, Qro., México",Comercio, Abre a las 7a.m.,El Pueblito
El Portal de la Abuela,facebook.com,None Found,+52 442 909 2788,"Francisco I. Madero 40, El Pueblito, 76900 El Pueblito, Qro., México",Restaurante, Abre a las 9a.m. del lun,El Pueblito
TOKS Pueblo Nuevo,toks.com.mx,None Found,+52 442 225 3419,"Av. Paseo Constituyentes 903, El Pueblito, 76900 El Pueblito, Qro., México",Restaurante de desayunos, Abre a las 7a.m.,El Pueblito
El Borrego Hidalguense,,None Found,+52 442 870 7085,"Vicente Guerrero 5, Emiliano Zapata, 76900 El Pueblito, Qro., México",Restaurante especializado en barbacoa,,El Pueblito
Los Ponchos,facebook.com,None Found,+52 442 225 0152,"Av. Paseo Constituyentes 1634, El Pueblito, 76900 El Pueblito, Qro., México",Restaurante mexicano, Abre a las 9a.m.,El Pueblito
Al Fuego,,None Found,,"Sin referencia No. 108 3, El Pueblito, 76900 El Pueblito, Qro., México",Restaurante, Abre a la 1p.m.,El Pueblito
NOZOMI SUSHI,instagram.com,None Found,+52 442 118 3341,"Av Don Bosco 41-int 10, El Pueblito, 76900 El Pueblito, Qro., México",Restaurante japonés, Abre a la 1p.m.,El Pueblito
Restaurant-Bar Los Cachorros,,None Found,,"Josefa Ortiz de Domínguez 50, El Pueblito, 76900 El Pueblito, Qro., México",Bar restaurante,,El Pueblito
Cocina Lupita,,None Found,+52 442 336 5943,"Francisco León de La Barra 8, Sta Barbara 1ra Secc, 76900 El Pueblito, Qro., México",Restaurante, Abre a las 7a.m.,El Pueblito
Los Cantaritos Pueblo Nuevo,drive.google.com,None Found,+52 442 113 8482,"Rufino Tamayo 1-Local 4, Santa Fe, 76900 El Pueblito, Qro., México",Restaurante, Abre a la 1p.m.,El Pueblito
El pueblito,facebook.com,None Found,+52 998 397 6597,"SM504 M20 L18 C B INT1 CASAB Ek BALAM CHIKILA, Supermanzana 504, 77533 Cancún, Q.R., México",Restaurante, Abre a las 9a.m.,El Pueblito
"Enchiladas y guajolotes ""Las Señoras Gourmet El Pueblito""",,None Found,+52 442 225 4663,"Pipila 1, El Pueblito, 76900 El Pueblito, Qro., México",Restaurante, Abre a las 2p.m.,El Pueblito
El buen gusto,,None Found,+52 442 647 5492,"Prol. Chabacano 1048, El Roble, Amsterdam, 76902 El Pueblito, Qro., México",Restaurante, Abre a las 5:30p.m. del mar,El Pueblito
La Chila El Pueblito,,None Found,+52 442 123 5993,"Francisco I. Madero 1, El Pueblito, 76900 Corregidora, Qro., México",Restaurante, Abre a la 1p.m.,El Pueblito
EL POCH RIO,elpoch.mx,None Found,+52 442 310 9562,"Av. Rivera Del Río 864, El Pueblito, 76900 El Pueblito, Qro., México",Restaurante, Abre a las 9a.m.,El Pueblito
"Mariscos ""El Güero""",,None Found,+52 442 777 8634,"Prol. Josefa Ortiz de Domínguez 144, Los Olvera, 76900 El Pueblito, Qro., México",Marisquería, Abre a las 11a.m.,El Pueblito
Restaurante Casa Tejeda,,None Found,+52 442 171 6599,"P.º de Tejeda 202-int 14, Tejeda, 76190 El Pueblito, Qro., México",Restaurante mexicano,,El Pueblito
ICHIBAN,,None Found,,"Plaza Constituyentes Planta Alta, Av. Paseo Constituyentes 1285-D-104, El Pueblito, 76900 El Pueblito, Qro., México",Restaurante japonés, Abre a la 1p.m.,El Pueblito
El Encanto Comida Mexicana,,None Found,+52 442 690 8411,"Camino real 601 Interior 4 Candiles, 76903 El Pueblito, Qro., México",Restaurante mexicano, Abre a las 9a.m. del lun,El Pueblito
Megalodon Corregidora,facebook.com,None Found,+52 442 723 2217,"Camino a los olvera. 665 Santiago de Querétaro, 76904 El Pueblito, Qro., México",Marisquería, Abre a las 12p.m.,El Pueblito
Restaurant-Bar El Pueblito,,None Found,+52 322 213 3617,"Carretera Federal 200 Barra de Navidad, México 200 Km. 177, 48400 El Tuito, Jal., México",Restaurante familiar, Abre a las 11a.m.,El Pueblito
Gorditas De Doña More Y Don Luis,,None Found,,"Reforma 9, El Pueblito, 76900 El Pueblito, Qro., México",Restaurante mexicano, Abre a las 7a.m. del lun,El Pueblito
Comida Corrida,,None Found,,"Josefa Ortiz de Domínguez 25A, El Pueblito, 76900 El Pueblito, Qro., México",Restaurante, Abre a las 12p.m. del lun,El Pueblito
Sumo Buffet Querétaro,sumo.rest,None Found,+52 442 595 7884,"Av. Paseo Constituyentes 1285, Tejeda, El Pueblito, 76190 México, Qro., México",Restaurante, Abre a las 12:30p.m.,El Pueblito
Taquería La Fogata Oaxaqueña (1),,None Found,+52 442 450 2695,"Libramiento Sur Pte 4, El Pueblito, 76900 El Pueblito, Qro., México",Restaurante, Abre a las 4p.m.,El Pueblito
Mariscos Yorch,,None Found,+52 442 747 9110,"Prol. Cuauhtémoc 25, El Pueblito, 76900 El Pueblito, Qro., México",Marisquería, Abre a las 12p.m.,El Pueblito
Centli Gorditas y Quesadillas,,None Found,+52 442 113 3543,"Salvador Sánchez Bárcenas 38, Emiliano Zapata, 76900 El Pueblito, Qro., México",Restaurante, Abre a las 9a.m.,El Pueblito
El Pueblito,,None Found,+52 718 124 0382,"José Canal No.8, Centro, 50360 Aculco de Espinoza, Méx., México",Restaurante, Abre a las 8a.m.,El Pueblito
Amarantos alta cocina mexicana,,None Found,,"76915 El Pueblito, Qro., México",Restaurante mexicano, Abre a las 7:30a.m.,El Pueblito
La Cocina de Mendoza,,None Found,+52 442 124 4648,"Libramiento Sur Pte 1, El Pueblito, 76900 El Pueblito, Qro., México",Restaurante, Abre a las 8a.m. del lun,El Pueblito
TATOS - Barbacoa Estilo Jalisco,facebook.com,None Found,+52 442 495 8854,"Cam. a Vanegas 204-3, Puerta Real Residencial Desarrollo Urbana 08, 76900 El Pueblito, Qro., México",Restaurante, Abre a las 9a.m.,El Pueblito
TAQUIÑOS PUEBLITO,sites.google.com,None Found,+52 442 571 4444,"Privada del Gran Cue 2 y 4, Santuarios del Cerrito, El Pueblito, 76900 Corregidora, Qro., México",Taquería, Abre a las 12p.m.,El Pueblito
Feng Shun Restaurant,,None Found,+52 442 131 0406,"P.º de Tejeda 202-local 18, Tejeda, 76904 El Pueblito, Qro., México",Restaurante chino, Abre a las 11:30a.m.,El Pueblito
Feng Shun Restaurant,,None Found,+52 442 131 0406,"P.º de Tejeda 202-local 18, Tejeda, 76904 El Pueblito, Qro., México",Restaurante chino, Abre a las 11:30a.m.,El Pueblito
Hijas de su Madre,,None Found,+52 442 453 2016,"Carr. Huimilpan-Coroneo 4, El Pueblito, 76905 Corregidora, Qro., México",Restaurante de desayunos,,El Pueblito
¡Mmm... Que Sabroso!,,None Found,+52 442 408 9715,"Gral. Pedro Lascurain M9 L19 Santa Bárbara 1era sección, El Pueblito, 76906 Corregidora, Qro., México",Restaurante mexicano,,El Pueblito
Horeb Cocina Economica,,None Found,,"Francisco I. Madero 36, El Pueblito, 76900 El Pueblito, Qro., México",Restaurante, Abre a las 8a.m. del lun,El Pueblito
"Taquería ""Mayorga""",,None Found,+52 446 121 3322,"Fray José Bermúdez 7, El Pueblito, 76900 El Pueblito, Qro., México",Taquería, Abre a las 6p.m.,El Pueblito
Pozoleria la estrella Puerta Real,facebook.com,None Found,+52 442 485 0778,"Av. Prol. El jacal 992 Local 2 El pueblito, Emiliano Zapata, 76900 Santiago de Querétaro, Qro., México",, Abre a las 9a.m.,El Pueblito
Tacos Silvia,,None Found,+52 442 225 3539,"Prol. Cuauhtémoc 97, El Pueblito, 76900 El Pueblito, Qro., México",Taquería, Abre a las 6:30p.m. del lun,El Pueblito
La casa de Doña Naty,,None Found,,"Francisco I. Madero 14, El Pueblito, 76900 El Pueblito, Qro., México",Restaurante mexicano,,El Pueblito
Don Torton,,None Found,+52 446 120 7315,"Carretera Santa Bárbara Coroneo, local 8, entre Refaccionaría y pastelería, El Pueblito, 76900 Santiago de Querétaro, Qro., México",Restaurante familiar, Abre a las 7:30a.m. del lun,El Pueblito
CHIL·AQUI Desayunador,,None Found,+52 442 749 9410,"Fray Sebastián Gallegos 98, El Pueblito, 76900 El Pueblito, Qro., México",Restaurante de desayunos, Abre a las 8a.m.,El Pueblito
Vips Citadina Constituyentes,vips.com.mx,None Found,+52 22412637,"Av. Paseo Constituyentes, Col 1634, El Pueblito Centro, 76900 Qro., México",Restaurante mexicano, Abre a las 7a.m.,El Pueblito
Vips Citadina Constituyentes,vips.com.mx,None Found,+52 22412637,"Av. Paseo Constituyentes, Col 1634, El Pueblito Centro, 76900 Qro., México",Restaurante mexicano, Abre a las 7a.m.,El Pueblito
Barbacoa Quinta Constanza,,None Found,+52 442 154 2928,"Prol. Cuauhtémoc 37-int 1, El Pueblito, 76900 El Pueblito, Qro., México",Restaurante especializado en barbacoa, Abre a las 8:30a.m.,El Pueblito
NANAMI Queretaro Sushi Grill & Sake,nanami.com.mx,None Found,+52 442 251 1848,"Av. Paseo Constituyentes 1150, El Pueblito, 76900 El Pueblito, Qro., México",Restaurante, Abre a la 1p.m.,El Pueblito
Mariscos Peto,,None Found,,"Josefa Ortiz de Domínguez, El Pueblito, 76900 El Pueblito, Qro., México",Marisquería, Abre a las 11a.m.,El Pueblito
Mi Pueblito,,None Found,+52 55 4906 3873,"Pueblo de San Juan de Aragón, 07950 Ciudad de México, CDMX, México",Taquería, Abre a las 4p.m.,El Pueblito
Rey Pibil,,None Found,+52 442 107 2012,"Josefa Ortiz de Domínguez 98, El Pueblito, 76900 El Pueblito, Qro., México",Restaurante mexicano, Abre a las 9a.m.,El Pueblito
Tacos el micro,,None Found,+52 442 105 0684,"De Don Gregorio, El Pueblito, 76900 El Pueblito, Qro., México",Taquería,,El Pueblito
EL COMALITO,,None Found,,"Benito Juárez 33-31, Sta Barbara 1ra Secc, 76900 El Pueblito, Qro., México",Restaurante, Abre a las 9a.m.,El Pueblito
Taqueria mi Lupita,,None Found,+52 442 352 8061,"Fray Sebastián Gallegos 8, El Pueblito, 76900 El Pueblito, Qro., México",Taquería, Abre a las 6p.m.,El Pueblito
"Cenaduria ""Doña Mago""",,None Found,,"5 de Mayo 22, El Pueblito, 76900 El Pueblito, Qro., México",Restaurante, Abre a las 5p.m.,El Pueblito
Los Tololoches,,None Found,,"Francisco I. Madero 24, El Pueblito, 76900 El Pueblito, Qro., México",Restaurante,,El Pueblito
Mi Pueblito Restaurant Bar,facebook.com,None Found,+52 322 226 7110,"Olas Altas 380, Zona Romántica, Emiliano Zapata, 48380 Puerto Vallarta, Jal., México",Bar restaurante,,El Pueblito
El pueblito Rest,,None Found,,"Calle Efrén Ornelas & Río Nilo, Córdova Americas, 32310 Juárez, Chih., México",Restaurante de comida rápida, Abre a las 9a.m. del lun,El Pueblito
El pueblito Rest,,None Found,,"Calle Efrén Ornelas & Río Nilo, Córdova Americas, 32310 Juárez, Chih., México",Restaurante de comida rápida, Abre a las 9a.m. del lun,El Pueblito
Restaurante Manjar Mexicano,,None Found,+52 442 438 1856,"76900 El Pueblito, Qro., México",Restaurante,,El Pueblito
Huerta Lolita,,None Found,+52 442 225 1955,"Cam. a La Negreta 1, La Negreta, 76907 El Pueblito, Qro., México",Restaurante, Abre a las 7a.m.,El Pueblito
El Centro De Querétaro,,None Found,+52 443 185 3077,"La Virgen, 76900 El Pueblito, Qro., México",Restaurante,,El Pueblito
El Pueblito de la Cruz,,None Found,,"76020, Manuel Gutiérrez Nájera 22, La Cruz, 76020 Santiago de Querétaro, Qro., México",Restaurante, Abre a las 10a.m.,El Pueblito
Loncheria Winnie Pooh,,None Found,+52 442 225 0783,"Benito Juárez 14, Sta Barbara 1ra Secc, 76900 El Pueblito, Qro., México",Restaurante, Abre a las 7a.m. del lun,El Pueblito
Madero Food Truck Park,,None Found,,"Francisco I. Madero 35, El Pueblito, 76900 El Pueblito, Qro., México",Marisquería, Abre a la 1p.m.,El Pueblito
Los Canelos,,None Found,,"Eugenio Tovar, El Pueblito, 76900 El Pueblito, Qro., México",Restaurante, Abre a las 9a.m.,El Pueblito
Casa Yollotzin,,None Found,+52 442 393 8440,"Francisco I. Madero 40, El Pueblito, 76900 El Pueblito, Qro., México",Restaurante mexicano, Abre a las 8:30a.m.,El Pueblito
El Tarasco Pollos Patzcuaro,,None Found,+52 442 439 0751,"Fray Sebastián Gallegos 138, El Pueblito, 76900 México, Qro., México",Restaurante, Abre a las 9a.m.,El Pueblito
Tortas El Benja,,None Found,+52 442 295 2272,"Capitán Pedro Urtiaga 14, El Pueblito, 76900 El Pueblito, Qro., México",Restaurante de comida rápida, Abre a las 8a.m. del lun,El Pueblito
Tacos Doña Lore,,None Found,,"Gral. Guadalupe Victoria, Sta Barbara 1ra Secc, 76900 El Pueblito, Qro., México",Taquería, Abre a las 6p.m. del lun,El Pueblito
Taquera la mexicana,,None Found,,"Heroico Colegio Militar 28, El Pueblito, 76900 Corregidora, Qro., México",Restaurante, Abre a las 7:30p.m.,El Pueblito
"Loncheria Winnie Pooh ""El Pueblito""",,None Found,+52 442 225 4256,"Heroico Colegio Militar 39 B, El Pueblito, 76904 El Pueblito, Qro., México",Restaurante de comida rápida, Abre a las 7a.m. del mar,El Pueblito
Carnitas y Barbacoa Las Güeras,,None Found,,"Francisco León de La Barra 9, Sta Barbara 1ra Secc, 76900 El Pueblito, Qro., México",Restaurante mexicano, Abre a las 9a.m.,El Pueblito
Huerta Purepecha,,None Found,+52 442 225 4674,"Pipila 5, El Pueblito, 76900 Santiago de Querétaro, Qro., México",Asociación u organización,,El Pueblito
El punto 21,,None Found,+52 442 489 1504,"Prol. Cuauhtémoc 21, El Pueblito, 76900 El Pueblito, Qro., México",Buffet libre, Abre a las 12p.m.,El Pueblito
"Restaurante ""El Pueblito""",,None Found,+52 55 1348 2857,"Heroico Colegio Militar 86b, El Pueblito, 76900 El Pueblito, Qro., México",,,El Pueblito
Restaurante El Méxicano,,None Found,+52 442 109 6681,"Carretera Libre a Celaya Sn, 1 de Mayo, 76907 Corregidora, Qro., México",,,El Pueblito
El Pibe del Pueblito,,None Found,,"Francisco I. Madero 33, El Pueblito, 76900 El Pueblito, Qro., México",,,El Pueblito
"Espadas brasileñas, carnitas y barbacoa El Pueblito",,None Found,+52 442 571 2003,"Josefa Ortiz de Domínguez 81A, El Pueblito, 76900 El Pueblito, Qro., México",,,El Pueblito
Taquería Nacho,,None Found,+52 442 509 3890,"Ignacio Allende 32, El Pueblito, 76900 El Pueblito, Qro., México",Taquería, Abre a las 8:30a.m.,El Pueblito
Abuelita's Pizza,,"Sencillo local con comedor y cocina en donde se elabora variado menú de pizzas, salsas y pasta.",+52 442 225 5579,"Av Don Bosco 44, El Pueblito, 76900 El Pueblito, Qro., México",Pizzería, Abre a las 11a.m.,El Pueblito
Menudo Saby,,None Found,+52 446 114 3428,"Casa de 2 pisos color amarillo, Heroico Colegio Militar 3, El Pueblito, 76904 El Pueblito, Qro., México",Restaurante mexicano, Abre a las 8a.m.,El Pueblito
Taquería Los Jaliscienses,,None Found,,"Josefa Ortiz de Domínguez 81, El Pueblito, 76900 El Pueblito, Qro., México",Taquería, Abre a las 6p.m.,El Pueblito
viva el pueblito Taqueria,,None Found,+52 442 394 7204,"callé, Isidro Hernández 7, El Pueblito, 76900 El Pueblito, Qro., México",,,El Pueblito
El Pollo Loco,elpolloloco.com.mx,None Found,+52 800 999 5626,"Paseo Constituyentes 1527 Corregidora, El Pueblito, 76904 Santiago de Querétaro, Qro., México",Restaurante especializado en pollo, Abre a las 11a.m.,El Pueblito
TheBeerBox,thebeerbox.com,None Found,+52 442 612 8272,"Av Constituyentes B-113, El Pueblito, 76900 Santiago de Querétaro, Qro., México",Bar restaurante, Abre a las 2p.m.,El Pueblito
RESTAURANTE DEL PUEBLITO,,None Found,,"Centro, 94300 Orizaba, Ver., México",Restaurante, Abre a las 8a.m.,El Pueblito
Comida Casera Mi Pueblito,,None Found,,"59530 San Martín Totolán, Mich., México",Restaurante,,El Pueblito
RESTAURANTE ALCATRACES,,None Found,+52 442 669 9691,"Lic. Luis Echeverría Álvarez 60, La Joya, Santa Barbara 2A.SECCIÓN, 76906 El Pueblito, Qro., México",Restaurante mexicano,,El Pueblito
Estación 19 - Cervecería,,None Found,+52 442 660 0102,"Av. Constituyentes, El Pueblito, 76900 El Pueblito, Qro., México",Cervecería, Abre a las 2p.m.,El Pueblito
Taco Stand (Pueblito),,None Found,+52 442 343 1496,"Josefa Ortiz de Domínguez 104, El Pueblito, 76900 El Pueblito, Qro., México",Taquería, Abre a las 8a.m. del lun,El Pueblito
Barbacoa El Titino,,None Found,,"Geranios 5A, La Negreta, 76907 El Pueblito, Qro., México",Taquería, Abre a las 8a.m.,El Pueblito
Zacahuitl y Cazuelas de Guisados,ueniweb.com,None Found,+52 442 597 2861,"Miguel Hidalgo 31, El Pueblito, 76900 El Pueblito, Qro., México",Restaurante mexicano,,El Pueblito
Tacos BS,facebook.com,None Found,,"Av. Fray Eulalio Hernández Rivera, El Pueblito, 76901 Corregidora, Qro., México",Restaurante mexicano, Abre a las 4p.m.,El Pueblito
Tacos BS,facebook.com,None Found,,"Av. Fray Eulalio Hernández Rivera, El Pueblito, 76901 Corregidora, Qro., México",Restaurante mexicano, Abre a las 4p.m.,El Pueblito
Killer Pizza,killerpizza.com.mx,None Found,+52 442 128 0232,"JOSEFA ORTÍZ DE DOMINGUEZ, Francisco I. Madero ESQUINA, El Pueblito, 76900 Santiago de Querétaro, Qro., México",Pizzería, Abre a las 12p.m.,El Pueblito
Sr. Wings.,senorwings.com.mx,None Found,+52 442 476 0422,"Av. Paseo Constituyentes 1601, Los Pajaros, 76904 El Pueblito, Qro., México",Restaurante de alas de pollo,,El Pueblito
TORTERIA ARI,,None Found,+52 442 255 3994,"Miguel Hidalgo 3, El Pueblito, 76900 El Pueblito, Qro., México",Restaurante, Abre a las 9a.m. del lun,El Pueblito
