Names,Website,Introduction,Phone Number,Address,Type,Opens At,Municipio
Restaurante La Original,facebook.com,None Found,+52 493 126 2099,"Av Plateros 822, Solidaridad, 99010 Fresnillo, Zac., México",Restaurante, Abre a las 8a.m.,Fresnillo
La Parrilla Steak Beer,,None Found,+52 493 932 8856,"Huicot 118, Magisterial, 99000 Fresnillo, Zac., México",Restaurante especializado en filetes, Abre a las 11a.m.,Fresnillo
Restaurante El Crystalito,facebook.com,None Found,,"Augusto Isunsa Escoto 16, Centro, 99000 Fresnillo, Zac., México",Restaurante, Cierra a las 5:30a.m.,Fresnillo
A Las Brasas,,None Found,+52 14931181003,"99000 Centro, Olivo 405, Centro, 99000 Fresnillo, Zac., México",Restaurante, Abre a las 2p.m.,Fresnillo
Gelos Restaurante,,None Found,+52 493 163 0602,"C. Nuevo León 22, Centro, 99000 Fresnillo, Zac., México",Restaurante, Abre a las 9a.m.,Fresnillo
L,,None Found,,"Huicot 2, Del Fresno, Fraccionamiento del Fresno, 99020 Fresnillo, Zac., México",Cobro de deudas,,Fresnillo
Lapa & Lapa,,None Found,+52 493 688 0161,"Av M. Hidalgo 329, Centro, 99000 Fresnillo, Zac., México",Restaurante familiar, Abre a las 8a.m.,Fresnillo
Restaurante El Viejo Mercado,facebook.com,None Found,+52 493 932 8584,"García de La Cadena 18, Centro, 99000 Fresnillo, Zac., México",Restaurante, Abre a las 8a.m.,Fresnillo
Gardens Restaurant,,None Found,+52 493 932 9599,"Álvaro Obregón Nte. 6, Centro, 99000 Fresnillo, Zac., México",Restaurante mexicano, Abre a las 8:30a.m.,Fresnillo
Manduca,,None Found,+52 493 190 4743,"Paseo del Mineral #101A, Col, Emiliano Zapata, 99010 Fresnillo, Zac., México",Restaurante, Abre a las 9a.m.,Fresnillo
Restaurante Mi Refugio,,None Found,+52 493 101 4584,"Francisco Sarabia 61, Centro, 99000 Fresnillo, Zac., México",Restaurante, Abre a las 12p.m. del lun,Fresnillo
Azotea Terraza Bar,facebook.com,None Found,+52 493 939 6425,"Av. Sonora 221, Centro, 99000 Fresnillo, Zac., México",Bar restaurante, Abre a las 4p.m.,Fresnillo
Restaurante Pura Vida,,None Found,+52 493 878 2334,"Honduras 7A, Las Americas, 99030 Fresnillo, Zac., México",Marisquería, Abre a las 11a.m.,Fresnillo
CAPITAL RIBS,facebook.com,None Found,+52 493 983 7665,"Blvd. Hombres Ilustres, C. 20 de Noviembre &, Centro, 99000 Fresnillo, Zac., México",Restaurante americano, Abre a las 2p.m.,Fresnillo
Mariscos Puerto Angel,,None Found,+52 493 983 5686,"Huicot 108, Magisterial, 99020 Fresnillo, Zac., México",Marisquería, Abre a las 10a.m.,Fresnillo
Micheviche,facebook.com,None Found,+52 493 126 4530,"Av. García Salinas Ote. 472 B, Centro, 99000 Fresnillo, Zac., México",Marisquería, Abre a las 10a.m.,Fresnillo
Cocina del Mar,facebook.com,None Found,+52 493 932 2303,"Huicot 112, Magisterial, 99040 Fresnillo, Zac., México",Marisquería, Abre a las 12p.m.,Fresnillo
Taqueria El Capricho,,None Found,,"Huicot 119, Lasalle, 99040 Fresnillo, Zac., México",Taquería,,Fresnillo
Waffles & Coffee Fresnillo,wafflesandcoffee.mx,None Found,+52 493 149 0577,"C. B. Domínguez Sur 319, Centro, 99000 Fresnillo, Zac., México",Restaurante, Abre a las 9a.m.,Fresnillo
El Farol Restaurante,,None Found,,"Av García Salinas Oriente, s/n, Centro, 99000 Fresnillo, Zac., México",Restaurante mexicano, Abre a las 2p.m.,Fresnillo
La Casona Kids,,None Found,+52 493 171 7423,"C. Río Papaloapan 8, Lindavista, 99039 Fresnillo, Zac., México",Restaurante, Abre a las 8a.m.,Fresnillo
Delirio 85 restaurante,,None Found,+52 493 878 3135,"Dr. Ignacio Hierro 124, Electricista, 99090 Fresnillo, Zac., México",Restaurante familiar, Abre a las 8a.m.,Fresnillo
La PALAPA,,None Found,+52 493 935 7164,"Solidaridad, 99011 Fresnillo, Zac., México",Restaurante, Abre a las 8:30a.m.,Fresnillo
RESTAURANTE LA QUEBRADA,facebook.com,None Found,,"Pzla. del Laurel, Centro, 99000 Fresnillo, Zac., México",Marisquería, Cierra a las 12a.m.,Fresnillo
Carnes asadas la soñadora,,None Found,+52 493 126 7737,"Calle de la Luz Pte #29, Centro, 99000 Fresnillo, Zac., México",Parrilla, Abre a las 2:30p.m.,Fresnillo
Birriería Mendoza,facebook.com,None Found,+52 493 932 5092,"Av M. Hidalgo 2, Centro, 99000 Fresnillo, Zac., México",Restaurante, Abre a las 8a.m.,Fresnillo
Mariscos Mi Gusto Es II,,None Found,+52 493 116 3868,"Av Plateros 235, Centro, 99000 Fresnillo, Zac., México",Restaurante, Abre a las 11a.m.,Fresnillo
Anfibio Restaurant,,None Found,+52 493 468 9701,"Prol. Reforma 601-613, Centro, 99000 Fresnillo, Zac., México",Restaurante, Abre a las 9a.m. del lun,Fresnillo
Camarón & Knito,,None Found,,"Calle Mina, C. 18 de Marzo 111, 99000 Fresnillo, Zac., México",Marisquería, Abre a las 11a.m.,Fresnillo
"Mariscos ""El Coco""",facebook.com,None Found,+52 493 933 5367,"C. Higuera sur 103, Venustiano Carranza, 99099 Fresnillo, Zac., México",Marisquería, Abre a las 11a.m.,Fresnillo
Restaurant Campestre Mexico De Mis Sabores,,None Found,,"99185 Fresnillo, Zac., México",Restaurante, Abre a las 9a.m.,Fresnillo
La fogata,,None Found,,"Honduras col, Las Americas, 99030 Fresnillo, Zac., México",Restaurante, Abre a las 7a.m.,Fresnillo
Miura Restaurante Carne & vino,facebook.com,None Found,,"Priv. Libertad 603-649, Centro, 99000 Fresnillo, Zac., México",Restaurante, Abre a las 2p.m.,Fresnillo
"Mariscos ""El Paraíso de... El Pescador""",facebook.com,None Found,+52 493 158 7464,"99000 Centro, Independencia 106, Centro, 99000 Fresnillo, Zac., México",Marisquería, Abre a las 9a.m.,Fresnillo
El Sasonador,,None Found,+52 493 116 3354,"99000 Centro, Av Plateros 147, Centro, Zac., México",Restaurante especializado en pollo,,Fresnillo
Mantarraya cocina del mar,,None Found,+52 493 107 2222,"calle Hacienda de Morelos 12, El Vergel, Colonia Huertas de abajo, 99054 Fresnillo, Zac., México",Restaurante, Abre a las 12p.m.,Fresnillo
El Cuerno de Oro,,None Found,,"99000 Centro, Av B. Juárez 460, Centro, 99000 Fresnillo, Zac., México",Bar, Abre a las 12p.m.,Fresnillo
Tosticarnes,,None Found,,"Huicot 208, Tecnologica, 99020 Fresnillo, Zac., México",Restaurante, Abre a las 2p.m.,Fresnillo
Ilustre Food Park,,None Found,,"Blvd. Hombres Ilustres 18, Centro, 99000 Fresnillo, Zac., México",Restaurante, Abre a las 3p.m.,Fresnillo
Restaurante Yee,yeerestaurante98.wixsite.com,None Found,+52 493 932 9491,"Av Plateros 222, Centro, 99000 Fresnillo, Zac., México",Restaurante, Abre a las 12p.m.,Fresnillo
CHILA Coquito & ASÍ,facebook.com,None Found,+52 493 949 4821,"C. B. Domínguez Sur 307, Centro, 99000 Fresnillo, Zac., México",Restaurante mexicano, Abre a las 9a.m.,Fresnillo
Restaurante Crystal,,None Found,+52 493 935 3038,"América 14, Centro, 99000 Fresnillo, Zac., México",Restaurante mexicano, Abre a las 8a.m.,Fresnillo
MARISCOS YEYE,mexico.pueblosamerica.com,None Found,+52 493 933 4846,"México, C. Cedro 1, Centro, 99000 Fresnillo, Zac., México",Marisquería, Abre a las 9a.m.,Fresnillo
"Aroma Canela, cocina mexicana",,None Found,,"Prol. Reforma 1303, Sector Lagunilla, 99039 Fresnillo, Zac., México",Restaurante mexicano, Abre a las 9a.m.,Fresnillo
Los Mas Chingones De Fresnillo.,,None Found,+52 493 100 2104,"Av Plateros 207-209, Centro, 99000 Fresnillo, Zac., México",Restaurante, Abre a las 10a.m.,Fresnillo
Molli Restaurante,,None Found,,"Morelos Sur, Centro, 99000 Fresnillo, Zac., México",Restaurante de fusión, Cierra a las 10a.m. ,Fresnillo
Molli Restaurante,,None Found,,"Morelos Sur, Centro, 99000 Fresnillo, Zac., México",Restaurante de fusión, Cierra a las 10a.m. ,Fresnillo
Birrieria la michoacana,,None Found,+52 493 124 8989,"99000, Centro, 99000 Fresnillo, Zac., México",Restaurante mexicano, Abre a las 7a.m.,Fresnillo
MARISCOS LA MAREA,,None Found,+52 493 126 8284,"Blvrd Jesus Varela Rico 2A, Col del Valle, 99084 Fresnillo, Zac., México",Marisquería, Abre a las 9a.m.,Fresnillo
ANTOJITOS VILLA,,None Found,+52 493 103 6014,"Av Francisco Villa 510, Francisco Villa, 99054 Fresnillo, Zac., México",Restaurante mexicano, Abre a las 8:30a.m.,Fresnillo
Payo's Tacos & Grill,,None Found,+52 493 126 4122,"C. Jaime Nuño #3, Centro, 99000 Fresnillo, Zac., México",Pub restaurante, Abre a las 8a.m.,Fresnillo
El rey tiburón,,None Found,,"C. López Mateos 212, Electricista, 99090 Fresnillo, Zac., México",Marisquería,,Fresnillo
Loncherias La Ideal,,None Found,+52 493 932 3979,"Av B. Juárez 424, Centro, 99000 Fresnillo, Zac., México",Restaurante, Abre a las 9:30a.m.,Fresnillo
Restaurante Mayeli's,m.facebook.com,None Found,+52 493 932 0619,"C. Higuera 6, Venustiano Carranza, 99099 Fresnillo, Zac., México",Restaurante mexicano, Abre a las 9a.m.,Fresnillo
Mariscos La Barca - Fresnillo Zacatecas,instagram.com,None Found,+52 493 222 2852,"Los Olivos, 99094 Fresnillo, Zac., México",Marisquería, Abre a las 3:30p.m.,Fresnillo
Birriería Betos,,None Found,,"C. Zacatecas 415, Periodistas, 99040 Fresnillo, Zac., México",Restaurante, Abre a las 8:30a.m.,Fresnillo
Tacos Garcia,,None Found,+52 493 942 2884,"P.º del Mineral 513, Lomas de Plateros, 99011 Fresnillo, Zac., México",Taquería, Abre a las 8a.m.,Fresnillo
El Caracol,,None Found,+52 493 932 4352,"P.º del Mineral 487, Lomas de Plateros, 99011 Fresnillo, Zac., México",Marisquería, Abre a las 11a.m.,Fresnillo
Tortería La Ideal,,None Found,+52 493 932 0824,"Laberinto 10, Centro, 99000 Fresnillo, Zac., México",Restaurante mexicano, Abre a las 9:30a.m.,Fresnillo
Restaurante Motel La Fortuna,,None Found,,"Centro, 99000 Fresnillo, Zac., México",Restaurante,,Fresnillo
Payo's Fresnillo,,None Found,+52 493 126 1055,"Huicot 231, Del Fresno, Tecnologica, 99020 Fresnillo, Zac., México",Hamburguesería, Abre a las 9a.m.,Fresnillo
Bolongos,,None Found,,"Av M. Hidalgo 227, Centro, 99000 Fresnillo, Zac., México",Hamburguesería, Abre a las 3p.m.,Fresnillo
Gorditas El Antojo,,None Found,+52 493 113 7056,"P.º del Mineral 513, Lomas de Plateros, 99011 Fresnillo, Zac., México",Restaurante, Abre a las 8a.m.,Fresnillo
LOS TEJABANES café artesanal - orquideas,,None Found,+52 493 933 0282,"Av M. Hidalgo 659, Centro, 99000 Fresnillo, Zac., México",Cafetería, Abre a las 9a.m.,Fresnillo
Las Alonas,,None Found,+52 493 937 2608,"Centro, 99000 Fresnillo, Zac., México",Crepería, Abre a las 6p.m.,Fresnillo
Hong Kong,,None Found,+52 493 932 0575,"Calle Fco. J. Mina, Centro, 99000 Fresnillo, Zac., México",Restaurante chino, Abre a las 12p.m.,Fresnillo
Poca Luz,,None Found,+52 493 101 3222,"C. Margaritas 308, Las Flores, 99050 Fresnillo, Zac., México",Restaurante, Abre a las 7p.m.,Fresnillo
Gordibuenas Fresnillo,facebook.com,None Found,+52 493 142 3930,"esquina con, Avenida Benito Juárez, C. 21 de Marzo 615, Centro, 99000 Fresnillo, Zac., México",Restaurante, Abre a las 8:30a.m. del lun,Fresnillo
Gordibuenas Fresnillo,facebook.com,None Found,+52 493 142 3930,"esquina con, Avenida Benito Juárez, C. 21 de Marzo 615, Centro, 99000 Fresnillo, Zac., México",Restaurante, Abre a las 8:30a.m. del lun,Fresnillo
Lonchería Camino Real,,None Found,+52 493 878 3434,"C. Margaritas 20, Luis Donaldo Colosio, 99050 Fresnillo, Zac., México",Restaurante, Abre a las 10a.m.,Fresnillo
Coctel Y Caldos Mariscos Nicho,,None Found,,"Vid, Real de Minas, 99080 Fresnillo, Zac., México",Restaurante,,Fresnillo
Kome Sushi,,None Found,+52 493 126 4040,"Ensaye 12, Centro, 99000 Fresnillo, Zac., México",Restaurante japonés, Abre a la 1p.m.,Fresnillo
Antojitos Josué's Mercado Hidalgo,m.facebook.com,None Found,+52 493 933 3676,"CLL MERCADO HIDALGO 83, 99000 Fresnillo, Zac., México",Restaurante, Abre a las 9a.m.,Fresnillo
ARRECIFE Cocina Abierta,,None Found,+52 493 125 1558,"Caballitos 27, Francisco Goytia, 99020 Fresnillo, Zac., México",Restaurante, Abre a las 9a.m.,Fresnillo
Tacos Tepechitlán,,None Found,,"C. Oaxaca 24A, Sector Lagunilla, 99039 Fresnillo, Zac., México",Taquería, Abre a las 7:15p.m.,Fresnillo
Mariscos Pepillo.,,None Found,+52 493 100 2104,"99000 Centro,, Av Plateros 216, Centro, Zac., México",Marisquería, Abre a las 10a.m.,Fresnillo
Cocina Lucita,,None Found,+52 493 933 4909,"C. Río Grande 2, Centro, 99070 Centro, Zac., México",Restaurante, Abre a las 9:30a.m. del lun,Fresnillo
Medinas Mar y Tierra,facebook.com,None Found,+52 493 932 9660,"Cjon. 20 de Noviembre 5A, Centro, 99000 Fresnillo, Zac., México",Restaurante mexicano, Abre a las 8:30a.m.,Fresnillo
Gorditas Sarabia,,None Found,+52 493 125 3586,"Francisco Sarabia 77, Centro, 99000 Ejido del Centro, Zac., México",Restaurante, Abre a las 8a.m.,Fresnillo
Balam,,None Found,,"Álvaro Obregón Nte. 202, Centro, 99000 Fresnillo, Zac., México",Restaurante mexicano,,Fresnillo
Mariscos Mazatlán,,None Found,+52 493 932 6579,"99020, C. 20 de Noviembre 439, Centro, 99000 Fresnillo, Zac., México",Marisquería, Abre a las 9a.m.,Fresnillo
Carnitas Plateros,,None Found,,"Av Plateros 244-246, Centro, 99000 Fresnillo, Zac., México",Restaurante, Abre a las 9a.m.,Fresnillo
Mariscos Colima,,None Found,+52 493 932 6205,"99039, C. A. Serdán 64A, Sector Lagunilla, 99000 Fresnillo, Zac., México",Marisquería, Abre a las 12p.m.,Fresnillo
Mariscos Colima,,None Found,+52 493 932 6205,"99039, C. A. Serdán 64A, Sector Lagunilla, 99000 Fresnillo, Zac., México",Marisquería, Abre a las 12p.m.,Fresnillo
Gorditas El Vergel,,None Found,,"C. Barron #117, Alto, 99070 Fresnillo, Zac., México",Restaurante,,Fresnillo
Gran Luchito,,None Found,,"C. Dr. Burton E. Grossman 321, Industrial, 99030 Fresnillo, Zac., México",Restaurante,,Fresnillo
Gran Luchito,,None Found,,"C. Dr. Burton E. Grossman 321, Industrial, 99030 Fresnillo, Zac., México",Restaurante,,Fresnillo
Huapalli Pizzería,,None Found,+52 493 126 3614,"Av Plateros 3, Emiliano Zapata, 99010 Fresnillo, Zac., México",Restaurante, Abre a la 1p.m.,Fresnillo
Mariscos Alex,,None Found,+52 493 932 5170,"Av B. Juárez, Centro, 99000 Fresnillo, Zac., México",Marisquería, Abre a las 8a.m.,Fresnillo
Restaurant Bar And Grill la Caprichosa,,None Found,,"Quinta Avenida 4, Centro, 99000 Fresnillo, Zac., México",Restaurante,,Fresnillo
"Taqueria los primos (fresnillo, zac.)",,None Found,,"Av. García Salinas Pte., Centro, 99000 Fresnillo, Zac., México",Taquería, Abre a las 8a.m.,Fresnillo
Casa Don Julián,,None Found,,"Lázaro Cárdenas 608, Centro, 99000 Centro, Zac., México",Restaurante, Abre a las 8a.m.,Fresnillo
Taqueria Los Gueros,,None Found,,"Av. Enrique Estrada 616, Real de Minas, 99080 Fresnillo, Zac., México",Restaurante,,Fresnillo
Gorditas Mary Vital,,None Found,+52 493 931 3192,"Ramón Corona 16-C, Benito Juárez, 99020 Fresnillo, Zac., México",Restaurante, Abre a las 8:30a.m.,Fresnillo
Restaurante La Plata,,None Found,,"La Villita, Av. Enrique Estrada, Los Lamentos, 99034 Fresnillo, Zac., México",Restaurante, Abre a las 8a.m. del lun,Fresnillo
Restaurante La Plata,,None Found,,"La Villita, Av. Enrique Estrada, Los Lamentos, 99034 Fresnillo, Zac., México",Restaurante, Abre a las 8a.m. del lun,Fresnillo
Gym Nutrition,instagram.com,None Found,+52 493 126 2856,"Topiltzin 114, Centro, 99000 Centro, Zac., México",Restaurante, Abre a las 9a.m.,Fresnillo
The Wings,,None Found,+52 493 944 6422,"C. López Mateos 305, Maravillas, 99090 Fresnillo, Zac., México",Restaurante de alas de pollo, Abre a las 3p.m.,Fresnillo
GAMA'S ITALIANO,,None Found,,"Calle Del Parque 3 Sur, Esparza, 99080 Fresnillo, Zac., México",Restaurante italiano, Abre a las 9a.m.,Fresnillo
La Gloria Zacatecas Gorditas Pozole Tamales,,None Found,+52 493 935 3313,"Art. 27 412-B Colonia, Luis Donaldo Colosio, 99036 Fresnillo, Zac., México",Restaurante mexicano, Abre a las 4:30p.m. del mar,Fresnillo
Gorditas Don Joaquin,,None Found,+52 493 878 8033,"López Mateos 430, Lindavista, 99039 Fresnillo, Zac., México",Restaurante, Abre a las 8a.m.,Fresnillo
CARNES Y MARISCOS MEDINA,,None Found,+52 493 688 1250,"Allende # 4, Centro, 99000 Fresnillo, Zac., México",Marisquería, Abre a las 9a.m.,Fresnillo
Hermoso Cariño,,None Found,,"Ensaye 109, Centro, 99000 Fresnillo, Zac., México",Restaurante, Abre a las 11a.m. del lun,Fresnillo
El Pacifíco Mariscos,,None Found,+52 493 932 6233,"Álvaro Obregón Nte. 13, Centro, 99000 Fresnillo, Zac., México",Marisquería, Abre a las 9a.m.,Fresnillo
Restaurante Casa Blanca,,None Found,+52 493 932 1288,"Av. García Salinas Ote. 503-Int. A, Centro, 99000 Fresnillo, Zac., México",Restaurante, Abre a las 7a.m.,Fresnillo
La Caprichosa,facebook.com,None Found,+52 493 939 7696,"18 de Julio, 99040 México, Zac., México",Restaurante,,Fresnillo
Carnitas Plateros,,None Found,+52 493 932 2060,"Calle Fco. J. Mina 203, Centro, 99000 Fresnillo, Zac., México",Restaurante mexicano, Abre a las 8:30a.m.,Fresnillo
MasterTako,facebook.com,None Found,+52 493 136 8776,"Blvd. Hombres Ilustres 22, Centro, 99000 Fresnillo, Zac., México",Restaurante mexicano, Abre a las 8a.m.,Fresnillo
Neveria los cocos,,None Found,+52 493 170 4669,"Esquina con Tabasco, Lázaro Cárdenas #301, Centro, 99000 Fresnillo, Zac., México",Restaurante especializado en sundae, Abre a las 12p.m.,Fresnillo
Carl's Jr. Fresnillo,carlsjr.com.mx,"Cadena de comida rápida, famosa por su variedad de hamburguesas apiladas y promociones, además de batidos.",+52 493 688 1350,"López Mateos 1033, Nueva Esperanza, 99014 Fresnillo, Zac., México",Restaurante de comida rápida, Abre a las 10a.m.,Fresnillo
Carl's Jr. Fresnillo,carlsjr.com.mx,"Cadena de comida rápida, famosa por su variedad de hamburguesas apiladas y promociones, además de batidos.",+52 493 688 1350,"López Mateos 1033, Nueva Esperanza, 99014 Fresnillo, Zac., México",Restaurante de comida rápida, Abre a las 10a.m.,Fresnillo
Taqueria Bernal,m.facebook.com,None Found,,"Quintana Roo, C. González Bocanegra 115, 99000 Fresnillo, Zac., México",Restaurante, Abre a las 2p.m.,Fresnillo
El Taco Ranchero,,None Found,+52 493 100 3936,"Av. García Salinas Ote., Centro, 99000 Fresnillo, Zac., México",Taquería, Abre a las 5p.m.,Fresnillo
Rosticeria El Forastero,facebook.com,None Found,+52 493 933 1183,"Olivo 125, Centro, 99000 Fresnillo, Zac., México",Restaurante especializado en pollo, Abre a las 9a.m.,Fresnillo
Gorditas de Horno YUCATÁN,,None Found,,"Yucatán 29, Centro, 99000 Ejido del Centro, Zac., México",Restaurante, Abre a las 7a.m. del lun,Fresnillo
Gorditas Doña María,,None Found,+52 493 932 1708,"Av Plateros 319, Centro, 99070 Fresnillo, Zac., México",Restaurante mexicano, Abre a las 8a.m.,Fresnillo
Saori sushi fresnillo,,None Found,+52 493 112 0241,"Huicot 203-A, Del Fresno, Fraccionamiento del Fresno, 99020 Fresnillo, Zac., México",Restaurante, Abre a las 2p.m.,Fresnillo
Gorditas Los Cuates,,None Found,+52 9835969,"Francisco Goytia, 99020 Fresnillo, Zac., México",Restaurante, Abre a las 9a.m.,Fresnillo
Camarón Panzón,,None Found,+52 493 939 7696,"C. Zacatecas 298, Centro, 99040 Fresnillo, Zac., México",Restaurante,,Fresnillo
Pollo Feliz Fresnillo,,None Found,+52 493 932 2903,"Huicot 54, Del Fresno, Fraccionamiento del Fresno, 99020 Fresnillo, Zac., México",Restaurante especializado en pollo, Abre a las 10:30a.m.,Fresnillo
