Names,Website,Introduction,Phone Number,Address,Type,Opens At,Municipio
Restaurant La Mexicana,facebook.com,None Found,,"Prof. Victoriano Treviño 200, Cabecera Municipal, 66000 García, N.L., México",Restaurante mexicano, Abre a las 9a.m.,García
Los primos,,None Found,+52 81 8283 1583,"Lerdo de Tejada, Centro de García, García, N.L., México",Restaurante mexicano, Abre a las 8:30a.m.,García
La Terraza,facebook.com,None Found,,"Heberto Castillo Martínez, 848, Paseo de las Minas, 66003 García, N.L., México",Restaurante, Abre a las 8:30a.m.,García
"La Doña ""Comida Mexicana""",facebook.com,None Found,+52 81 1500 8933,"Nardo 610, Paseo del Nogal, 66004 García, N.L., México",Restaurante, Abre a las 10a.m.,García
El Costeño,,None Found,+52 81 8283 0107,"Escobedo 100, El Fraile I, 66005 García, N.L., México",Marisquería, Abre a las 11:30a.m.,García
La Milpa,,None Found,+52 81 1352 1468,"Villa Roma Col, Privadas de las Villas, 66000 García, N.L., México",Restaurante,,García
"Restaurante La Quinta, García, N. L.",,None Found,+52 81 8283 0405,"Lerdo de Tejada 101, San Martín, 66005 García, N.L., México",Restaurante mexicano, Abre a las 8a.m. del lun,García
Casco Antiguo,,None Found,+52 81 8283 3424,"Arnulfo García 106, Cabecera Municipal, 64720 García, N.L., México",Restaurante, Abre a las 9a.m.,García
Tierra a la vista,,None Found,,"Roble, Las Arboledas, 66004 García, N.L., México",Marisquería,,García
TACOS LOS RODRIGUEZ,,None Found,,"20 de Noviembre 168, El Fraile II, 66005 García, N.L., México",Taquería, 2a.m. ,García
Mariscos Diego,,None Found,,"Fraccionamiento Avenida Lázaro Cárdenas 501, Emiliano Zapata, 66005 García, N.L., México",Restaurante familiar, Cierra a las 8p.m.,García
T-Grill,,None Found,+52 81 1630 3479,"Privadas de las Villas, 66003 García, N.L., México",Parrilla, Abre a las 10a.m.,García
La Villita Grill,,None Found,+52 81 2232 7942,"Hacienda del Sol, 66003 García, N.L., México",Parrilla, Abre a las 7:30p.m.,García
LA CEVICHERIA DE GOYITO,,None Found,+52 81 4545 7610,"Alcatraz 611, Paseo del Nogal, 66000 García, N.L., México",Marisquería, Abre a las 12p.m.,García
Restaurante De Mariscos El Pirata,,None Found,+52 81 2697 2726,"Av. Hacienda del Sol 364, 66000 García, N.L., México",Marisquería, Abre a las 12p.m.,García
La Tradición Nuevo León,,None Found,+52 81 2597 4137,"Titanio 103-Local D, Paseo de las Minas, 66001 García, N.L., México",Restaurante, Abre a las 8a.m. del lun,García
Fonda el Gustito,,None Found,+52 81 3577 0648,"Las Villas 119 Col, Privadas de las Villas, 66003 García, N.L., México",Restaurante, Abre a las 8a.m.,García
EL REY,,None Found,+52 81 2115 9773,"Las Villas, Privadas de las Villas, 66003 García, N.L., México",Restaurante, Abre a las 11a.m.,García
Wings & Wheels Garcia NL,,None Found,+52 81 1237 0646,"Heberto Castillo Martínez 1360, Mirador de García, 66003 García, N.L., México",Restaurante de alas de pollo, Abre a las 12p.m.,García
La Huasteca,,None Found,+52 81 2668 0330,"Garza Ayala 105, Cabecera Municipal, 66000 García, N.L., México",Restaurante, Abre a las 10a.m.,García
Noreste Grill,norestegrill.com.mx,None Found,+52 81 4528 2885,"Blvd. Heberto Castillo Martínez, Privadas de las Villas, 66003 García, N.L., México",Restaurante, Abre a las 12p.m.,García
TACOS EL GUERO M',facebook.com,None Found,+52 81 2640 7821,"Praderas de Guerrero, Urbivilla del Prado, 66000 García, N.L., México",Taquería, 1:30a.m. ,García
Las chidas taco&burguer (hamburguesas al carbón),facebook.com,None Found,+52 81 2737 6414,"Nuevo Amanecer, 66004 García, N.L., México",Hamburguesería, 2a.m. ,García
Tacos el toreado Suc Sor Juana,facebook.com,None Found,+52 81 1779 6213,"Sor Juana Inés de La Cruz 200-Local 6, 7, Villa de los Nogales, 66004 García, N.L., México",Taquería, Abre a las 6p.m.,García
Taquería El Primo,,None Found,+52 81 1630 3479,"Cabecera Municipal, 66000 García, N.L., México",Taquería, Abre a las 8:30a.m. del lun,García
El Botanero De Villa & More,,None Found,+52 81 2619 9709,"Lerdo de Tejada 102, Cabecera Municipal, 66000 García, N.L., México",Restaurante, 1:30a.m. ,García
Mariscos Mar y Tierra La Familia,,None Found,+52 81 2643 2947,"Villa Milán, 220Privadas de las Villas, 66003 García, N.L., México",Marisquería, Abre a las 12p.m.,García
Mr Tlaquepaque Garcia,,None Found,+52 81 1564 8630,"Sierra Hermosa 201, Sierra Real, 66000 García, N.L., México",Taquería, Abre a las 6p.m.,García
I Like Pizza,wa.me,None Found,+52 81 1422 0778,"Heberto Castillo Martínez 101, Emiliano Zapata, 66005 García, N.L., México",Pizzería, Abre a las 8:30a.m.,García
Appetitozza pizza,,None Found,+52 81 1004 7964,"Genaro Garza García 301, Cabecera Municipal, 66000 García, N.L., México",Restaurante, Abre a la 1p.m.,García
IGA Snack,,None Found,+52 81 0000 0000,"Cor. Jesús Fernández 304, Nuevo Amanecer, 66005 García, N.L., México",Restaurante de comida rápida, Abre a las 11a.m.,García
"Tacos de Guisos y comidas Caseras ""CLAU""",,None Found,+52 81 1741 1601,"Juárez, José Páez García, 66008 García, N.L., México",Restaurante mexicano, Abre a las 8a.m. del lun,García
"Tacos ""Los González""",,None Found,,"Sierra Real, 66004 García, N.L., México",Restaurante mexicano, Abre a las 8a.m. del lun,García
Los Vientos de García,losvientosdegarcia.com,None Found,+52 81 8283 0462,"Mariano Escobedo, Cabecera Municipal, 66000 García, N.L., México",,,García
Restaurante de Mariscos La Bahia,,None Found,+52 81 1630 3479,"Calle Camino a los Monteros, Bugambilias, 66006 García, N.L., México",Marisquería, Abre a las 12p.m.,García
Restaurant García General Zuazua,,None Found,,"Carr. Monterrey - Nuevo Laredo, 65580 Gral. Zuazua, N.L., México",Restaurante, Abre a las 7a.m.,García
"Mariscos ""LA MAREA AZUL""",,None Found,,"Villa Cataluña, Privadas de las Villas, 66003 García, N.L., México",Marisquería, Abre a las 10a.m.,García
Restaurante La Siberiana,,None Found,+52 834 652 3694,"Ajo 148, Los Nogales, 66000 García, N.L., México",Restaurante, Abre a las 10a.m. del lun,García
El Pollo Loco,elpolloloco.com.mx,"Cadena de comida rápida local, famosa por los clásicos mexicanos preparados con pollo a la parrilla.",+52 800 999 5626,"Blvd. Heberto Castillo Martínez 1360-Loc. 14, Mirador de García, 66003 García, N.L., México",Restaurante de comida rápida, Abre a las 10a.m.,García
La Siberiana Plaza de la Mujer,facebook.com,None Found,+52 81 8283 2985,"Fraccionamiento Avenida Lázaro Cárdenas 307, Emiliano Zapata, 66005 García, N.L., México",Restaurante familiar, Abre a las 10a.m.,García
Tacos Y Burger's Javi,,None Found,+52 81 2624 2849,"Las Villas, Privadas de las Villas, 66000 García, N.L., México",Restaurante,,García
"MARISCOS TAMPICO "" del viejo Tom'",,None Found,+52 81 1703 5649,"Hacienda Santo Domingo, Av. Hacienda del Sol # 241, Hacienda del Sol, 66000 García, N.L., México",Marisquería,,García
Sibers Mexicana,,None Found,+52 81 1096 8787,"Abraham Lincoln 431, García, 66023 García, N.L., México",Restaurante mexicano, Abre a las 10a.m.,García
"Birria de Res, Barbacoa de Borrego, Menudo y Consome",,None Found,+52 81 2212 8499,"C. Baleares, Real de Capellania, 66004 García, N.L., México",Restaurante, Abre a las 8a.m.,García
EL Güero Papas,,None Found,+52 81 2262 8891,"Sor Juana Inés de La Cruz 534, Paseo del Nogal, 66004 García, N.L., México",Hamburguesería, Abre a las 6p.m.,García
Barbacoa la Capilla,facebook.com,None Found,+52 81 1182 5239,"C. Burgos 401, 66004 García, N.L., México",Restaurante especializado en barbacoa, Abre a las 7a.m.,García
Restaurant García,restaurantgarcia.com,None Found,+52 81 8601 9189,"Carr. Monterrey - Saltillo 501, 66046 Rancho Carvajal, N.L., México",Restaurante, Abre a las 7a.m.,García
Mariscos EL MUELLE,,None Found,,"Sor Juana Inés de La Cruz 506, Paseo del Nogal, 66000 García, N.L., México",Marisquería, Abre a las 12p.m.,García
MARISCOS EL CARRIZAL,,None Found,+52 81 1187 9329,"carretera a Icamole 249 B, Joya del carrizal, 66012 García, N.L., México",Marisquería, Abre a las 9a.m.,García
ARANDAS RESTAURANT MEXICANO,,None Found,+52 81 2086 1589,"Victoria 320, Cabecera Municipal, 66000 García, N.L., México",Restaurante,,García
Tacos De Vapor Anita,,None Found,,"Paseo del Nogal, 66004 García, N.L., México",Taquería, Abre a las 8a.m.,García
tacos neto,,None Found,+52 81 1849 6566,"66005, Escobedo 110, El Fraile I, García, N.L., México",Taquería, 2a.m. ,García
Mariscos El Delfin,,None Found,+52 81 1375 9225,"Titanio 230, Paseo de las Minas, 66000 García, N.L., México",Marisquería, Abre a las 11a.m.,García
Tortilleria de Leon y Molino,,None Found,+52 81 1630 3479,"Av. Paseo de los Leones, Hacienda del Sol, 66003 García, N.L., México",Tienda de alimentación, Abre a las 5a.m.,García
"Antojitos Mexicanos ""PAVE""",,None Found,+52 81 2586 0470,"C. Bosques de Monterreal 123, Hacienda del Sol, 66003 García, N.L., México",Restaurante, Abre a las 6p.m.,García
Kentucky Fried Chicken,kfc.com.mx,None Found,+52 55 4486 5995,"Heberto Castillo Martínez 1270, Centro Villa de García (Casco, 66003 García, N.L., México",Restaurante especializado en pollo, Abre a las 10a.m.,García
POLLOS AL ATAUD EL AUSTIN suc. Garcia,,None Found,+52 81 2689 7689,"Palo Blanco 203, Los Nogales, 66003 García, N.L., México",Restaurante, Abre a las 12p.m. del jue,García
Restaurant García Santiago,restaurantgarcia.com,None Found,+52 81 8266 1300,"Km 258.5, Carr Nacional, El Ranchito, 67303 Santiago, N.L., México",Restaurante mexicano, Abre a las 7a.m.,García
Comida china Real García,facebook.com,None Found,+52 81 1653 2145,"66004 García, N.L., México",,,García
Tacos Y Hamburguesas Potosino,,None Found,+52 81 1575 4390,"Níquel 101, Paseo de las Minas, 66003 García, N.L., México",Taquería, Cierra a las 2:30a.m. ,García
ANTOJITOS MEXICANOS EL GRANDE,,None Found,,"66008 García, N.L., México",Restaurante mexicano,,García
Tacos Aregon,,None Found,+52 81 1703 8369,"Titanio esquina, Mercurio 100, Paseo de las Minas, 66000 García, N.L., México",Taquería, 1:30a.m. ,García
Tacos Aregon,,None Found,+52 81 1703 8369,"Titanio esquina, Mercurio 100, Paseo de las Minas, 66000 García, N.L., México",Taquería, 1:30a.m. ,García
El Asador de Don Pancho,,None Found,+52 81 1889 6494,"Gardenia 204, Benito Juárez, 66005 García, N.L., México",Restaurante mexicano, Abre a las 8a.m. del lun,García
La Bikina Antojitos Mexicanos,,None Found,+52 81 3419 6177,"Paseo de Los Leones #201, Paseo de las Torres, 66004 García, N.L., México",Restaurante, 2a.m. ,García
La bonita food & snack,,None Found,+52 81 1159 7339,"Cabecera Municipal, 66000 García, N.L., México",Restaurante, Abre a las 9a.m.,García
Carl's Jr. García,carlsjr.com.mx,"Cadena de comida rápida, famosa por su variedad de hamburguesas apiladas y promociones, además de batidos.",+52 81 1877 7050,"Heberto Castillo Martínez, Las Arboledas, 66004 García, N.L., México",Hamburguesería, Abre a las 8a.m.,García
Bella Restaurant. II,,None Found,+52 81 1213 8733,"Ajo 134, Los Nogales, 66000 García, N.L., México",Marisquería, Abre a las 9a.m.,García
Carnitas chon estilo toluca,,None Found,+52 81 3456 2116,"Rosal 200, Los Nogales, 66000 García, N.L., México",Restaurante, Abre a las 8a.m.,García
SR. PAPA,,None Found,,"Avance Popular 516, Paseo del Nogal, 66004 García, N.L., México",Restaurante, Abre a las 5p.m.,García
"Menudo y Barbacoa “Los Reyes""",,None Found,,"Av. Paseo de los Leones 319, Hacienda del Sol, 66003 García, N.L., México",Restaurante mexicano,,García
"Menudo y Barbacoa “Los Reyes""",,None Found,,"Av. Paseo de los Leones 319, Hacienda del Sol, 66003 García, N.L., México",Restaurante mexicano,,García
Tacos Hernández,,None Found,,"Titanio, Col. Hacienda Del Sol, 66003 García, N.L., México",Taquería,,García
Little Caesars sucursal Garcia,littlecaesars.com,"Cadena de comida para llevar que ofrece alitas de pollo, palitos de pan y pizza hecha con masa casera.",+52 81 2270 6268,"Heberto Castillo Martínez 1000, Mirador de García, 66003 García, N.L., México",Pizzería, Abre a las 11a.m.,García
""" EL MANÁ DE GARCIA"".",,None Found,+52 81 1201 5040,"Villa Madrid, Las Villas 401, Privadas de las Villas, 66003 García, N.L., México",Restaurante, Abre a las 8a.m.,García
Pizza Deprizza Garcia,,None Found,+52 81 2263 1590,"Titanio 128, Paseo de las Minas, 66003 García, N.L., México",Pizzería, Abre a las 10:30a.m.,García
Puerto 19,,None Found,+52 81 2526 6662,"Fr. Juan Suárez 99, Fray Juan Antonio de Sobrevilla, 66005 García, N.L., México",Restaurante de marisco donburi,,García
Smash Boys Mx Sucursal García,,None Found,+52 81 8778 7174,"Sierra Real 331, 66004 García, N.L., México",Restaurante, Abre a las 6p.m.,García
Comidas la Caprichosa,,None Found,+52 81 2337 0075,"Portal de Lincoln, 66013 García, N.L., México",Taquería, Abre a las 7p.m.,García
Comidas la Caprichosa,,None Found,+52 81 2337 0075,"Portal de Lincoln, 66013 García, N.L., México",Taquería, Abre a las 7p.m.,García
Church's Chicken - García,churchs.com.mx,"Cadena de comida rápida que ofrece pollo frito, sándwiches, alitas y acompañamientos estilo sureño.",+52 81 1422 0333,"Sor Juana Inés de La Cruz 1000, Las Arboledas, 66000 García, N.L., México",Restaurante especializado en pollo, Abre a las 10a.m.,García
Pollo box Suc. Sor Juana,facebook.com,None Found,+52 81 4774 6040,"Sor Juana Inés de La Cruz Sn, Las Arboledas, 66000 García, N.L., México",Restaurante especializado en pollo, Abre a las 10:30a.m.,García
Menudo y Barbacoa Anguiano,,None Found,,"Fraccionamiento Avenida Lázaro Cárdenas 101, El Fraile I, 66005 García, N.L., México",Restaurante, Abre a las 5:30a.m.,García
Pollos Don Moy,,None Found,,"20 de Noviembre 168, El Fraile II, 66005 García, N.L., México",Restaurante especializado en pollo, Abre a las 12p.m.,García
Comida China,,None Found,+52 81 2514 1434,"Privadas de las Villas, 66003 García, N.L., México",Restaurante chino, Abre a las 11a.m.,García
Restaurante Cárdenas García AUTOPISTA,restaurantgarcia.com,"Luminoso comedor familiar con cocina mexicana especialista en carne seca, pan y dulces tradicionales.",+52 81 8319 7832,"Kilómetro 25.5, Autopista Monterrey – Nuevo Laredo, Centro, 65550 Ciénega de Flores, N.L., México",Restaurante mexicano, Abre a las 7a.m.,García
Restaurante Cárdenas García AUTOPISTA,restaurantgarcia.com,"Luminoso comedor familiar con cocina mexicana especialista en carne seca, pan y dulces tradicionales.",+52 81 8319 7832,"Kilómetro 25.5, Autopista Monterrey – Nuevo Laredo, Centro, 65550 Ciénega de Flores, N.L., México",Restaurante mexicano, Abre a las 7a.m.,García
Sin vergüenza Burgers,instagram.com,None Found,+52 81 2031 2533,"Nardo 610, Paseo del Nogal, 66005 García, N.L., México",Restaurante, Abre a las 12p.m.,García
Tacos Del Chiskys,,None Found,+52 81 1213 1415,"García, alcali tercer sector, Marcasita, Villas de Álcali, 66000 García, N.L., México",Taquería, Abre a las 9p.m.,García
Domino's Garcia,dominosmx.app.link,Cadena de comida a domicilio o para llevar con gran variedad de pizzas y otros platos y acompañamientos.,+52 81 1087 5599,"Heberto Castillo Martínez 733, Nuevo Amanecer, 66004 García, N.L., México",Pizzería, Abre a las 11a.m.,García
Elotes Zurita,,None Found,+52 81 1789 6483,"Hacienda Mamulique, Col. Hacienda Del Sol, 66003 García, N.L., México",Restaurante de comida rápida, Abre a las 5p.m.,García
Tino Pizza,,None Found,+52 81 1422 0888,"C. Bario 101, Paseo de las Minas, 66003 García, N.L., México",Pizzería, Abre a las 11a.m.,García
TACOS GUTIERREZ,,None Found,+52 81 1039 1001,"Violeta 556, Villa de los Nogales, 66004 García, N.L., México",Taquería,,García
TACOS GUTIERREZ,,None Found,+52 81 1039 1001,"Violeta 556, Villa de los Nogales, 66004 García, N.L., México",Taquería,,García
Hamburguesas Chava García,facebook.com,None Found,+52 81 8176 3592,"Sierra Real 321, 66006 García, N.L., México",Hamburguesería, Abre a las 6p.m.,García
Mister Pizza García,pedidos.misterpizza.com.mx,None Found,+52 81 8147 0601,"Las Villas 200, Privadas de las Villas, 66003 García, N.L., México",Pizzería, Abre a las 11a.m.,García
Maki Roll & Snack,facebook.com,None Found,+52 81 1756 0195,"Escobedo 303, El Fraile I, 66005 García, N.L., México",Restaurante japonés, Abre a las 2p.m.,García
Mutcha Pizza Garcia,mutchapizza.com.mx,None Found,+52 81 8283 2050,"Sor Juana Inés de La Cruz 200, Villa de los Nogales, 66004 García, N.L., México",Pizzería, Abre a las 11a.m.,García
CHICHARRONES Y CARNITAS PLATA,,None Found,+52 81 8468 4934,"Las Villas 456 A, Privadas de las Villas, 66003 García, N.L., México",Restaurante mexicano, Abre a las 8a.m.,García
Tacos Tijuana,,None Found,+52 81 3578 3912,"Balcones de Sta. Cruz 67, Los Nogales, 66006 García, N.L., México",Taquería, 1:30a.m. ,García
Colmillo Arboleda,colmillo.mx,None Found,+52 81 1988 8229,"Parque Arboleda, Av. del Roble 660-Local 303, Valle del Campestre, 66265 San Pedro Garza García, N.L., México",Restaurante, 2a.m. ,García
Colmillo Arboleda,colmillo.mx,None Found,+52 81 1988 8229,"Parque Arboleda, Av. del Roble 660-Local 303, Valle del Campestre, 66265 San Pedro Garza García, N.L., México",Restaurante, 2a.m. ,García
Pizza Hut,pizzahut.com.mx,"Cadena de comida para llevar y a domicilio, conocida por sus pizzas, alitas, pasta, postres y guarniciones.",+52 55 8250 5650,"Heberto Castillo Martínez 1270 Centro Villa de García, 66000 García, México",Pizzería, Abre a las 11a.m.,García
Tacos los García,facebook.com,None Found,+52 81 2569 3474,"Av. Hacienda del Sol 533, Heroes De Capellania, 66003 García, N.L., México",Restaurante de comida rápida, Abre a las 5p.m. del lun,García
Que Pollo Minas,,None Found,,"Titanio 150, Paseo de las Minas, 66003 García, N.L., México",Restaurante especializado en pollo, Abre a las 10a.m.,García
EL MOLCAJETE TACOS,,None Found,+52 81 1374 0263,"Las Villas, Villa Andorra &, Privadas de las Villas, 66000 García, N.L., México",Taquería, Abre a las 7a.m. del lun,García
Restaurante García (CIENEGA),restaurantgarcia.com,None Found,+52 825 238 0038,"Independencia No. 705, Centro, 65550 Ciénega de Flores, N.L., México",Restaurante mexicano, Abre a las 7a.m.,García
Hot Dogs “El gordo”,,None Found,+52 81 1497 2879,"José Martí 107, Nuevo Amanecer, 66005 García, N.L., México",Restaurante, Abre a las 7p.m.,García
ANTOJITOS MEXICANOS JESSY,,None Found,+52 81 3590 0457,"Praderas de Durango 602, Urbivilla del Prado, 66004 García, N.L., México",Restaurante de comida para llevar, Abre a las 9a.m.,García
Eliza Velázquez Puente,,None Found,,"Benito Juárez 66005, INFONAVIT los Nogales, 66000 García, N.L., México",Restaurante,,García
Tacos Dayla,,None Found,,"Heberto Castillo Martínez, Paseo de las Minas, 66000 García, N.L., México",Taquería, Abre a las 6a.m. del lun,García
Club de Pollos,clubdepollos.com,None Found,+52 81 2075 2295,"Heberto Castillo Martínez, Sin Nombre de Col 1, 66004 García, N.L., México",Restaurante, Abre a las 11a.m.,García
Doña tota,donatota.com,None Found,,"Heberto Castillo Martínez 101, Nuevo Amanecer, 66004 García, N.L., México",Restaurante de comida rápida, Abre a las 8a.m.,García
"TACOS A'VAPOR ""D GARCIA""",,None Found,+52 81 1797 9986,"Av. del Hospital, Valle de San Blas, 66003 García, N.L., México",Taquería, Abre a las 7:15a.m. del mar,García
"TACOS A'VAPOR ""D GARCIA""",,None Found,+52 81 1797 9986,"Av. del Hospital, Valle de San Blas, 66003 García, N.L., México",Taquería, Abre a las 7:15a.m. del mar,García
Restaurant García,restaurantgarcia.com,None Found,+52 844 246 4174,"autopista carbonera ojo caliente, 25385 Arteaga, Coah., México",Restaurante, Abre a las 7a.m.,García
Restaurante García,restaurantgarcia.com,None Found,+52 81 8319 7875,"Carr. Monterrey - Nuevo Laredo 708, Sin Nombre de Col 17, 66616 Cdad. Gral. Escobedo, N.L., México",Restaurante, Abre a las 7a.m.,García
TOSTADERÍA MADRID,facebook.com,None Found,+52 81 3593 0198,"Madrid, 66004 García, N.L., México",Restaurante mexicano, Abre a las 12p.m.,García
Cara de Vaca,caradevaca.com,"Restaurante refinado, con un ambiente moderno lleno de plantas, en el que se ofrece gastronomía creativa.",+52 81 2676 9800,"R. de la Plata 448, Del Valle, 66220 San Pedro Garza García, N.L., México",Bar restaurante, 2a.m. ,García
Chicharrónes Villalobos,,None Found,+52 81 2007 6996,"Av Lincoln & Av principal, Héroes de Lincoln, 66013 García, N.L., México",Restaurante, Abre a las 7a.m. del lun,García
Los Cochiss,los-cochiss.ola.click,None Found,+52 81 1537 8079,"Fray Andrés de olmos 432, El Fraile II, 66005 García, N.L., México",Restaurante mexicano, Abre a las 12p.m.,García
"Tostadas Tipo Siberia ""La Gordis""",,None Found,,"16 de Septiembre 100, Las Villas, 66004 García, N.L., México",Restaurante mexicano, Abre a las 6p.m.,García
