Names,Website,Introduction,Phone Number,Address,Type,Opens At,Municipio
Las Cúpulas Restaurant-Bar,facebook.com,None Found,+52 871 222 1321,"Ignacio Ramírez #632 pte, Col. Centro, 35000 Gómez Palacio, Dgo., México",Restaurante familiar, Abre a las 8a.m.,Gómez Palacio
La Pitanza,facebook.com,None Found,+52 871 455 0500,"Blvd. Ejército Mexicano Km. 4.5, Rinconadas Hamburgo, 35010 Gómez Palacio, Dgo., México",Restaurante, Abre a las 7a.m.,Gómez Palacio
New York,,None Found,+52 871 714 4684,"Blvd. Miguel Alemán 564-Bis, El Campestre, 35080 Gómez Palacio, Dgo., México",Bar restaurante, Abre a las 8a.m.,Gómez Palacio
BARRA HIDALGO,facebook.com,None Found,+52 871 715 1612,"Av Hidalgo 819, Zona Centro, 35000 Gómez Palacio, Dgo., México",Restaurante mexicano, Cierra a las 2a.m. ,Gómez Palacio
Restaurant Titos BBQ,,None Found,+52 871 750 0600,"Francisco González de la Vega 169, Valle del Nazas, 35070 Gómez Palacio, Dgo., México",Restaurante americano, Abre a las 2p.m.,Gómez Palacio
La troje Bellavista,latrojebellavist.wordpress.com,None Found,+52 871 760 0868,"Independencia 1042, Amp Bellavista, 35058 Gómez Palacio, Dgo., México",Marisquería, Abre a las 11a.m.,Gómez Palacio
Martins Gomez Palacio,martins.com.mx,None Found,+52 871 714 7541,"Blvd. Miguel Alemán s/n, Las Rosas, 35090 Gómez Palacio, Dgo., México",Restaurante mexicano, Abre a las 7a.m.,Gómez Palacio
La Jerezana,,None Found,+52 871 714 1238,"Av Morelos 357, Zona Centro, 35000 Gómez Palacio, Dgo., México",Taquería, 1a.m. ,Gómez Palacio
Restaurante Los Aguachiles,aguachiles.wordpress.com,None Found,+52 871 737 3662,"Suchil 137, Nuevo Refugio, 35029 Gómez Palacio, Dgo., México",Marisquería, Abre a las 10a.m.,Gómez Palacio
Restaurante La Esquina,,None Found,+52 871 210 0909,"Av Morelos 472, Zona Centro, 35000 Gómez Palacio, Dgo., México",Restaurante, Abre a las 7:30a.m.,Gómez Palacio
El Compita,m.facebook.com,None Found,+52 871 285 2430,"Blvd. José Rebollo Acosta 484, San Isidro, 35044 Gómez Palacio, Dgo., México",Marisquería, Abre a las 10a.m.,Gómez Palacio
Limón de Culiacan,,None Found,+52 871 230 0024,"Blvd. Ejército Mexicano 508, Primavera, 35046 Gómez Palacio, Dgo., México",Marisquería, Abre a las 11:30a.m.,Gómez Palacio
El Caminero,,None Found,+52 871 210 1453,"Centenario 418, Zona Centro, 35000 Gómez Palacio, Dgo., México",Restaurante, Abre a la 1p.m.,Gómez Palacio
Huarichic,,None Found,+52 871 571 5200,"Blvd. Ejército Mexicano 192, Grupo Webb, 35017 Gómez Palacio, Dgo., México",Marisquería,,Gómez Palacio
La Estacion,,None Found,+52 871 259 7440,"Carlos Herrera, 35027 Gómez Palacio, Dgo., México",Restaurante, Cierra a la 1:30a.m. ,Gómez Palacio
La Fuente Restaurant Familiar,,None Found,+52 871 192 1400,"Av Victoria 974, Zona Centro, 35000 Gómez Palacio, Dgo., México",Restaurante familiar, Abre a la 1:30p.m.,Gómez Palacio
Los Farolitos,losfarolitos.com,None Found,+52 871 715 6105,"Yucatán 301, Las Rosas, 35090 Gómez Palacio, Dgo., México",Restaurante mexicano, Abre a las 9a.m.,Gómez Palacio
Yoshito,facebook.com,None Found,+52 871 534 3537,"Justo Sierra 212, Zona Centro, 35000 Gómez Palacio, Dgo., México",Restaurante, Abre a la 1p.m.,Gómez Palacio
Picantes,,None Found,+52 871 750 0542,"Blvrd González de la Vega 171, Valle del Nazas, 35070 Gómez Palacio, Dgo., México",Taquería, 12:30a.m. ,Gómez Palacio
Gordibachi,facebook.com,None Found,+52 871 268 4061,"35000, Av Morelos 576, Zona Centro, 35000 Gómez Palacio, Dgo., México",Restaurante, Abre a las 9a.m.,Gómez Palacio
Casa Marzo,facebook.com,None Found,+52 871 191 5696,"Décima Primera 270, Los Álamos, 35029 Gómez Palacio, Dgo., México",Restaurante, Abre a las 8a.m.,Gómez Palacio
La Tradición,,None Found,+52 871 755 9007,"Independencia 206, Zona Centro, 35000 Gómez Palacio, Dgo., México",Restaurante de desayunos, Abre a las 9a.m.,Gómez Palacio
Restaurante los nogales antes los puentes,,None Found,+52 871 757 2739,"Blvd. José Rebollo Acosta 490, Santa Rosa, 35044 Gómez Palacio, Dgo., México",Restaurante, Abre a las 9a.m. del lun,Gómez Palacio
Pura Videl,,None Found,+52 871 188 7319,"Blvd. Sánchez Madariaga, Zona Centro, 35028 Gómez Palacio, Dgo., México",Restaurante, 1a.m. ,Gómez Palacio
Shotoku,,None Found,+52 871 210 1827,"Blvd. Miguel Alemán S/N, Primero de Cobián Centro, 35000 Gómez Palacio, Dgo., México",Restaurante japonés, Abre a las 11:30a.m.,Gómez Palacio
El Golfito,,None Found,+52 871 585 9776,"Sonora 150, Las Rosas, 35090 Gómez Palacio, Dgo., México",Marisquería, Abre a las 10a.m.,Gómez Palacio
Barbacoa y birria Pilo,birriapilo.wordpress.com,None Found,+52 871 680 2158,"Javier mina 379 sur, Centro, 35000 Gómez Palacio, Dgo., México",Restaurante, Abre a las 6a.m.,Gómez Palacio
Marisquería,facebook.com,None Found,+52 871 413 9772,"Guadalupe Victoria, Zona Centro, 35000 Gómez Palacio, Dgo., México",Marisquería, Abre a las 8a.m.,Gómez Palacio
Los Aguachiles,aguachiles.wordpress.com,None Found,+52 871 723 6418,"C. 20 de Noviembre 103 Ote, Primero de Cobián Centro, 35000 Gómez Palacio, Dgo., México",Restaurante, Abre a las 11a.m.,Gómez Palacio
Muelle817,muelle-817.ola.click,None Found,+52 871 714 9018,"Av Mina 817 norte, Zona Centro, 35000 Gómez Palacio, Dgo., México",Marisquería,,Gómez Palacio
El Vagon,facebook.com,None Found,,"Av. Hidalgo 870, C. Dionisio Reyes 129, col. centro, 35000 Gómez Palacio, Dgo., México",Bar, Cierra a las 4a.m. ,Gómez Palacio
"Tacos Charly's ""Los auténticos y originales desde 2009""",,None Found,+52 871 447 4722,"Av Hidalgo 1326, Zona Centro, 35000 Gómez Palacio, Dgo., México",Taquería,,Gómez Palacio
"El remolque lagunero, Grill and More",,None Found,+52 871 273 9265,"Blvd. Ejército Mexicano 157, Nicolás Fernández, 35049 Gómez Palacio, Dgo., México",, Cierra a las 2a.m. ,Gómez Palacio
Doroteo Cocina Mexicana,doroteo.com.mx,None Found,+52 871 610 8284,"Av Morelos 502 Sur, CENTRO, 35000 Gómez Palacio, Dgo., México",Restaurante mexicano, Abre a la 1p.m.,Gómez Palacio
El Pulpito Mariscos,,None Found,+52 871 295 8861,"35000, J. Matamoros 108-Pte, 35000 Gómez Palacio, Dgo., México",Restaurante, Abre a las 11a.m.,Gómez Palacio
Los Raqueles,,None Found,+52 871 715 2808,"C. Durango 148, Zona Centro, 35000 Gómez Palacio, Dgo., México",Restaurante, Abre a las 5:30p.m.,Gómez Palacio
Bondi Gómez,,None Found,+52 871 145 6753,"C. Tlaxcala 129 Col, Las Rosas, 35090 Gómez Palacio, Dgo., México",Restaurante, Abre a las 8:30a.m.,Gómez Palacio
Kumsaki Comida Japonesa,,None Found,+52 871 723 8633,"Fracisco villa, Villanápoles, 35010 Gómez Palacio, Dgo., México",Restaurante japonés,,Gómez Palacio
Monster Burgers,,None Found,+52 871 172 4476,"Blvd.Gonzalez De La Vega #121, Esq.Jose A.Garcia Quintanilla, Valle del Nazas, 35070 Gómez Palacio, Dgo., México",Hamburguesería, Abre a las 7:30p.m.,Gómez Palacio
Restaurante y bufet Mr chilaquil,,None Found,+52 871 399 2106,"Av Morelos, Zona Centro, 35000 Gómez Palacio, Dgo., México",Restaurante, Abre a las 8a.m.,Gómez Palacio
Casa Patoni,instagram.com,None Found,+52 871 102 0151,"C. Patoni, Zona Centro, 35000 Gómez Palacio, Dgo., México",Restaurante, Abre a las 9a.m.,Gómez Palacio
CocosElados,facebook.com,None Found,+52 871 379 4250,"De La Rosa 611, Rubén Jaramillo, 35040 Gómez Palacio, Dgo., México",Restaurante familiar, Abre a las 11a.m.,Gómez Palacio
Quetzal Cocina de Barrio,,None Found,+52 871 463 3859,"Centenario 125, Zona Centro, 35000 Gómez Palacio, Dgo., México",Restaurante, Abre a las 8a.m.,Gómez Palacio
LONCHES DON VICK,,None Found,+52 871 223 4173,"col., C. Escobedo 152, Zona Centro, Gómez Palacio, Dgo., México",Restaurante, Abre a las 10:30a.m.,Gómez Palacio
El Gastro Gourmet,facebook.com,None Found,+52 871 520 5061,"Bravo esquina con Patoni Centro, 35000 Gómez Palacio, Dgo., México",Hamburguesería, Abre a las 2p.m. del mar,Gómez Palacio
Fogon Do Brasil,m.facebook.com,None Found,+52 871 609 1622,"Av Mina 256, col. Centro, 35000 Gómez Palacio, Dgo., México",Taquería, Cierra a las 2a.m. ,Gómez Palacio
Los Chilaquiles,facebook.com,None Found,+52 871 268 7257,"Blvd. Miguel Alemán 905, Villa Campestre, 35080 Gómez Palacio, Dgo., México",Tienda de productos mexicanos, Abre a las 8a.m.,Gómez Palacio
Los Aguachiles Suc. Francisco Sarabia,aguachiles.wordpress.com,None Found,+52 871 715 5695,"Francisco Sarabia 103, Zona Centro, 35000 Gómez Palacio, Dgo., México",Marisquería, Abre a las 10a.m.,Gómez Palacio
Restaurante de Carne Asada La Lupita,,None Found,+52 871 169 0210,"esquina con, Avenida hidalgo, Leandro Valle 1211, Zona Centro, 35000 Gómez Palacio, Dgo., México",Restaurante, Abre a las 2p.m.,Gómez Palacio
Wingstop Gomez Palacio,wingstop.com.mx,Cadena informal de servicio en caja que ofrece una variedad de alitas de pollo y acompañamientos.,+52 871 385 0946,"Blvd. Miguel Alemán 905, Villa Campestre, 35080 Gómez Palacio, Dgo., México",Restaurante de alas de pollo, Abre a las 12p.m.,Gómez Palacio
La Casa de los Abuelos,,None Found,+52 871 714 5390,"Av. Francisco I. Madero 821 Nte, Zona Centro, 35000 Gómez Palacio, Dgo., México",Restaurante, Abre a las 8a.m. del lun,Gómez Palacio
Teacapan Mariscos,,None Found,+52 871 210 0045,"Blvd. Ejercito Nacional 429, Guadalupe Victoria, 35044 Gómez Palacio, Dgo., México",Marisquería, Abre a las 12p.m.,Gómez Palacio
Marquesa restaurante-bar campestre Gómez,,None Found,+52 871 174 6120,"Coahuila, El 28 de Noviembre, 35080 Gómez Palacio, Dgo., México",Restaurante mexicano, Abre a las 8a.m.,Gómez Palacio
Don Sazón,m.facebook.com,None Found,+52 871 457 8154,"C. Durango 245, Las Rosas, 35090 Gómez Palacio, Dgo., México",Restaurante, Abre a las 8:30a.m. del lun,Gómez Palacio
Botanero Independencia,,None Found,+52 871 244 9757,"Independencia 1375, Amp Bellavista, 35059 Gómez Palacio, Dgo., México",Restaurante, Abre a las 6p.m.,Gómez Palacio
La Fortaleza,,None Found,+52 871 233 7364,"Ignacio Ramírez 776, Zona Centro, 35000 Gómez Palacio, Dgo., México",Restaurante, Abre a las 9a.m.,Gómez Palacio
El Pollo Loco,elpolloloco.com.mx,"Cadena de comida rápida local, famosa por los clásicos mexicanos preparados con pollo a la parrilla.",+52 800 999 5626,"Blvd. Miguel Alemán 717, El Campestre, 35080 Gómez Palacio, Dgo., México",Restaurante de comida rápida, Abre a las 12p.m.,Gómez Palacio
Los Hippo's,,None Found,+52 871 714 2110,"Boulevard Miguel Alemán 569 Bis, El Campestre, 35080 Gómez Palacio, Dgo., México",Hamburguesería, Abre a las 7p.m. del lun,Gómez Palacio
El porton resto bar,,None Found,+52 871 450 2123,"Justo Sierra 204, Primero de Cobián Centro, 35000 Gómez Palacio, Dgo., México",Bar restaurante,,Gómez Palacio
Tako Ton,,None Found,+52 871 715 4944,"Gómez Palacio 407, Fovissste, 35057 Gómez Palacio, Dgo., México",Restaurante especializado en chuletas, Abre a las 7:30p.m.,Gómez Palacio
Lonches El Pollo,,None Found,+52 871 121 4545,"Av. Francisco I. Madero 427 Sur, Primero de Cobián Centro, 35000 Gómez Palacio, Dgo., México",Restaurante mexicano, Abre a las 9a.m. del lun,Gómez Palacio
Koto Sushi Bar Gómez,facebook.com,None Found,+52 871 747 9178,"Blvd. Miguel Alemán #350 ote, Las Rosas, 35090 Gómez Palacio, Dgo., México",Restaurante japonés, Abre a la 1p.m.,Gómez Palacio
El paseo de los antojitos,,None Found,,"Independencia 462402, Zona Centro, 35000 Gómez Palacio, Dgo., México",Restaurante mexicano, Abre a las 7a.m. del lun,Gómez Palacio
Lonches Laguna,instagram.com,None Found,+52 871 538 9946,"Primera Local 13 Central de Abasto, Central de Abastos, 35078 Gómez Palacio, Dgo., México",Restaurante mexicano, Abre a las 11a.m.,Gómez Palacio
los allende,,None Found,+52 871 295 2642,"35000 ignacio allende, 35000 Dgo., México",Restaurante, Abre a las 8:30a.m.,Gómez Palacio
El Buen Sazón,,None Found,+52 871 267 7915,"Francisco Mojica 126, Residencial Hamburgo, 35019 Gómez Palacio, Dgo., México",Restaurante mexicano, Abre a las 8a.m.,Gómez Palacio
Encomenderos Filadelfia,,None Found,+52 871 138 2046,"Filadelfia, 35010 Gómez Palacio, Dgo., México",Taquería, Cierra a las 4a.m. ,Gómez Palacio
La Kermesse Comida Mexa,,None Found,+52 871 184 2154,"Blvd. Ejército Mexicano 396, San Antonio, 35015 Gómez Palacio, Dgo., México",Restaurante mexicano, Abre a las 8:30a.m.,Gómez Palacio
Pancho's Grill,facebook.com,None Found,+52 871 579 1014,"333, Residencial El Campanario, 35015 Gómez Palacio, Dgo., México",Restaurante de comida rápida, Abre a las 3p.m.,Gómez Palacio
Mariscos el toro,,None Found,+52 871 190 4529,"35029, Nuevo Refugio, 35029 Gómez Palacio, Dgo., México",Marisquería, Abre a las 10a.m.,Gómez Palacio
Los Tacos de la Bravo,,None Found,,"Bravo 995-897, Zona Centro, 35000 Gómez Palacio, Dgo., México",Restaurante, Abre a las 7p.m. del mar,Gómez Palacio
Eloteria & Snacks ORO MAYA.,,None Found,+52 871 104 0709,"Justo Sierra 208 Ote. entre victoria y morelos Colonia Centro, 35000 Gómez Palacio, Dgo., México",Restaurante mexicano, Abre a las 6p.m. del lun,Gómez Palacio
GORDITAS AL CARBÓN EL GUERRERITO,facebook.com,None Found,+52 871 160 9352,"C. 20 de Noviembre 256, entre VICTORIA Y MORELOS, CENTRO, 35000 Gómez Palacio, Dgo., México",Restaurante mexicano, Abre a las 8a.m.,Gómez Palacio
Jaripeo Jr.,,None Found,+52 871 322 4599,"C. Santiago Lavín, Zona Centro, 35000 Gómez Palacio, Dgo., México",Restaurante mexicano, Abre a las 12p.m.,Gómez Palacio
Baby Panda,,None Found,+52 871 714 1111,"Av Hidalgo 1820, Las Rosas, 35090 Gómez Palacio, Dgo., México",Restaurante chino de comida para llevar, Abre a las 12:30p.m.,Gómez Palacio
Mi Cariñito Comida Mexicana,,None Found,+52 871 944 9900,"Lerdo de Tejada, Carlos Herrera Araluce 103, Parque Industrial, 35078 Gómez Palacio, Dgo., México",Restaurante mexicano, Abre a las 9a.m.,Gómez Palacio
Hamburguesas Ven X +,,None Found,+52 871 140 9867,"Rcda. de Las Gardenias 363, Rinconadas Hamburgo, 35018 Gómez Palacio, Dgo., México",Hamburguesería, Cierra a la 1:30a.m. ,Gómez Palacio
La Morena,lamorena.com.mx,None Found,+52 871 160 1266,"Violeta 1814, Roberto Fierro, 35046 Gómez Palacio, Dgo., México",Restaurante, Abre a las 7a.m. del lun,Gómez Palacio
El Pollo Loco,elpolloloco.com.mx,"Cadena de comida rápida local, famosa por los clásicos mexicanos preparados con pollo a la parrilla.",+52 800 999 5626,"Blvd. Ejército Mexicano 396, San Antonio, 35015 Gómez Palacio, Dgo., México",Restaurante de comida rápida, Abre a las 12p.m.,Gómez Palacio
Tacos Regis Gómez Palacio,,None Found,,"35018, Rinconadas Hamburgo, Gómez Palacio, Dgo., México",Taquería, Abre a las 9a.m.,Gómez Palacio
Los Ramones Taquería,facebook.com,None Found,+52 871 298 5230,"Calle México 337, Santa Teresa, 35074 Gómez Palacio, Dgo., México",Restaurante,,Gómez Palacio
Tacos Gil´s,,None Found,+52 871 715 1541,"Av Victoria 277, Zona Centro, 35000 Gómez Palacio, Dgo., México",Taquería, Abre a las 11:30a.m.,Gómez Palacio
Gorditasverocaseras,,None Found,+52 871 407 3353,"San Martin 488, San Antonio, 35015 Gómez Palacio, Dgo., México",Restaurante mexicano, Abre a las 7:30a.m. del lun,Gómez Palacio
Gorditas la jefa,,None Found,+52 871 357 7958,"C. Jazmin 244, Nuevo Refugio, 35029 Gómez Palacio, Dgo., México",Restaurante mexicano, Abre a las 7a.m.,Gómez Palacio
El Sabroso,,None Found,+52 871 170 0570,"Av Morelos 1511 Nte, Primero de Cobián Centro, 35000 Gómez Palacio, Dgo., México",Restaurante mexicano, Abre a las 7a.m.,Gómez Palacio
Gorditas Las Doraditas de Villa Gómez palacio,,None Found,+52 871 329 8925,"C. Degollado 358, Zona Centro, 35000 Gómez Palacio, Dgo., México",Restaurante, Abre a las 6:15a.m. del lun,Gómez Palacio
D'Sam Grill,,None Found,+52 871 416 7759,"Blvd. San Carlos 152, San Antonio, 35015 Gómez Palacio, Dgo., México",Restaurante, Abre a las 9a.m.,Gómez Palacio
Pizza Hut Gómez Palacio,pizzahut.com.mx,"Cadena de comida para llevar y a domicilio, conocida por sus pizzas, alitas, pasta, postres y guarniciones.",+52 55 1515 3737,"Blvd. Miguel Alemán 101 Oriente, Las Rosas, 35090 Gómez Palacio, Dgo., México",Pizzería, Abre a las 11a.m.,Gómez Palacio
Ara Burger's sucursal ll,,None Found,+52 871 379 0235,"C. Vía Apia, Villanápoles, 35018 Gómez Palacio, Dgo., México",Restaurante mexicano, Cierra a la 1:30a.m. ,Gómez Palacio
Tacos in the night,,None Found,+52 871 554 3317,"Abelardo Rodríguez 335, 5 de Mayo, 35040 Gómez Palacio, Dgo., México",Taquería, Abre a las 7:30p.m.,Gómez Palacio
Tapicoso Tacos & Cortes,,None Found,+52 871 211 0645,"C. México 91 454, 5 de Mayo, 35040 Gómez Palacio, Dgo., México",Buffet libre, Abre a las 3p.m.,Gómez Palacio
La Buena Burger MX,,None Found,+52 871 212 1308,"C. Escobedo 609, Primero de Cobián Centro, 35000 Gómez Palacio, Dgo., México",Restaurante, Abre a las 7p.m. del lun,Gómez Palacio
Lonches Don Vick Jr,,None Found,+52 871 185 2634,"Av. Ingenieros, Filadelfia, 35010 Gómez Palacio, Dgo., México",Restaurante mexicano, Abre a las 12p.m.,Gómez Palacio
Sunroll gomez palacio,sunroll.com,None Found,+52 871 582 5427,"Blvd. Miguel Alemán, Zona Centro, 35080 Gómez Palacio, Dgo., México",Restaurante de sushi, Cierra a las 12:30p.m. ,Gómez Palacio
Carnitas y Lonches Lopez,,None Found,+52 871 154 0431,"J. Matamoros 106 Pte, Centro, 35000 Gómez Palacio, Dgo., México",Tienda de productos mexicanos, Abre a las 9a.m.,Gómez Palacio
El Pechugon,,None Found,+52 871 268 0404,"Zona Centro, 35000 Gómez Palacio, Dgo., México",Restaurante,,Gómez Palacio
Gorditas Lauri,facebook.com,None Found,+52 871 191 7073,"Av. Ingenieros 977, Filadelfia, 35010 Gómez Palacio, Dgo., México",Restaurante, Abre a las 7a.m.,Gómez Palacio
Tacos Balderas,,None Found,,"Rinconadas Villanápoles, 35018 Gómez Palacio, Dgo., México",Taquería, Abre a las 6p.m.,Gómez Palacio
La sierra tacos y mariscos,m.facebook.com,None Found,+52 871 483 0895,"Justo Sierra 202, Zona Centro, 35000 Gómez Palacio, Dgo., México",Restaurante, Abre a las 11a.m.,Gómez Palacio
TAQUERIA LOS CUATES,,None Found,+52 871 120 1004,"Blvd. San Carlos 172, San Antonio, 35015 Gómez Palacio, Dgo., México",Taquería,,Gómez Palacio
Antojitos mexicanos la casita,,None Found,+52 871 132 2106,"Josefa Ortiz de Domínguez 269, Zona Centro, 35000 Gómez Palacio, Dgo., México",Restaurante,,Gómez Palacio
Hamburguesas Madero 1974 GP,facebook.com,None Found,+52 871 756 7251,"Av. Francisco I. Madero 572, Zona Centro, 35000 Gómez Palacio, Dgo., México",Hamburguesería, Abre a las 7p.m.,Gómez Palacio
La Faena,,None Found,+52 871 186 1951,"Av Mina 160, Las Rosas, 35090 Gómez Palacio, Dgo., México",Bar, Cierra a las 2a.m. ,Gómez Palacio
Lupita Fonda Mexicana,instagram.com,None Found,+52 871 222 1008,"Av. Gregorio A. Garcia 107, El Dorado, 35028 Gómez Palacio, Dgo., México",Restaurante mexicano, Abre a las 8a.m. del lun,Gómez Palacio
Hojaldra,facebook.com,None Found,+52 871 379 1524,"C. 24 481, Filadelfia, 35010 Gómez Palacio, Dgo., México",Restaurante de fusión, Cierra a las 11a.m. ,Gómez Palacio
Lerma's tortas ahogadas,facebook.com,None Found,+52 871 268 8888,"Independencia 161, Zona Centro, 35000 Gómez Palacio, Dgo., México",, Abre a la 1p.m.,Gómez Palacio
Arabiga Gomez palacio,,None Found,+52 871 180 6372,"BLVD MIGUEL ALEMAN 905 L9 AGUSTIN CASTRO Y SOUTH DE SILLA CAMPESTRE GPL, 35080 Gómez Palacio, Dgo., México",Restaurante, Abre a las 11a.m.,Gómez Palacio
LONCHES Don Pancho,,None Found,,"Unnamed Road, Rinconadas Hamburgo, 35018 Gómez Palacio, Dgo., México",, Cierra a las 6:15a.m.,Gómez Palacio
LONCHES Don Pancho,,None Found,,"Unnamed Road, Rinconadas Hamburgo, 35018 Gómez Palacio, Dgo., México",, Cierra a las 6:15a.m.,Gómez Palacio
"Tacos ""El Bravo"" Gómez Palacio",,None Found,+52 871 343 4361,"Periferico Raúl López Sánchez km 1.2, Rinconadas Hamburgo, 35018 Gómez Palacio, Dgo., México",Taquería, Cierra a las 2a.m. ,Gómez Palacio
Fernandos antojitos mexicanos,,None Found,+52 871 886 4870,"Centenario 234, Centro, 35000 Gómez Palacio, Dgo., México",Restaurante, Abre a las 8a.m. del lun,Gómez Palacio
D' Marsh Alta Cocina,facebook.com,None Found,+52 871 315 1542,"C. del Melon 126-1, entre sandía y la flor, Las Granjas, 35018 Gómez Palacio, Dgo., México",Comida a domicilio,,Gómez Palacio
PAPAS MON,,None Found,,"Héroe de Nacozari, Rodolfo Fierro, 35046 Gómez Palacio, Dgo., México",Restaurante mexicano,,Gómez Palacio
"Tacos De Carne Asada ""El Chamaco""",,None Found,+52 871 344 0288,"Veintidós 547, Filadelfia, 35010 Gómez Palacio, Dgo., México",Taquería, 1a.m. ,Gómez Palacio
El Pechugón - San Antonio,,None Found,+52 871 747 9178,"San Antonio, 35015 Gómez Palacio, Dgo., México",Restaurante especializado en pollo,,Gómez Palacio
TORO BURGUERS (FILADELFIA),,None Found,+52 871 575 9608,"P.º del Pedregal 625, Filadelfia, 35010 Gómez Palacio, Dgo., México",Buffet libre, 12:30a.m. ,Gómez Palacio
McDonald's,mcdonalds.com.mx,Clásica cadena de comida rápida de larga trayectoria conocida por sus hamburguesas y papas fritas.,+52 800 300 3435,"Blvd. Miguel Aleman. 259 Esquina Jalisco, Las Rosas, 35090 Dgo., México",Restaurante de comida rápida, Abre a las 7a.m.,Gómez Palacio
EverCorn,evercorn.com.mx,None Found,+52 871 762 8287,"Paseo Gomez, Residencial Hamburgo, 35019 Gómez Palacio, Dgo., México",Restaurante, Abre a las 11a.m.,Gómez Palacio
Comedor Gollita,,None Found,,"Calle Primera LT11E, Miguel de La Madrid Hurtado, Miguel de la Madrid, 35015 Gómez Palacio, Dgo., México",Restaurante,,Gómez Palacio
QUESIPIZZAS SAN ANTONIO,facebook.com,None Found,+52 871 713 3131,"Blvd. Ejército Mexicano, San Antonio, 35015 Gómez Palacio, Dgo., México",Pizzería, Abre a las 9a.m.,Gómez Palacio
