Names,Website,Introduction,Phone Number,Address,Type,Opens At,Municipio
Restaurant El Marcos Nogales,,None Found,+52 631 313 8082,"Blvd. El Greco 26-local 12, Col, El Greco, 84066 Heroica Nogales, Son., México",Bar restaurante, 12a.m. ,Heroica Nogales
Mi Fondita,,None Found,+52 631 313 3437,"Heroica de Nogales - Imuris 1923, Ferrocarrilera, 84080 Heroica Nogales, Son., México",Restaurante mexicano, Abre a las 7a.m. del dom,Heroica Nogales
Restaurant Bar La Roca,larocarestaurant.com,"Local ornado con patio y fuente, donde se sirven comida mexicana y platos de pescado.",+52 631 312 0760,"C. Elías 91, Buenos Aires Oeste, 84010 Heroica Nogales, Son., México",Restaurante de alta cocina, Abre a las 8a.m. del dom,Heroica Nogales
Restaurant El Túle,carnitaseltule.com,None Found,+52 631 313 5673,"Cts, Municipal, 84030 Heroica Nogales, Son., México",Restaurante mexicano, 12a.m. ,Heroica Nogales
La Patrona Restaurante Cantina,facebook.com,None Found,+52 631 313 8927,"Av Kennedy 176, Kalitea, 84066 Heroica Nogales, Son., México",Restaurante, 12a.m. ,Heroica Nogales
Dantés Restaurant,dantesrestaurant.com.mx,None Found,+52 631 313 1717,"Av. Alvaro Obregon 1726-B, Moderna, 84055 Heroica Nogales, Son., México",Restaurante, 12a.m. ,Heroica Nogales
Los Arbolitos De Cajeme Nogales,mariscoslosarbolitos.com,None Found,+52 631 314 8454,"Av Kalamata 68, Jardines de, Kalitea, 84066 Heroica Nogales, Son., México",Marisquería, Abre a las 9a.m. del dom,Heroica Nogales
Toscanos Restaurante,facebook.com,None Found,+52 631 344 1942,"Cjon. Hermosillo #655, Granja, 84063 Heroica Nogales, Son., México",Restaurante italiano, Abre a las 12p.m. del dom,Heroica Nogales
Trocadero,,None Found,+52 631 313 0507,"México 15 Kilómetro 5, Obregón, 84080 Heroica Nogales, Son., México",Restaurante, Abre a las 12p.m. del dom,Heroica Nogales
Las Mulas Restaurante,facebook.com,None Found,+52 631 209 0741,"Cjon. Hermosillo 503B, Kennedy, 84066 Heroica Nogales, Son., México",Restaurante de brunch, Abre a las 8:30a.m. del dom,Heroica Nogales
El Ensueño Restaurant,,None Found,+52 631 316 0457,"Regina Oeste 19, Pima 1, Lomas de Fátima, 84020 Heroica Nogales, Son., México",Restaurante mexicano, Abre a las 9a.m. del dom,Heroica Nogales
Restaurant Bar El Garage de la Hermosillo,mypvcard.com,None Found,+52 631 163 5582,"Cjon. Hermosillo 655, Kennedy, 84066 Heroica Nogales, Son., México",Restaurante familiar, 12a.m. ,Heroica Nogales
Restaurante ABISÙA,,None Found,,"Jesús García Corona 54, Lomas de Nogales, 84080 1, Son., México",Restaurante, Abre a las 8a.m. del lun,Heroica Nogales
Mariscos Rugus La Palapa,ruguslapalapa.com,None Found,+52 631 313 5080,"C. Elías 1130, Municipal, 84030 Heroica Nogales, Son., México",Marisquería,,Heroica Nogales
Restaurant La Herradura,,None Found,+52 631 313 7513,"Ignacio de La Torre #110, Lomas de Nogales, 84080 Heroica Nogales, Son., México",Restaurante, Abre a las 8a.m. del dom,Heroica Nogales
Asadero La Salida,,None Found,+52 631 303 4578,"Heroica de Nogales - Imuris 1774, Kalitea, 84066 Heroica Nogales, Son., México",Parrilla, Cierra a las 3a.m.,Heroica Nogales
Restaurant Las Marias,,None Found,+52 631 312 8600,"Av. Adolfo López Mateos 168, Fundó Legal, Centro, 84000 Heroica Nogales, Son., México",Restaurante, Abre a las 9a.m. del dom,Heroica Nogales
Mádera Restaurante,,None Found,+52 631 158 4623,"Blvd, Nogales 2000 397, Colinas del Yaqui, 84093 Heroica Nogales, Son., México",Restaurante, Abre a las 8:30a.m. del dom,Heroica Nogales
Los Pilares Restaurant,,None Found,+52 631 319 1419,"Av. Alvaro Obregon 4163, Sonora, 84094 Heroica Nogales, Son., México",Restaurante, Abre a las 8a.m. del lun,Heroica Nogales
Brasa Roja,,None Found,+52 631 186 0413,"Av. Alvaro Obregon 1775, 5 de Mayo, 84074 Heroica Nogales, Son., México",Taquería, Cierra a las 3a.m.,Heroica Nogales
El Changarro Desayunos Mexicanos,,None Found,+52 631 134 1368,"Heroica de Nogales - Imuris 1774 C, Kalitea, 84066 Heroica Nogales, Son., México",Restaurante de desayunos, Abre a las 7a.m. del dom,Heroica Nogales
Mariscos Chihuahua,mariscoschihuahua.com,Lugar clásico de mariscos mexicanos en un entorno informal y animado.,+52 631 313 2351,"Av. Alvaro Obregon 902, Bolívar, 84000 Heroica Nogales, Son., México",Marisquería, Abre a las 9a.m. del dom,Heroica Nogales
Las mesitas restaurant,,None Found,+52 631 313 1818,"Av. Alvaro Obregon 1401, Altamira, 84000 Heroica Nogales, Son., México",Restaurante mexicano, Abre a las 8a.m. del dom,Heroica Nogales
LA CAPITAL RESTAURANTE,restaurantelacapital.com,None Found,+52 631 104 3736,"Cjon. Hermosillo 576, Kennedy, 84066 Heroica Nogales, Son., México",Restaurante, Cierra a las 2a.m.,Heroica Nogales
Myst Nogales,facebook.com,None Found,+52 631 302 7537,"Blvd. El Greco 73, El Greco, 84066 Heroica Nogales, Son., México",Restaurante de sushi, Cierra a las 2a.m.,Heroica Nogales
El Berde,,None Found,+52 631 314 9990,"Cjon. Hermosillo, Kennedy, 84066 Heroica Nogales, Son., México",Tienda de ensaladas, Abre a las 12p.m. del dom,Heroica Nogales
La Granja Food Trucks,,None Found,+52 631 156 2461,"Hermosillo Street # 173, Granja, 84066 Nogales, Son., México",Restaurante, 12a.m. ,Heroica Nogales
Barbas Kitchen Café,facebook.com,None Found,+52 631 180 1398,"Av. Alvaro Obregon, Centro, 84047 Heroica Nogales, Son., México",Restaurante japonés, Abre a las 2p.m. del dom,Heroica Nogales
Burritos Hass,burritoshass.com.mx,None Found,+52 631 313 5684,"Av. Alvaro Obregon 1726 A, Moderna, 84055 Heroica Nogales, Son., México",Restaurante de burritos, 12a.m. ,Heroica Nogales
La Llorona Restaurant-Cantina,facebook.com,None Found,+52 631 158 1596,"Cjon. Hermosillo 564, Kennedy, 84066 Heroica Nogales, Son., México",Restaurante, Abre a las 8:30a.m. del dom,Heroica Nogales
Johnny's Grill,facebook.com,None Found,+52 631 314 6095,"Av. Tecnológico 245, Moderna, 84066 Heroica Nogales, Son., México",Hamburguesería, Abre a las 9a.m. del dom,Heroica Nogales
Mariscos La Bocanita,,None Found,+52 631 313 5876,"C. Elías 789, Municipal, 84035 Heroica Nogales, Son., México",Marisquería, Abre a las 9a.m. del dom,Heroica Nogales
Asadero El Potrillo,,None Found,+52 631 162 2458,"C. Elías 1780, 5 de Mayo, 84066 Heroica Nogales, Son., México",Parrilla, Abre a las 10a.m. del dom,Heroica Nogales
450° Grados Pizza a la Leña,450grados.com,None Found,+52 631 314 5818,"Altar 5, Kennedy, 84066 Heroica Nogales, Son., México",Pizzería, 12a.m. ,Heroica Nogales
Birrieria Esthela,,None Found,+52 631 320 1236,"Av. 5 de Febrero 582, Esperanza, 84060 Heroica Nogales, Son., México",Restaurante, Abre a las 7a.m. del dom,Heroica Nogales
Birrieria El Kora,,None Found,+52 631 144 9122,"Av. Alvaro Obregon 413, Altamira, 84047 Heroica Nogales, Son., México",Restaurante, Abre a las 6a.m. del dom,Heroica Nogales
Tortería La Mexicana,,None Found,+52 631 141 0832,"Av. Alvaro Obregon 1167, Municipal, 84035 Heroica Nogales, Son., México",Restaurante mexicano, Abre a las 9a.m. del dom,Heroica Nogales
Qbanitos,,None Found,+52 631 690 6302,"Av. Alvaro Obregon 1945, Ferrocarrilera, 84074 Heroica Nogales, Son., México",Bar restaurante, Cierra a las 2:45a.m.,Heroica Nogales
Mariscos 7 Mares has parking lot,,None Found,+52 631 690 5281,"Avenida Álvaro Obregón 1650, Av. Alvaro Obregon 1658, 84055 Heroica Nogales, Son., México",Marisquería, Abre a las 9a.m. del dom,Heroica Nogales
Yes! Restaurant,facebook.com,None Found,+52 631 314 5650,"Cjon. Hermosillo 701, Kennedy, 84065 Heroica Nogales, Son., México",Restaurante de brunch, Abre a las 8:30a.m. del dom,Heroica Nogales
Downtown Nogales by Garaje,m.facebook.com,None Found,+52 631 312 6764,"Campillo 86, Fundó Legal, Centro, 84000 Heroica Nogales, Son., México",Bar, Cierra a las 3a.m.,Heroica Nogales
Taquerias Lupita's,facebook.com,None Found,+52 631 312 3293,"Av. Alvaro Obregon #599, Fundó Legal, Municipal, 84030 Heroica Nogales, Son., México",Taquería, Abre a las 8:30a.m. del dom,Heroica Nogales
Asadero Las Ranas,,None Found,+52 631 302 4617,"Av. Tecnológico 1300, Altamira, 84030 Heroica Nogales, Son., México",Taquería, Cierra a las 2a.m.,Heroica Nogales
Asadero Las Ranas,,None Found,+52 631 302 4617,"Av. Tecnológico 1300, Altamira, 84030 Heroica Nogales, Son., México",Taquería, Cierra a las 2a.m.,Heroica Nogales
Wingstop Nogales,wingstop.com.mx,Cadena informal de servicio en caja que ofrece una variedad de alitas de pollo y acompañamientos.,+52 631 314 5928,"Galería Plaza Norte, Blvr. Luis Donaldo Colosio 2693-Local 11-12-13, Kennedy, 84066 Heroica Nogales, Son., México",Restaurante de alas de pollo, 12a.m. ,Heroica Nogales
Restaurante Kai San,,None Found,+52 631 319 2121,"Av Kalamata 66, Kalitea, 84066 Heroica Nogales, Son., México",Buffet libre, Abre a las 10a.m. del dom,Heroica Nogales
Chiloquiles Granja,,None Found,+52 631 132 8304,"Navojoa 15, Granja, 84065 Heroica Nogales, Son., México",Restaurante, Abre a las 8:30a.m. del dom,Heroica Nogales
Restaurant San San,sansanmenu.carrd.co,None Found,,"Colonia nogales centro no.171, Av. Adolfo López Mateos local 9, 84000 Heroica Nogales, Son., México",Restaurante chino, Abre a las 12p.m. del dom,Heroica Nogales
Taco Bar,facebook.com,None Found,+52 631 158 4218,"Hermosillo y Navojoa, Kennedy, 84066 Heroica Nogales, Son., México",Taquería, Cierra a la 1a.m.,Heroica Nogales
Taqueria El Kora,,None Found,+52 631 313 2293,"C. Elías 1110, Municipal, 84035 Heroica Nogales, Son., México",Taquería, Cierra a las 3a.m.,Heroica Nogales
Rinconcito Moreliano,,None Found,,"Av. Maclovio Herrera 1230, Bolívar, 84060 Heroica Nogales, Son., México",Restaurante mexicano,,Heroica Nogales
Sushi y Teriyaki Nogales muy buen servicio y te atienden súper bien recomendado 10 de 10,,None Found,,"Blvd. El Greco 45-B14, El Greco, 84066 Heroica Nogales, Son., México",Restaurante, Abre a las 11a.m. del dom,Heroica Nogales
El Rojo Mexican Restaurant,,None Found,+52 631 320 7999,"Nueva Nogales, 84094 Heroica Nogales, Son., México",Restaurante, Abre a las 12p.m. del dom,Heroica Nogales
Restaurant Kai Peng,,None Found,+52 631 209 9919,"Av. Maclovio Herrera 1156, Bolívar, 84060 Heroica Nogales, Son., México",Restaurante chino, Abre a las 11a.m. del dom,Heroica Nogales
Mariscos Sinaloa,,None Found,+52 631 276 2547,"Av. Alvaro Obregon 1775-B, Moderna, 84055 Heroica Nogales, Son., México",Marisquería, Abre a las 10a.m. del dom,Heroica Nogales
SonAlitas,,None Found,+52 631 162 9533,"Av. Alvaro Obregon 1775, Ferrocarrilera, 84074 Heroica Nogales, Son., México",Hamburguesería, Abre a la 1:30p.m. del dom,Heroica Nogales
SonAlitas,,None Found,+52 631 162 9533,"Av. Alvaro Obregon 1775, Ferrocarrilera, 84074 Heroica Nogales, Son., México",Hamburguesería, Abre a la 1:30p.m. del dom,Heroica Nogales
El Chinaleño,,None Found,,"Av. de los Maestros 79B, Jardines del Bosque, Las Praderas, 84063 Heroica Nogales, Son., México",Restaurante, Cierra a las 3a.m.,Heroica Nogales
Mi Fondita 2,facebook.com,None Found,+52 631 104 0203,"C. Elías 1772, 5 de Mayo, 84074 Heroica Nogales, Son., México",Restaurante mexicano, Abre a las 7a.m. del dom,Heroica Nogales
Taco Giro,tacogirorestaurant.com,None Found,+52 631 454 0422,"Blvd. El Greco 70, Plaza Cumbres, 84066 Heroica Nogales, Son., México",Restaurante, Abre a las 7a.m. del dom,Heroica Nogales
Nikkori Galería Norte Nogales,nikkori.mx,None Found,+52 631 314 9900,"Blvr. Luis Donaldo Colosio 2693 A, Kennedy, 84063 Heroica Nogales, Son., México",Restaurante japonés, Abre a las 12p.m. del dom,Heroica Nogales
El Pescadito,elpescadito.mx,None Found,+52 631 209 9659,"Av. Alvaro Obregon 1575, Altamira, 84047 Heroica Nogales, Son., México",Taquería, Abre a las 9a.m. del dom,Heroica Nogales
Carnitas Michoacan,,None Found,+52 669 925 7250,"Municipio Benjamín Hill 570, Belisario Domínguez, 84080 Heroica Nogales, Son., México",Restaurante, Abre a las 9a.m. del dom,Heroica Nogales
Sopa Marinera El Galeno,,None Found,+52 667 431 4158,"Miguel Hidalgo y Costilla 39, Fundó Legal, Centro, 84000 Centro, Son., México",Marisquería, Abre a las 7:30a.m. del dom,Heroica Nogales
Mariscos Guasave,,None Found,+52 631 113 9531,"Avenida de los Nogales, Bolívar, 84090 Heroica Nogales, Son., México",Marisquería, Abre a las 10a.m. del dom,Heroica Nogales
Mariscos Ballenita,,None Found,+52 631 313 8045,"C. Elías 1200, Altamira, 84047 Heroica Nogales, Son., México",Marisquería, Abre a las 9a.m. del dom,Heroica Nogales
Mariscos Ballenita,,None Found,+52 631 313 8045,"C. Elías 1200, Altamira, 84047 Heroica Nogales, Son., México",Marisquería, Abre a las 9a.m. del dom,Heroica Nogales
Tortería La Fuente,,None Found,+52 631 313 1255,"C. Elías 1656, Moderna, 84063 Heroica Nogales, Son., México",Restaurante de comida rápida, Abre a las 2p.m. del dom,Heroica Nogales
Burritos Doña Anita,,None Found,+52 631 690 3636,"Cananea 10, Kennedy, 84066 Heroica Nogales, Son., México",Restaurante mexicano, Abre a las 8a.m. del lun,Heroica Nogales
Birrieria San Blas,,None Found,,"Av. Alvaro Obregon, Municipal, 84030 Heroica Nogales, Son., México",Restaurante, Abre a las 5a.m. del dom,Heroica Nogales
Carl's Jr,carlsjr.com.mx,"Cadena de comida rápida, famosa por su variedad de hamburguesas apiladas y promociones, además de batidos.",+52 631 314 9761,"Blvd. El Greco 45-int B06, El Greco, 84066 Heroica Nogales, Son., México",Hamburguesería, Abre a las 6:30a.m. del dom,Heroica Nogales
"Birrieria ""George""",,None Found,+52 631 248 3123,"C. Elías 1650 A, Altamira, 84047 Heroica Nogales, Son., México",Restaurante, Abre a las 7a.m. del dom,Heroica Nogales
Cocina La Ley Restaurant,cocinalaley.com,None Found,+1 520-287-4555,"226 W 3rd St, Nogales, AZ 85621, Estados Unidos",Restaurante mexicano, Abre a las 8a.m. del dom,Heroica Nogales
Kibo Sushi Place,facebook.com,None Found,+52 631 314 1111,"84066, Cjon. Hermosillo 480, Kennedy, Heroica Nogales, Son., México",Restaurante de sushi, Abre a las 12p.m. del dom,Heroica Nogales
Taqueria el Naranjo,,None Found,+52 667 746 5426,"Blvd. El alamo 187, Álamos, 84085 Heroica Nogales, Son., México",Taquería, Cierra a las 3a.m.,Heroica Nogales
Cristy Papas,facebook.com,None Found,+52 631 162 8677,"Cjon. Hermosillo 394, Granja, 84065 Heroica Nogales, Son., México",Restaurante, Abre a la 1:30p.m. del dom,Heroica Nogales
Hot Dogs Sierra Vista,,None Found,+52 631 126 6172,"84064, Av. Paraje 46, Buena Vista, Heroica Nogales, Son., México",Restaurante de perritos calientes, Cierra a las 12p.m. del dom,Heroica Nogales
Hot Dogs Sierra Vista,,None Found,+52 631 126 6172,"84064, Av. Paraje 46, Buena Vista, Heroica Nogales, Son., México",Restaurante de perritos calientes, Cierra a las 12p.m. del dom,Heroica Nogales
Restaurante Las Cazuelas,,None Found,+52 631 192 3412,"Av. de los Maestros 61, Jardines del Bosque, Las Praderas, 84063 Heroica Nogales, Son., México",Restaurante mexicano, Abre a las 8:30a.m. del lun,Heroica Nogales
Doña Tota Mall Nogales,donatota.com,None Found,+52 81 8122 2222,"Blvd. El Greco 45-Local D02 y, D03, 84066 Heroica Nogales, Son., México",Restaurante, Abre a las 9:30a.m. del dom,Heroica Nogales
Restaurante Las Cazuelas,,None Found,+52 631 192 3412,"Av. de los Maestros 61, Jardines del Bosque, Las Praderas, 84063 Heroica Nogales, Son., México",Restaurante mexicano, Abre a las 8:30a.m. del lun,Heroica Nogales
Doña Tota Mall Nogales,donatota.com,None Found,+52 81 8122 2222,"Blvd. El Greco 45-Local D02 y, D03, 84066 Heroica Nogales, Son., México",Restaurante, Abre a las 9:30a.m. del dom,Heroica Nogales
Birrieria Las Lomas,facebook.com,None Found,,"Ortíz Tirado 8, Lomas de Nogales, 84080 Heroica Nogales, Son., México",Restaurante mexicano, Abre a las 7a.m. del dom,Heroica Nogales
Sushi House,facebook.com,Restaurante familiar de cocina japonesa servida en un acogedor espacio decorado con motivos orientales.,+52 631 320 5098,"Cjon. Hermosillo 325, Granja, 84066 Heroica Nogales, Son., México",Restaurante de sushi, Abre a las 10a.m. del dom,Heroica Nogales
Caracu Latin Steakhouse,m.facebook.com,None Found,+1 520-415-1087,"547 W Mariposa Rd, Nogales, AZ 85621, Estados Unidos",Restaurante especializado en filetes, Abre a las 12p.m. del dom,Heroica Nogales
Restaurante Pollo Feliz Nogales,pollofeliz.com,"Cadena informal que ofrece pollo estilo mexicano, además de otros platos tradicionales y aguas frescas.",,"Av. Alvaro Obregon #845-Local 11, Fundó Legal, Municipal, 84030 Heroica Nogales, Son., México",Restaurante especializado en pollo, Abre a las 10a.m. del dom,Heroica Nogales
Mi Dulce Pecado creperia & cafe,,None Found,+52 631 304 6055,"C. Fco. Eusebio Kino 1, Kennedy, 84055 Heroica Nogales, Son., México",Crepería,,Heroica Nogales
Mi Dulce Pecado creperia & cafe,,None Found,+52 631 304 6055,"C. Fco. Eusebio Kino 1, Kennedy, 84055 Heroica Nogales, Son., México",Crepería,,Heroica Nogales
Nogales Wings,,None Found,+52 951 577 0326,"y, Blvd. Los Álamos & Del Pino, Heroica Nogales, Son., México",Pizzería, 12a.m. ,Heroica Nogales
Nogales Wings,,None Found,+52 951 577 0326,"y, Blvd. Los Álamos & Del Pino, Heroica Nogales, Son., México",Pizzería, 12a.m. ,Heroica Nogales
Eat Salad Nogales,eatsalad.mx,None Found,+52 631 313 8706,"Av. Alvaro Obregon 1945, Ferrocarrilera, 84047 Heroica Nogales, Son., México",Tienda de ensaladas, Abre a las 10a.m. del dom,Heroica Nogales
Taqueria el mexicano,,None Found,+52 631 132 8525,"Av. Alvaro Obregon, Moderna, 84055 Heroica Nogales, Son., México",Taquería, Cierra a la 1a.m.,Heroica Nogales
Hotel Fray Marcos,hotelfraymarcos.com,None Found,+52 631 249 0314,"Campillo 91, Fundó Legal, Centro, 84000 Heroica Nogales, Son., México",,,Heroica Nogales
Sukira Roll Sushi,,None Found,+52 631 158 3224,"Instituto tecnológico 951-Local 17, El Greco, 84066 Heroica Nogales, Son., México",Restaurante de sushi, Abre a la 1p.m. del dom,Heroica Nogales
La Esquina,orderlaesquinanogales.com,None Found,+1 520-397-4510,"35 E Baffert Dr, Nogales, AZ 85621, Estados Unidos",Restaurante mexicano, Abre a las 11a.m. del dom,Heroica Nogales
Chillin Wings,facebook.com,None Found,+52 631 314 5324,"Navojoa 615 Granja y, Kennedy, 84066 Heroica Nogales, Son., México",Restaurante de alas de pollo, Abre a la 1p.m. del dom,Heroica Nogales
Mariscos & Sushi La Galeria,facebook.com,None Found,+52 631 177 8106,"Blvr. Luis Donaldo Colosio 2730, Deportiva, 84066 Heroica Nogales, Son., México",Restaurante, Abre a las 8a.m. del dom,Heroica Nogales
Antojitos Mexicanos,antojitosmexicanosnogalesaz.com,None Found,+1 520-287-2700,"557 N Grand Ave B, Nogales, AZ 85621, Estados Unidos",Restaurante mexicano, Abre a las 8a.m. del lun,Heroica Nogales
Restauran Cantón,,None Found,,"Av. Alvaro Obregon 1265B, Altamira, 84047 Heroica Nogales, Son., México",Restaurante de cocina mandarina, Abre a las 9a.m. del dom,Heroica Nogales
El Cortijo Nogales,facebook.com,None Found,+52 631 125 2309,"84063 Kennedy, H, 84063 Heroica Nogales, Son., México",Bar restaurante,,Heroica Nogales
El Cortijo Nogales,facebook.com,None Found,+52 631 125 2309,"84063 Kennedy, H, 84063 Heroica Nogales, Son., México",Bar restaurante,,Heroica Nogales
Nigiris Sushi,,None Found,+52 631 162 1008,"C. Elías 1200, Altamira, 84047 Heroica Nogales, Son., México",Restaurante de sushi, Abre a las 12p.m. del dom,Heroica Nogales
Nigiris Sushi,,None Found,+52 631 162 1008,"C. Elías 1200, Altamira, 84047 Heroica Nogales, Son., México",Restaurante de sushi, Abre a las 12p.m. del dom,Heroica Nogales
Ten Chicken Waffles Nogales,,None Found,+52 631 123 3140,"Av. De Las Chimeneas 320-Local 15, Las Praderas, 84064 Heroica Nogales, Son., México",Restaurante de comida rápida, Abre a las 8a.m. del dom,Heroica Nogales
Ten Chicken Waffles Nogales,,None Found,+52 631 123 3140,"Av. De Las Chimeneas 320-Local 15, Las Praderas, 84064 Heroica Nogales, Son., México",Restaurante de comida rápida, Abre a las 8a.m. del dom,Heroica Nogales
Baby's Pizza,m.facebook.com,None Found,+52 631 314 5000,"Av. de los Maestros 100, Villa Bonita, Buena Vista, 84064 Heroica Nogales, Son., México",Pizzería, Abre a las 10a.m. del dom,Heroica Nogales
Hashi express nogales,,None Found,+52 631 111 8276,"Av. Alvaro Obregon 1350, Altamira, 84047 Heroica Nogales, Son., México",Restaurante de sushi, Abre a las 12:15p.m. del dom,Heroica Nogales
Burritos Hass,,None Found,+52 631 314 5530,"Blvd. El Greco 42-Local D-12, El Greco, 84066 Heroica Nogales, Son., México",Restaurante de burritos, Abre a las 10a.m. del dom,Heroica Nogales
La Cabaña Restaurant,lacabananogales.com,None Found,+1 520-287-3249,"840 N Grand Ave, Nogales, AZ 85621, Estados Unidos",Restaurante mexicano, Abre a las 10a.m. del dom,Heroica Nogales
La Cabaña Restaurant,lacabananogales.com,None Found,+1 520-287-3249,"840 N Grand Ave, Nogales, AZ 85621, Estados Unidos",Restaurante mexicano, Abre a las 10a.m. del dom,Heroica Nogales
Taqueria El Goloso,,None Found,+1 480-702-9203,"edificio #114, Av. Alvaro Obregon, Fundó Legal, Centro, 84000 Heroica Nogales, Son., México",Taquería, Abre a las 8:30a.m. del dom,Heroica Nogales
Taqueria El Goloso,,None Found,+1 480-702-9203,"edificio #114, Av. Alvaro Obregon, Fundó Legal, Centro, 84000 Heroica Nogales, Son., México",Taquería, Abre a las 8:30a.m. del dom,Heroica Nogales
Mariscos el cokero locochon,,None Found,+52 631 100 3563,"Adolfo Ruiz Cortinez 1601, Altamira, 84047 Heroica Nogales, Son., México",Restaurante de marisco donburi, Abre a las 11a.m. del dom,Heroica Nogales
Callos y Camarones Los Nogalitos,callosycamaroneslosnogalitos.com,None Found,+52 631 183 6800,"C. B. Juárez 17, Fundó Legal, Centro, 84030 Heroica Nogales, Son., México",Marisquería,,Heroica Nogales
Callos y Camarones Los Nogalitos,callosycamaroneslosnogalitos.com,None Found,+52 631 183 6800,"C. B. Juárez 17, Fundó Legal, Centro, 84030 Heroica Nogales, Son., México",Marisquería,,Heroica Nogales
El Chile Verde Comida Mexicana,,None Found,,"Ferrocarrilera, 84080 Heroica Nogales, Son., México",Restaurante, Abre a las 12p.m. del dom,Heroica Nogales
Cocina Express,,None Found,+52 631 313 1212,"Ana Gabriela Guevara, Moderna, 84055 Heroica Nogales, Son., México",Restaurante, Abre a las 11a.m. del lun,Heroica Nogales
Rancho Grande Mexican Restaurant,usmapz.me,None Found,+1 520-287-9613,"270 N Grand Court Plaza, Nogales, AZ 85621, Estados Unidos",Restaurante mexicano, Abre a las 8a.m. del dom,Heroica Nogales
Del Sur,facebook.com,None Found,+52 631 999 4408,"84063, Kennedy, 84063 Heroica Nogales, Son., México",Restaurante, Abre a las 8a.m. del lun,Heroica Nogales
Taquiza Gómez,,None Found,+52 631 123 4458,"Cjon. Hermosillo 221, Granja, 84066 Heroica Nogales, Son., México",Restaurante mexicano, Abre a las 9a.m. del dom,Heroica Nogales
