Names,Website,Introduction,Phone Number,Address,Type,Opens At,Municipio
Los Remedios,,None Found,+52 627 522 0643,"Pase, P.º Manuel Gómez Morin 15, Centro, 33800 Hidalgo del Parral, Chih., México",Restaurante, Abre a la 1p.m.,Hidalgo del Parral
Restaurant Bar Los Pinos,,None Found,+52 627 522 9992,"Carretera Santa Bárbara, Km. 4, Rubén Aguilar, 33826 Hidalgo del Parral, Chih., México",Bar restaurante, Abre a las 12p.m.,Hidalgo del Parral
La Fogata Restaurante,facebook.com,None Found,+52 627 523 4530,"Segunda del Rayo 88, Centro, 33850 Hidalgo Del Parral Chihuahua, Chih., México",Restaurante, Abre a las 12p.m.,Hidalgo del Parral
Restaurante La Casa Del Tequila,,None Found,+52 627 138 2894,"C. Manuel Ojinaga 70, Centro, 33800 Hidalgo del Parral, Chih., México",Restaurante, Abre a las 9a.m.,Hidalgo del Parral
Restaurante Morelos,,None Found,+52 627 522 6030,"Pzla. Morelos 22, Centro, 33800 Hidalgo del Parral, Chih., México",Restaurante, Abre a las 8:30a.m. del lun,Hidalgo del Parral
Los Mosaicos Restaurante,,None Found,+52 627 688 1110,"Bartolomé de Medina 24, Centro, 33800 Hidalgo del Parral, Chih., México",Restaurante, Abre a las 8a.m.,Hidalgo del Parral
RESTAURANT SAVOY,,None Found,+52 627 522 1359,"CALLE. PABLO OCHOA #1 Int: LOC. 10, Centro, 33800 Hidalgo del Parral, Chih., México",Restaurante, Abre a las 7:30a.m.,Hidalgo del Parral
Restaurante Mr. Chao Fovissste,gruporestauranterochao.com,None Found,+52 627 523 3060,"Del Chaparral 2, Fovissste Las Fuentes, 33890 Hidalgo del Parral, Chih., México",Marisquería, Abre a las 11a.m.,Hidalgo del Parral
Restaurante Mariscos Escuinapa,,None Found,+52 627 523 0919,"Primavera 10, Centro, 33800 Hidalgo del Parral, Chih., México",Marisquería, Abre a las 8:30a.m.,Hidalgo del Parral
"ANTOJITOS ""LA PEÑA""",,None Found,+52 627 522 1841,"Av. Villa Escobedo 52, La Pena, 33848 Hidalgo del Parral, Chih., México",Restaurante mexicano, Abre a las 8a.m.,Hidalgo del Parral
El Polvorin,,None Found,+52 627 525 7340,"Progreso, 33820 Hidalgo del Parral, Chih., México",Restaurante, Abre a las 9:30a.m.,Hidalgo del Parral
Gringo's Hidalgo del Parral,,None Found,+52 627 279 3333,"Avenida A. Ortiz Mena & Del Ojito, Centro, 33850 Hidalgo del Parral, Chih., México",Restaurante americano, Abre a la 1p.m.,Hidalgo del Parral
CARACAL BISTRO,,None Found,+52 55 4764 5899,"Av. A. Ortiz Mena 147, Centro, 33800 Hidalgo del Parral, Chih., México",Restaurante, Abre a las 8a.m.,Hidalgo del Parral
BUNK3R,facebook.com,None Found,+52 627 523 2323,"Av. Independencia 1, Centro, 33800 Hidalgo del Parral, Chih., México",Restaurante americano, Abre a las 2p.m.,Hidalgo del Parral
Restaurante Chagos,,None Found,+52 627 115 7917,"33800, Centro, Hidalgo del Parral, Chih., México",Restaurante, Abre a la 1p.m.,Hidalgo del Parral
La Cenaduría,,None Found,,"Felipe Angeles 4, Las Quintas, 33860 Hidalgo del Parral, Chih., México",Restaurante, 7a.m.,Hidalgo del Parral
Mariscos A La Changada Parral,facebook.com,None Found,+52 627 138 2288,"Av. Independencia 284, Centro, 33850 Hidalgo del Parral, Chih., México",Marisquería, Abre a las 11a.m.,Hidalgo del Parral
Antojitos El Güero,,None Found,+52 627 523 6456,"Av. Independencia 190, Centro, 33800 Hidalgo del Parral, Chih., México",Restaurante, Abre a las 9a.m.,Hidalgo del Parral
Bromelia Restaurant,,None Found,+52 627 115 2124,"Progreso, 33815 Hidalgo del Parral, Chih., México",Restaurante, Abre a las 9a.m.,Hidalgo del Parral
Pancake Paradise Parral,,None Found,+52 627 522 8035,"Ribera de Guanajuato, Guanajuato, Centro, 33860 Hidalgo del Parral, Chih., México",Restaurante, 7a.m.,Hidalgo del Parral
NOVO,,None Found,+52 627 523 0666,"Esquina con, Av.Pedro de Lille, Dr. de Lille s/n-Cuarto Piso, 33800 Hidalgo del Parral, Chih., México",Restaurante de sushi, Abre a la 1p.m.,Hidalgo del Parral
ENCARBONADAS -- Papa'Ral,,None Found,+52 627 523 0115,"C. Lucas Balderas 1, Centro, 33800 Hidalgo del Parral, Chih., México",Restaurante, Cierra a las 11a.m. ,Hidalgo del Parral
Paraíso Frutal,,None Found,+52 627 520 7052,"Ignacio Zaragoza 71, entre 20 de Noviembre y Juan Rangel, Centro, 33800 Hidalgo del Parral, Chih., México",Restaurante, Abre a las 7a.m. del lun,Hidalgo del Parral
TACOS Y MARISCOS BELMAR,,None Found,+52 627 523 4395,"Av. A. Ortiz Mena 36, Centro, 33850 Hidalgo del Parral, Chih., México",Restaurante mexicano, Abre a las 10:30a.m.,Hidalgo del Parral
Birria Franco,,None Found,,"Eugenio Cintron 65, Centro, 33800 Hidalgo del Parral, Chih., México",Taquería, 7a.m.,Hidalgo del Parral
El Leñador Cortes y Parrilla,es-la.facebook.com,None Found,+52 627 522 5922,"Av. Independencia 366-B, Centro, 33850 Hidalgo del Parral, Chih., México",Parrilla,,Hidalgo del Parral
Mariscos La Palapa,facebook.com,None Found,+52 627 523 2468,"Av. Niños Héroes s/n, La Almanceña, 33880 Hidalgo del Parral, Chih., México",Marisquería, Abre a las 9:30a.m.,Hidalgo del Parral
Mariscos el rorro,,None Found,+52 627 521 2753,"Av. Independencia 48, Centro, 33850 Hidalgo del Parral, Chih., México",Marisquería,,Hidalgo del Parral
Mariscos Altamar,facebook.com,None Found,+52 627 138 8507,"Av. Villa Escobedo 253, La Huerta, 33848 Hidalgo del Parral, Chih., México",Marisquería, Abre a las 10a.m.,Hidalgo del Parral
Sazón House,,None Found,,"20 de Nov. 19, Centro, 33850 Hidalgo del Parral, Chih., México",Restaurante, Abre a las 10a.m.,Hidalgo del Parral
La Parrilla de Cuernavaca,,None Found,+52 627 522 1666,"Ricardo Flores Magón 69 A, Centro, 33800 Hidalgo del Parral, Chih., México",Parrilla, Abre a las 3p.m.,Hidalgo del Parral
Restaurante Mina vieja,,None Found,+52 627 522 7447,"Mercaderes 59, Centro, 33800 Hidalgo del Parral, Chih., México",Cafetería,,Hidalgo del Parral
Cocina Económica Soyle,,None Found,+52 627 523 2006,"Sonora 5, Centro, 33850 Hidalgo del Parral, Chih., México",Restaurante, Abre a las 12p.m. del lun,Hidalgo del Parral
Gorditas La Canasta,,None Found,+52 627 522 6131,"Calle Cuarta 78, Altavista, 33860 Hidalgo del Parral, Chih., México",Restaurante, Abre a las 8:30a.m. del lun,Hidalgo del Parral
El Zagúan Parral,facebook.com,None Found,+52 627 102 9521,"Av. A. Ortiz Mena 96, Boulevard, Centro, 33800 Hidalgo del Parral, Chih., México",Restaurante,,Hidalgo del Parral
Restaurant Las Brasas,,None Found,+52 627 115 9142,"Av. Tecnológico 28, Sin Asignación En Nombre de Asentamiento, 33850 Hidalgo del Parral, Chih., México",Restaurante, Abre a las 8a.m.,Hidalgo del Parral
El Rey De La Costilla,,None Found,+52 627 117 3734,"Av Pedro de Lille, Fco madero, 33890 Hidalgo del Parral, Chih., México",Restaurante, Abre a las 6:55p.m.,Hidalgo del Parral
Las Catrinas,las-catrinas.ola.click,None Found,+52 627 132 8454,"C. Pensador Mexicano 13, Centro, 33800 Hidalgo del Parral, Chih., México",Restaurante mexicano, Abre a las 8a.m.,Hidalgo del Parral
Restaurante Real de Biezma,,None Found,,"33800, Centro, Hidalgo del Parral, Chih., México",Marisquería, Abre a las 8a.m.,Hidalgo del Parral
Monster Wings,,None Found,+52 627 118 0703,"Av. Independencia 439, Las Fuentes 4a. Etapa, 33890 Hidalgo del Parral, Chih., México",Restaurante especializado en pollo, Abre a la 1p.m.,Hidalgo del Parral
Tacos La 20,,None Found,+52 627 177 0494,"20 de Nov. 97, Centro, 33800 Hidalgo del Parral, Chih., México",Taquería, Abre a las 12p.m.,Hidalgo del Parral
Tacos Gera,,None Found,+52 627 523 3664,"Boulevard Ortíz Mena y Toltecas s/n, Del Conejo, 33800 Hidalgo del Parral, Chih., México",Restaurante, 7a.m.,Hidalgo del Parral
Jasahos Pizzas,jasahosparral.com,"Sencillo local con ambiente desenfadado y entrega a domicilio que ofrece pizzas, ensaladas y botanas.",+52 627 522 0090,"Av. A. Ortiz Mena 200, Centro, 33800 Hidalgo del Parral, Chih., México",Pizzería, Abre a las 12p.m.,Hidalgo del Parral
Café Mi Jacalito,,None Found,+52 627 522 5180,"Ricardo Flores Magón 53, América, 33800 Hidalgo del Parral, Chih., México",Cafetería,,Hidalgo del Parral
Pizzería La Sierra Parral,,None Found,+52 627 523 4848,"Av Pedro de Lille y Doctor de Lille S/N, C.n.o.p., 33890 Hidalgo del Parral, Chih., México",Pizzería, 7a.m.,Hidalgo del Parral
El Sazón de Parral,facebook.com,None Found,+52 627 150 6480,"Ricardo Flores Magón 34, Centro, 33800 Hidalgo del Parral, Chih., México",Restaurante, Abre a las 9a.m.,Hidalgo del Parral
MARISCOS EL SHAVA,facebook.com,None Found,+52 627 177 7758,"33800, Del Conejo, 33850 Hidalgo del Parral, Chih., México",Marisquería, Abre a las 11a.m.,Hidalgo del Parral
Cafetería El Correo de Parral,facebook.com,None Found,+52 627 525 3499,"20 de Nov. 9, Centro, 33800 Hidalgo del Parral, Chih., México",Cafetería, Abre a las 8:30a.m.,Hidalgo del Parral
Elotes Lulú,,None Found,+52 627 147 5617,"Riva Palacio, Centro, 33800 Hidalgo del Parral, Chih., México",Restaurante,,Hidalgo del Parral
Hotel y Restaurant Moreira,,None Found,+52 627 522 1070,"Jesús García 2, Centro, 33834 Hidalgo del Parral, Chih., México",,,Hidalgo del Parral
Cremería Zaragoza,,None Found,+52 627 522 9576,"Ignacio Zaragoza 77, Centro, 33800 Hidalgo del Parral, Chih., México",Quesería, Abre a las 8a.m. del lun,Hidalgo del Parral
La Regina Parral,,None Found,,"Avenida A. Ortiz Mena & Del Ojito, Centro, 33800 Hidalgo del Parral, Chih., México",Restaurante, Abre a la 1p.m.,Hidalgo del Parral
Antojitos Tommy,,None Found,+52 5220022,"Agustín Barbachano, Centro, 33800 Hidalgo del Parral, Chih., México",Restaurante, Abre a las 9a.m.,Hidalgo del Parral
Tortas Meny,,None Found,+52 627 524 1472,"17, Av. Villa Escobedo, La Pena, 33848 Hidalgo del Parral, Chih., México",Restaurante mexicano, Abre a las 10a.m.,Hidalgo del Parral
"El Gordo Gil - Lonches, Tortas y Burritos",,None Found,+52 627 523 1041,"Av. A. Ortiz Mena 30, Centro, 33850 Hidalgo del Parral, Chih., México",Restaurante de burritos, Abre a las 10a.m.,Hidalgo del Parral
Tortas del Parque,tortasdelparque.com,None Found,+52 627 523 2522,"C. Parque del Niño 27, Centro, 33800 Hidalgo del Parral, Chih., México",Restaurante de comida rápida, Abre a las 9:30a.m.,Hidalgo del Parral
Restaurante Las 7 Salsas,facebook.com,None Found,+52 627 525 9620,"Plaza Coloso, Gral. Maclovio Herrera 59-Local #10, Centro, 33800 Hidalgo del Parral, Chih., México",Restaurante,,Hidalgo del Parral
La cocina de Anita,,None Found,+52 627 108 8846,"Del Ojito 32, Centro, 33850 Hidalgo del Parral, Chih., México",Restaurante, Abre a las 12p.m. del lun,Hidalgo del Parral
La Creperia Parral,facebook.com,None Found,+52 627 138 7539,"Av. Independencia #411, Centro, 33890 Hidalgo del Parral, Chih., México",Crepería, Abre a las 5p.m.,Hidalgo del Parral
Quesabirria Parral,,None Found,+52 627 889 7555,"Bartolomé de Las Casas 11, Centro, 33800 Hidalgo del Parral, Chih., México",Restaurante especializado en barbacoa, Abre a las 9a.m.,Hidalgo del Parral
Little Farm,,None Found,+52 627 525 3024,"Av. A. Ortiz Mena 184, Centro, 33800 Hidalgo del Parral, Chih., México",Restaurante especializado en pollo, Abre a las 10a.m.,Hidalgo del Parral
Escuinapa Express,,None Found,+52 627 523 3131,"Av. A. Ortiz Mena 75, Del Conejo, 33850 Hidalgo del Parral, Chih., México",Marisquería, Abre a las 12p.m.,Hidalgo del Parral
Rincón del Mar,,None Found,+52 627 523 1430,"México 45 32, Las Fuentes 4a. Etapa, 33890 Hidalgo del Parral, Chih., México",Marisquería, Abre a las 9a.m.,Hidalgo del Parral
Rincón del Mar,,None Found,+52 627 523 1430,"México 45 32, Las Fuentes 4a. Etapa, 33890 Hidalgo del Parral, Chih., México",Marisquería, Abre a las 9a.m.,Hidalgo del Parral
"Dobladas y Gorditas ""La Chiquita""",,None Found,+52 627 889 6588,"C. 15 de Mayo 42, Talleres, 33857 Hidalgo del Parral, Chih., México",Restaurante, Abre a las 7a.m. del lun,Hidalgo del Parral
Dobladas Mi Parral,,None Found,+52 627 131 0170,"Av. Independencia 42, Centro, 33850 Hidalgo del Parral, Chih., México",Restaurante, Abre a las 7a.m. del lun,Hidalgo del Parral
Yu sushi,yusushi.mx,None Found,+52 627 132 4230,"Av. Independencia 359, Primavera, 33880 Hidalgo del Parral, Chih., México",Restaurante japonés, Abre a la 1p.m.,Hidalgo del Parral
Gorditas La Catedral,es-es.facebook.com,None Found,+52 627 525 8282,"Mercaderes 77, Centro, 33834 Hidalgo del Parral, Chih., México",Restaurante, Abre a las 8a.m.,Hidalgo del Parral
Tacos Light,,None Found,,"Blvrd Antonio Ortiz Mena, Jesús Valdez, Centro, 33800 Hidalgo del Parral, México",Taquería, Abre a las 7:30a.m.,Hidalgo del Parral
Sushi Express Parral,sushiexpressparral.com,None Found,+52 627 522 0409,"20 de Nov. 85, Altavista, 33860 Hidalgo del Parral, Chih., México",Restaurante de sushi, Abre a la 1p.m.,Hidalgo del Parral
ANTOJITOS LA PEÑITA,facebook.com,None Found,+52 627 523 0341,"Av. Independencia, Las Fuentes 2a. Etapa, 33890 Hidalgo del Parral, Chih., México",Restaurante, Abre a las 8:30a.m.,Hidalgo del Parral
ANTOJITOS LA PEÑITA,facebook.com,None Found,+52 627 523 0341,"Av. Independencia, Las Fuentes 2a. Etapa, 33890 Hidalgo del Parral, Chih., México",Restaurante, Abre a las 8:30a.m.,Hidalgo del Parral
JQUISSIME,,None Found,,"Av. Independencia 418, Sin Asignación En Nombre de Asentamiento, 33890 Hidalgo del Parral, Chih., México",Restaurante mexicano,,Hidalgo del Parral
Menuderia Lizbeth,,None Found,+52 627 523 3240,"Manuel M. Ponce 26, Angela Peralta, 33880 Hidalgo del Parral, Chih., México",Restaurante, 7a.m.,Hidalgo del Parral
Mercadito Aztlán,instagram.com,None Found,+52 627 173 0842,"Independencia y Constitución Local 19-A, Centro, 33850 Hidalgo del Parral, Chih., México",Restaurante de comida saludable, Abre a las 8a.m. del lun,Hidalgo del Parral
"Quesadillas ""Las 3 Marías""",facebook.com,None Found,+52 627 144 6725,"Av. Independencia 257, Centro, 33850 Hidalgo del Parral, Chih., México",Restaurante, Abre a las 9a.m. del lun,Hidalgo del Parral
Tacos y lonches Gera,facebook.com,None Found,+52 627 108 4947,"Baca, 33890 Hidalgo del Parral, Chih., México",Taquería, 7a.m.,Hidalgo del Parral
Tortas El Oso,,None Found,+52 627 517 8108,"Colon 30 Local 3 Colonia Morelos, Colonia Morelos, 33830 Hidalgo del Parral, Chih., México",, Abre a las 9a.m.,Hidalgo del Parral
Antojitos Pam Pin,,None Found,+52 627 522 0555,"Calle del Cerro 1 int 8, Centro, 33800 Hidalgo del Parral, Chih., México",Restaurante mexicano, Abre a las 9a.m.,Hidalgo del Parral
De Chivas tacos,,None Found,+52 627 521 5588,"Venustiano Carranza 4, Centro, 33800 Hidalgo del Parral, Chih., México",Taquería, Abre a las 8a.m.,Hidalgo del Parral
DC Restaurant Bar,,None Found,,"Gabino Barreda 2-Loc. 23, Centro, 33860 Hidalgo del Parral, Chih., México",Bar restaurante, Abre a las 6:30p.m.,Hidalgo del Parral
Hamburguesas El Gallo,,None Found,+52 627 128 6345,"Av. A. Ortiz Mena 270, La Pena, 33860 Hidalgo del Parral, Chih., México",Hamburguesería, Abre a la 1p.m.,Hidalgo del Parral
Hamburguesas El Gallo,,None Found,+52 627 128 6345,"Av. A. Ortiz Mena 270, La Pena, 33860 Hidalgo del Parral, Chih., México",Hamburguesería, Abre a la 1p.m.,Hidalgo del Parral
Marvell Dogos y Wings,facebook.com,None Found,+52 627 131 0445,"Gabino Barreda, Centro, 33860 Hidalgo del Parral, Chih., México",Restaurante, Abre a la 1p.m.,Hidalgo del Parral
Pollo Feliz Ciudad Parral,,None Found,+52 627 523 2255,"Calle Ocampo Y Xicotencatl S/N, Centro, 33800 Hidalgo del Parral, Chih., México",Restaurante especializado en pollo, Abre a las 11a.m.,Hidalgo del Parral
Mariscos La Prieta,,None Found,+52 627 106 4221,"Bartolomé de Medina 32, Fátima, 33834 Hidalgo del Parral, Chih., México",Marisquería, Abre a las 10a.m.,Hidalgo del Parral
LA PARRILLA DEL KOMPA HUGO,sites.google.com,None Found,+52 627 133 1313,"Del Alamillo, Las Fuentes 4a. Etapa, 33800 Hidalgo del Parral, Chih., México",Restaurante especializado en chuletas, Abre a las 11a.m.,Hidalgo del Parral
Terravista Cocina Fusión,facebook.com,None Found,+52 627 114 8413,"esquina con, Calle Pino alto, Arroyo Hondo, 33890 Hidalgo del Parral, Chih., México",Restaurante, Abre a las 8a.m.,Hidalgo del Parral
Comida china shun jing,,None Found,,"Coronado 187, Centro, 33800 Hidalgo del Parral, Chih., México",Restaurante chino,,Hidalgo del Parral
Enchiladas Doña Cuca,facebook.com,None Found,+52 627 143 8282,"Del Rayo, Centro, 33800 Hidalgo del Parral, Chih., México",Restaurante mexicano, Abre a las 3p.m.,Hidalgo del Parral
Birria Lalo,,None Found,+52 627 522 1518,"Colegio 37, Centro, 33800 Hidalgo del Parral, Chih., México",Restaurante, Abre a las 7:30a.m.,Hidalgo del Parral
Grizzly Wings,facebook.com,None Found,+52 627 523 0764,"Parque de comida “la botana, Avenida A. Ortiz Mena y toltecas, 33800 Hidalgo del Parral, Chih., México",Restaurante, Abre a la 1p.m.,Hidalgo del Parral
Elotes Lulú,,None Found,+52 627 147 5617,"Jesús García 55a, Fátima, 33800 Hidalgo del Parral, Chih., México",Restaurante,,Hidalgo del Parral
Hamburguesas Jhonny,,None Found,+52 627 102 8686,"Centro, Av. A. Ortiz Mena 60, Centro, 33800 Hidalgo del Parral, Chih., México",Hamburguesería, Abre a las 9a.m.,Hidalgo del Parral
Hamburguesas Mario's,,None Found,+52 627 119 9536,"33800, Centro, Hidalgo del Parral, Chih., México",Hamburguesería, Abre a las 11a.m.,Hidalgo del Parral
TEXAS PIZZA PARRAL,texaspizza.app,None Found,+52 627 147 0093,"Unnamed Road, Benito Juárez, 33870 Hidalgo del Parral, Chih., México",Pizzería, Abre a las 12p.m.,Hidalgo del Parral
Jugos Licuados Cócteles El Garin,,None Found,+52 627 523 1616,"Av Independencia, C. Constitución &, Centro, 33850 Hidalgo del Parral, Chih., México",Tienda de zumos, Cierra a las 9:45p.m.,Hidalgo del Parral
Jugos Licuados Cócteles El Garin,,None Found,+52 627 523 1616,"Av Independencia, C. Constitución &, Centro, 33850 Hidalgo del Parral, Chih., México",Tienda de zumos, Cierra a las 9:45p.m.,Hidalgo del Parral
"Cocina Económica ""Doña Petry's""",facebook.com,None Found,+52 627 113 1274,"Ing. Norberto Domínguez 130, Ex Hda Sierra Seca, 33860 Hidalgo del Parral, Chih., México",Restaurante mexicano, Abre a las 8a.m. del lun,Hidalgo del Parral
Cocina D' Karla,,None Found,,"Av. Independencia 85, Centro, 33800 Hidalgo del Parral, Chih., México",Restaurante mexicano,,Hidalgo del Parral
Restaurante Macao,,None Found,+52 627 174 7335,"Jesús Valdez 2, Centro, 33800 Hidalgo del Parral, Chih., México",Cafetería, Abre a las 2p.m.,Hidalgo del Parral
Churros Rellenos Parral,,None Found,+52 627 522 2465,"Coronado 14, Centro, 33800 Hidalgo del Parral, Chih., México",Restaurante de comida rápida, Abre a las 9:30a.m.,Hidalgo del Parral
La Parroquia,,None Found,,"Méndez 2, Centro, 33800 Hidalgo del Parral, Chih., México",Restaurante,,Hidalgo del Parral
"mariscos el ""meny""",,None Found,+52 627 231 2372,"C. Carlos Fuero, Centro, 33800 Hidalgo del Parral, Chih., México",Marisquería, Abre a las 11a.m.,Hidalgo del Parral
Bar Monterrey - El mejor bar de parral,,None Found,+52 627 522 0821,"33800, Centro, 33800 Hidalgo del Parral, Chih., México",Bar musical, Abre a las 12p.m.,Hidalgo del Parral
Arcade Wings,,None Found,+52 627 177 1093,"Av. Independencia 61, Centro, 33800 Hidalgo del Parral, Chih., México",Restaurante familiar, Abre a las 3p.m.,Hidalgo del Parral
"Antojitos ""Mi Dieguin"" Tacos de Papa & Flautas",,None Found,+52 627 521 2989,"Ricardo Flores Magón, Centro, 33800 Hidalgo del Parral, Chih., México",Restaurante, Abre a las 7p.m.,Hidalgo del Parral
BARBACOA,,None Found,+52 627 522 7388,"C. Cristóbal Colón 27, Centro, 33800 Hidalgo del Parral, Chih., México",Restaurante especializado en barbacoa, Abre a las 7:30a.m.,Hidalgo del Parral
Tacos La Rueda,,None Found,+52 627 149 5730,"Altavista, 33860 Hidalgo del Parral, Chih., México",Taquería,,Hidalgo del Parral
"Lirios Restaurant, Salón de Eventos y Snacks",,None Found,+52 627 174 0141,"Ignacio Zaragoza 111, Centro, 33800 Hidalgo del Parral, Chih., México",Restaurante, Abre a las 8a.m.,Hidalgo del Parral
Kensho Poke Bowls Parral,,None Found,+52 871 476 0263,"C. Constitución 7-A, Centro, 33850 Hidalgo del Parral, Chih., México",Restaurante asiático, Abre a las 5p.m. del lun,Hidalgo del Parral
La Cevicheria,lacevicheria.mx,None Found,+52 627 144 6190,"Jesús García 82, Centro, 33800 Hidalgo del Parral, Chih., México",Marisquería, Abre a las 10a.m.,Hidalgo del Parral
Cocina San Martín Altavista,,None Found,+52 627 522 2595,"Tercera 63, Altavista, 33860 Hidalgo del Parral, Chih., México",Restaurante de comida rápida, Abre a las 12p.m. del lun,Hidalgo del Parral
Monster wings zaragoza,,None Found,+52 627 177 8239,"Ignacio Zaragoza, Centro, 33800 Hidalgo del Parral, Chih., México",Restaurante de alas de pollo, Abre a la 1p.m.,Hidalgo del Parral
Sushi-to,,None Found,+52 627 122 2559,"Libertad 33, Centro, 33850 Hidalgo del Parral, Chih., México",Restaurante de sushi, Abre a las 12:30p.m.,Hidalgo del Parral
Chilaquiles box parral,chilaquilesbox.com,None Found,+52 627 177 7040,"C. Constitución 13, Centro, 33850 Hidalgo del Parral, Chih., México",Restaurante de comida para llevar, Abre a las 8a.m.,Hidalgo del Parral
Domino's Hidalgo Del Parral,dominosmx.app.link,Cadena de comida a domicilio o para llevar con gran variedad de pizzas y otros platos y acompañamientos.,+52 627 523 3000,"Av. Tecnológico. 7 Hidalgo del Parral, 33850 Chihuahua, Chih., México",Pizzería, Abre a las 11a.m.,Hidalgo del Parral
Mariscos Patas Saladas,,None Found,+52 627 104 3889,"Adrian Pena Rivera de Guanajuato, Guanajuato, Centro, 33860 Hidalgo del Parral, Chih., México",Marisquería, Abre a las 11:30a.m.,Hidalgo del Parral
Buffalo Hot Wings,,None Found,+52 627 525 6545,"Pzla. Morelos 6, Centro, 33800 Hidalgo del Parral, Chih., México",Restaurante de alas de pollo, Abre a las 12p.m.,Hidalgo del Parral
Master dogo Parral,,None Found,+52 627 111 2419,"Melchor Ocampo 4, Centro, 33850 Hidalgo del Parral, Chih., México",Restaurante, 7a.m.,Hidalgo del Parral
