Names,Website,Introduction,Phone Number,Address,Type,Opens At,Municipio
Sonora Grill Irapuato,sonoragrill.com.mx,None Found,+52 462 693 2494,"Blvd. A Villas de Irapuato #899, Ejido, Plaza Cibeles, 36643 Irapuato, Gto., México",Restaurante, Cierra a la 1a.m.,Irapuato
Restaurante El Torito Steak,eltoritosteak.mx,"Restaurant y bar especialista en carnes al carbón, con área y menú para niños, terraza, y ambiente familiar.",+52 462 627 2694,"Calle Av Casimiro Liceaga 912, Moderna, 36690 Irapuato, Gto., México",Restaurante especializado en chuletas, Cierra a las 11p.m.,Irapuato
Argentino Steak House,instagram.com,None Found,+52 462 152 2610,"Av. Murano 151-Local 1, Col Ejido, 36670 Irapuato, Gto., México",Restaurante especializado en filetes, Cierra a la 1a.m.,Irapuato
Hacienda de Torres,haciendadetorress.com,Platos mexicanos con influencia internacional en un comedor cálido con candiles y escenario para espectáculos.,+52 462 624 6048,"Av. Guerrero 2783, Las Plazas, 36620 Irapuato, Gto., México",Restaurante, 10p.m. ,Irapuato
Asador La Vaca Argentina,lavaca-argentina.com,None Found,+52 462 307 2088,"Héroe de Nacozari 1655, San Miguelito, 36557 Irapuato, Gto., México",Restaurante argentino, Cierra a las 11p.m.,Irapuato
Restaurante Bixa Cocina Auténtica,linktr.ee,Sitio de diseño contemporáneo con terraza y arte moderno que ofrece cocina mexicana con influencia yucateca.,+52 462 626 0834,"C. Fco. Sarabia 596, Moderna, 36690 Irapuato, Gto., México",Restaurante, 10:30p.m. ,Irapuato
La Imperial,laimperial.info,None Found,+52 462 250 8857,"Juan de Urbina 853-1, Moderna, 36690 Irapuato, Gto., México",Pizzería, Cierra a las 12a.m.,Irapuato
Lindo Sinaloa,facebook.com,None Found,+52 462 285 6457,"P.º de la Altiplanicie 1936, Sin Nombre, 36643 Irapuato, Gto., México",Marisquería, Cierra a las 11p.m.,Irapuato
Restaurante El Rincón Gaucho,gauchoirapuato.com,None Found,+52 462 431 0127,"P.º de la Altiplanicie 1596, Ejido Irapuato, 36670 Irapuato, Gto., México",Restaurante argentino, Cierra a las 12a.m.,Irapuato
BEEF CAPITAL,beefcapital.com,None Found,+52 462 490 3253,"Av. a Villas de Irapuato No.621-A 1ro de Mayo, 36644 Irapuato, Gto., México",Restaurante especializado en filetes, Cierra a la 1a.m.,Irapuato
La Casa De Las Diligencias,,None Found,+52 462 247 5905,"Vicente Guerrero #440-1, Barrio de San Miguel, 36510 Irapuato, Gto., México",Restaurante, Cierra a las 11:30p.m.,Irapuato
Boulevard Café,facebook.com,None Found,+52 14624195674,"Irapuato-Abasolo 3133, Las Plazas, 36620 Irapuato, Gto., México",Cafetería, 10:30p.m. ,Irapuato
El Oasis de la Cruz,,None Found,+52 462 624 0988,"Prol. Guerrero #2525, Col, Unidad Modelo del IMSS, 36612 Irapuato, Gto., México",Restaurante, Cierra a las 11p.m.,Irapuato
El Oasis De La Cruz,,None Found,+52 462 660 3274,"Génova 278, Residencial Campestre, 36698 Irapuato, Gto., México",Restaurante mexicano, Cierra a las 11p.m.,Irapuato
Route 66 Mx,,None Found,+52 462 215 3993,"Avenida Mariano J. García 926 Local 2 Col, 1ro de Mayo, 36644 Irapuato, Gto., México",Restaurante, Cierra a las 2a.m.,Irapuato
GUZTTAZO,guzttazo.com,None Found,+52 462 624 6384,"Irapuato-Abasolo 2955, Las Plazas, 36620 Irapuato, Gto., México",Restaurante, Cierra a las 11p.m.,Irapuato
Los Vitrales Restaurante Irapuato,restaurantes.hotsson.com,None Found,+52 462 215 2020 ext. 4005,"Av. Paseo de la Solidaridad 13649, Col Juarez, 36620 Irapuato, Gto., México",Restaurante, Cierra a las 11p.m.,Irapuato
Casa Centro Restaurante,casacentroirapuato.com,None Found,+52 462 398 0348,"5 de Mayo 752, Col. Centro, 36510 Irapuato, Gto., México",Restaurante mexicano,,Irapuato
Champs Irapuato,,Lugar sencillo pero popular afuera del estadio de fútbol para tomar cervezas y compartir alitas y costillas.,+52 462 310 5750,"Estadio Sergio León Chávez, Blvd. Lázaro Cárdenas 38, Viveros Revolucion, 36650 Irapuato, Gto., México",Restaurante, Cierra a las 12p.m. del dom,Irapuato
Lula Cocina Mexicana,boxlunchlula.com,None Found,+52 462 607 0707,"Ejército Nacional 412, Las Reynas, 36660 Irapuato, Gto., México",Restaurante, Abre a las 8a.m. del dom,Irapuato
Santiaguito restaurante,santiaguito.mx,None Found,+52 462 606 3260,"Galeana 148, Barrio de Santiaguito, 36588 Irapuato, Gto., México",Restaurante, Cierra a las 11:30p.m.,Irapuato
Gianni,,None Found,+52 462 398 1738,"Plaza Delta, Héroe de Nacozari 1665-Local C3, Las Heras 2da Secc, 36640 Irapuato, Gto., México",Restaurante italiano, Cierra a las 11p.m.,Irapuato
Motril Café Restaurant,motril.com.mx,None Found,+52 462 220 1941,"Jacarandas 2049, San Miguelito, 36557 Irapuato, Gto., México",Restaurante, 10p.m. ,Irapuato
Cafezzito,,None Found,,"Berriozabal 153, Col. Centro, 36500 Irapuato, Gto., México",Bar restaurante, 10p.m. ,Irapuato
Chilacayote. Bolleria + Cerveza,,None Found,+52 462 338 0763,"PLAZA SANTA MARÍA REYNA, Av Mariano J. García 1063-Local 18, San Miguelito, 36557 Irapuato, Gto., México",Restaurante, 10p.m. ,Irapuato
El Buffet de la Arrachera,,Restaurante bar frecuentado por su buffet de carnes y comida mexicana en un amplio local de ambiente familiar.,+52 462 660 0263,"Comisión Federal de Electricidad, Av. C.F.E 2581, Laboratorio CFE, 36631 Irapuato, Gto., México",Restaurante mexicano, Abre a la 1p.m. del dom,Irapuato
Wild Rooster Irapuato,wildrooster.com.mx,"Restaurante amplio con terraza para probar alitas, hamburguesas y botanas mexicanas con torres de cerveza.",+52 462 624 2905,"Av. Vicente Guerrero 2879, Las Plazas, 36620 Irapuato, Gto., México",Bar restaurante, Cierra a las 2a.m.,Irapuato
Lung Xing,,None Found,+52 462 625 0363,"Blvrd Díaz Ordaz 1148, Jardines de Irapuato, 36660 Irapuato, Gto., México",Restaurante chino, Abre a la 1p.m. del dom,Irapuato
Las Alitas Irapuato,lasalitas.com,None Found,+52 462 693 2453,"Villas de Irapuato 1099, 36670 Irapuato, Gto., México",Restaurante de alas de pollo, Cierra a las 12a.m.,Irapuato
Puerto Norte,,None Found,+52 462 220 1974,"Boulevard a Villas de Irapuato 1443, Colonia Ejido de Irapuato, 36643 Irapuato, Gto., México",Restaurante, Cierra a las 12a.m.,Irapuato
CON SABOR A CAFE,consaboracafe.com.mx,None Found,+52 462 135 6118,"PLAZA DELTA, Héroe de Nacozari 1655, San Miguelito, 36557 Irapuato, Gto., México",Cafetería, Cierra a las 11p.m.,Irapuato
Café Reforma,,None Found,+52 462 601 8044,"Av. de la Reforma 422, Gamez, 36650 Irapuato, Gto., México",Cafetería, 10p.m. ,Irapuato
Toks Irapuato Cibeles,toks.com.mx,None Found,+52 462 693 2757,"Blvd. Villas de Irapuato #1443, Int. A-31, 36670 Irapuato, Gto., México",Restaurante mexicano, 10p.m. ,Irapuato
Cenaduria y Desayunos La Reforma Irapuato Restaurante,antojitosmexicanoslareforma.com,None Found,+52 462 291 5765,"Av. de la Reforma 1654, Cd Deportiva, 36612 Irapuato, Gto., México",Restaurante mexicano, 10:30p.m. ,Irapuato
Rincon del Café,rincondelcafe.com,None Found,+52 462 446 7083,"Avenida Mariano J. García 1282 Bajando el Puente de la Primera de Mayo rumbo a, Plaza Cibeles, 36640 Irapuato, Gto., México",Restaurante, 10p.m. ,Irapuato
The House of the BBQ,facebook.com,None Found,+52 462 251 4005,"Av. Jacarandas 309, La Estancia, 36615 Irapuato, Gto., México",Restaurante americano, Cierra a las 11p.m.,Irapuato
Platoroto Café,platoroto.com,None Found,+52 462 215 4203,"Génova 393, Residencial Campestre, 36698 Irapuato, Gto., México",Restaurante, 10p.m. ,Irapuato
La Casona 1880,facebook.com,None Found,+52 462 341 3601,"Av. Guerrero 275, Centro, 36500 Irapuato, Gto., México",Restaurante, 10p.m. ,Irapuato
La Casona 1880,facebook.com,None Found,+52 462 341 3601,"Av. Guerrero 275, Centro, 36500 Irapuato, Gto., México",Restaurante, 10p.m. ,Irapuato
TACOS STEAK IRAPUATO,facebook.com,None Found,+52 462 148 7537,"Blvrd Arandas #426, Las Plazas, 36620 Irapuato, Gto., México",Taquería, 10:30p.m. ,Irapuato
TACOS STEAK IRAPUATO,facebook.com,None Found,+52 462 148 7537,"Blvrd Arandas #426, Las Plazas, 36620 Irapuato, Gto., México",Taquería, 10:30p.m. ,Irapuato
Qué más da!!!,que-mas-da.negocio.site,None Found,+52 462 195 9053,"Blvrd Arandas 1497, El Cortijo, 36600 Irapuato, Gto., México",Marisquería, 10p.m. ,Irapuato
Restaurante el jardín,restauranteljardin.com.mx,None Found,+52 462 626 6868,"Av. Juárez 91, Centro, 36500 Irapuato, Gto., México",Restaurante mexicano, Abre a las 8a.m. del dom,Irapuato
Muralia Café & Cocina artesanal,,None Found,+52 462 265 8084,"Berriozabal, Col. Centro, 36500 Irapuato, Gto., México",Restaurante,,Irapuato
Mr. Guacamayo,,None Found,+52 462 400 0690,"Blvd. Lázaro Cárdenas 4330, Residencial Campestre, 36698 Irapuato, Gto., México",Restaurante mexicano, Cierra a las 11:30p.m.,Irapuato
Aragonés Bistro Gourmet,,None Found,+52 462 624 4638,"San Pedro 711-Local 12, San Pedro 1ra Secc, 36520 Irapuato, Gto., México",Restaurante, Abre a las 8a.m. del dom,Irapuato
La Cabaña,,None Found,+52 462 249 7925,"Blvrd Paseo Solidaridad 12035, Laboratorio CFE, 36630 Irapuato, Gto., México",Restaurante, Abre a las 8a.m. del dom,Irapuato
La Cabaña,,None Found,+52 462 249 7925,"Blvrd Paseo Solidaridad 12035, Laboratorio CFE, 36630 Irapuato, Gto., México",Restaurante, Abre a las 8a.m. del dom,Irapuato
Momotaro,momotaro.com.mx,Restaurante amplio y cálido con decoraciones japonesas y aire moderno que se especializa en sushi.,+52 462 624 9167,"Blvrd Díaz Ordaz 1258, Jardines de Irapuato, 36660 Irapuato, Gto., México",Restaurante de sushi, Abre a las 12p.m. del lun,Irapuato
Rincon Gallardo,,None Found,+52 462 116 6375,"Plaza Quinta la Gavia, Solidaridad 13827 Ejido de Juarez, 38510 Irapuato, Gto., México",Restaurante, 10p.m. ,Irapuato
La Crude Irapuato,facebook.com,None Found,+52 462 246 9857,"San Miguelito, Privadas el Campirano, 36643 Irapuato, Gto., México",Marisquería, Abre a las 12:30p.m. del dom,Irapuato
Vips Irapuato,vips.com.mx,None Found,+52 26243826,"Las Villas 229, Col, 1ro de Mayo, 36644 Irapuato, Gto., México",Restaurante mexicano, 10p.m. ,Irapuato
Tarso Food and Drink,facebook.com,None Found,+52 462 635 1062,"Av. Estrella 204, Las Plazas, 36620 Irapuato, Gto., México",Restaurante, Abre a las 9a.m. del dom,Irapuato
Lulú Burgers,luluburgers.mx,None Found,+52 462 367 2975,"Plaza Murano Irapuato Av Manuel, Gómez Morin, Las Heras, 36640 Irapuato, Gto., México",Hamburguesería, 10p.m. ,Irapuato
Taqueria Los Angeles,,None Found,+52 462 624 9783,"Calz. De Los Chinacos 1204, Ferrocarrilero, 36690 Irapuato, Gto., México",Taquería, Cierra a las 11p.m.,Irapuato
La Pilarica,facebook.com,None Found,+52 462 222 2330,"C. V. de las Fuentes 760-Local A, Moderna, 36690 Irapuato, Gto., México",Marisquería, Cierra a las 12a.m.,Irapuato
La Pilarica,facebook.com,None Found,+52 462 222 2330,"C. V. de las Fuentes 760-Local A, Moderna, 36690 Irapuato, Gto., México",Marisquería, Cierra a las 12a.m.,Irapuato
Sushi Tai Sake & Bar,sakebar.mx,None Found,+52 462 624 5123,"Av. Guerrero 2911, Las Plazas, 36620 Irapuato, Gto., México",Restaurante de sushi, 10:30p.m. ,Irapuato
Vancouver Wings Irapuato,facebook.com,None Found,+52 462 334 5562,"Av Mariano J. García 1063-1, 1 Mayo, 36630 Irapuato, Gto., México",Pub restaurante, Cierra a la 1:30a.m.,Irapuato
Italianni's Irapuato,italiannis.com.mx,None Found,+52 462 693 2801,"Blvd. Villas de Irapuato 1443 Col. Ejido de, 36643 Irapuato, Gto., México",Restaurante italiano, Abre a las 8a.m. del dom,Irapuato
Taquería Los Fundadores,,None Found,+52 462 626 7438,"Av Revolución 374, Barrio de la Piedra Lisa, 36510 Irapuato, Gto., México",Taquería, Cierra a las 12a.m.,Irapuato
Chatos Grill Restaurante Bar,m.facebook.com,None Found,+52 462 490 6182,"Blvrd Paseo Solidaridad 9829, Plan Guanajuato, 36510 Irapuato, Gto., México",Bar restaurante, Cierra a las 3a.m.,Irapuato
Wild Rooster Cuatro Vias,wildrooster.com.mx,None Found,+52 462 621 1299,"Gómez Morin 3377 Loc. 10-11, Ejido Irapuato, 36643 Irapuato, Gto., México",Restaurante, Cierra a las 2a.m.,Irapuato
Wild Rooster Cuatro Vias,wildrooster.com.mx,None Found,+52 462 621 1299,"Gómez Morin 3377 Loc. 10-11, Ejido Irapuato, 36643 Irapuato, Gto., México",Restaurante, Cierra a las 2a.m.,Irapuato
The Beerstone Taproom,m.facebook.com,None Found,+52 462 693 2884,"Blvd. Villas de Irapuato 169 Edif. E Local 2 y 3 Planta Baja, 1ro de Mayo, 36644 Irapuato, México",Restaurante americano, Cierra a las 11p.m.,Irapuato
Carnitas El Crucero,,None Found,+52 462 624 5003,"Rosendo Salazar 1848, 1ro de Mayo, 36644 Irapuato, Gto., México",Restaurante mexicano, Abre a las 9a.m. del dom,Irapuato
Pico de Gallo - Irapuato,facebook.com,None Found,+52 462 215 3531,"Francisco de Sixtos 1031, Moderna, 36690 Irapuato, Gto., México",Restaurante,,Irapuato
Con Sabor a Café,,"Acogedora cafetería para probar crepas, sándwiches y ensaladas junto con bebidas hechas con café y coctelería.",+52 462 627 9853,"Calle Av Casimiro Liceaga 195-1, Moderna, 36690 Irapuato, Gto., México",Cafetería, 10p.m. ,Irapuato
Antojitos del Bajío,,None Found,,"Galeana 36, Barrio de Santiaguito, 36588 Irapuato, Gto., México",Restaurante mexicano, Cierra a las 11p.m.,Irapuato
Don José Cocina Mexicana,,None Found,,"Av Mariano J. García 1158, San Miguelito, 36557 Irapuato, Gto., México",Restaurante, Abre a las 9a.m. del dom,Irapuato
Don José Cocina Mexicana,,None Found,,"Av Mariano J. García 1158, San Miguelito, 36557 Irapuato, Gto., México",Restaurante, Abre a las 9a.m. del dom,Irapuato
Quesadillas Las Palomas,,None Found,+52 462 124 3502,"Av Mariano J. García 1214, 1ro de Mayo, 36644 Irapuato, Gto., México",Restaurante mexicano, Abre a las 8a.m. del dom,Irapuato
Asador Sonora,,None Found,,"36698, Atenas 127, Residencial Campestre, Irapuato, Gto., México",Restaurante especializado en chuletas,,Irapuato
Kalinda,,None Found,+52 462 635 0660,"Ejército Nacional 701, Las Reynas, 36660 Irapuato, Gto., México",Restaurante, Abre a las 8a.m. del dom,Irapuato
Cervecería Chapultepec Irapuato,,None Found,,"Av. Murano, Las Heras 2da Secc, 36640 Irapuato, Gto., México",Bar, Cierra a la 1a.m.,Irapuato
Las Adelitas Restaurancito,,None Found,+52 462 230 8230,"Av Independencia 1245, Ignacio Allende, 36568 Irapuato, Gto., México",Restaurante, Abre a las 8a.m. del lun,Irapuato
La Calle,,None Found,+52 462 223 6173,"Blvrd Díaz Ordaz 3596, Las Reynas, 36660 Irapuato, Gto., México",Restaurante mexicano, Abre a las 9a.m. del dom,Irapuato
Las 4 Esquinas,,None Found,,"Sostenes Rocha 393, Barrio de Sta Anita, 36541 Irapuato, Gto., México",Taquería, Cierra a las 11:45p.m.,Irapuato
"Don Martín, Cocina del Mar",instagram.com,None Found,+52 462 400 0315,"Blvrd Paseo Solidaridad 13469-Interior 1 Ejido lo de Juárez, 36620 Irapuato, Gto., México",Marisquería, Abre a la 1p.m. del dom,Irapuato
"Don Martín, Cocina del Mar",instagram.com,None Found,+52 462 400 0315,"Blvrd Paseo Solidaridad 13469-Interior 1 Ejido lo de Juárez, 36620 Irapuato, Gto., México",Marisquería, Abre a la 1p.m. del dom,Irapuato
Pescados y Mariscos La Ola,,None Found,+52 462 626 5349,"Leandro Valle 293, De San José, Barrio de San José, 36500 Irapuato, Gto., México",Marisquería, Abre a las 9a.m. del dom,Irapuato
El Camarón Guasaveño Irapuato,,None Found,+52 462 173 1840,"Av. de la Reforma 1346, Jardines del Valle, 36611 Irapuato, Gto., México",Restaurante, Abre a las 10:30a.m. del dom,Irapuato
Camarón Supremo,,None Found,+52 462 394 3782,"Génova 443, Residencial Campestre, 36698 Irapuato, Gto., México",Restaurante, Cierra a las 11p.m.,Irapuato
La Estación de Irapuato,,None Found,+52 462 318 1453,"Av Las Arboledas 2208-Interior 1, Residencial Jacarandas, 36526 Irapuato, Gto., México",Restaurante, Abre a las 12:30p.m. del dom,Irapuato
La Casa de los Chilaquiles,,None Found,+52 462 145 7371,"C. Pipila 142, Col. Centro, 36500 Irapuato, Gto., México",Restaurante mexicano, Abre a las 8a.m. del dom,Irapuato
El sabor de Irapuato,,None Found,+52 462 256 2762,"Morelos #1854, Morelos, 36585 Irapuato, Gto., México",Restaurante, Abre a las 9a.m. del dom,Irapuato
El sabor de Irapuato,,None Found,+52 462 256 2762,"Morelos #1854, Morelos, 36585 Irapuato, Gto., México",Restaurante, Abre a las 9a.m. del dom,Irapuato
Restaurante Campestre Odorata,,None Found,,"Calle Presa, San Miguelito, Privadas el Campirano, 36643 Irapuato, Gto., México",Restaurante de desayunos, Abre a las 9a.m. del dom,Irapuato
El Buffet de la Arrachera Cibeles,elbuffetdelaarrachera.com,None Found,+52 462 145 2375,"Av Mariano J. García 1282, Ejido de Irapuato, 36643 Irapuato, Gto., México",Restaurante, Abre a las 12p.m. del dom,Irapuato
Cenaduría Los Eucaliptos,,None Found,+52 462 635 0036,"Lago 1771, Las Reynas, 36660 Irapuato, Gto., México",Restaurante, 10p.m. ,Irapuato
Madero Restaurante - Irapuato,maderorestaurante.mx,None Found,+52 55 1454 0455,"Nube 109, Las Reynas, 36660 Irapuato, Gto., México",Restaurante mexicano,,Irapuato
Terraza Q,,None Found,+52 462 624 6992,"Escuela Médico Militar 171, Las Reynas, 36660 Irapuato, Gto., México",Bar restaurante, Abre a las 8:30a.m. del lun,Irapuato
Las Margaritas,margaritasirapuato.com,None Found,+52 462 101 2491,"Blvd. Euquerio Guerrero 426, Tabachines, 36615 Irapuato, Gto., México",Restaurante, Abre a las 9a.m. del lun,Irapuato
Asian Buffet,,None Found,+52 462 623 3888,"Plaza Cibeles, Blvd. Villas de Irapuato 1443, Col. Ejidp, 36643 Irapuato, Gto., México",Buffet libre, Abre a las 12p.m. del dom,Irapuato
Asian Buffet,,None Found,+52 462 623 3888,"Plaza Cibeles, Blvd. Villas de Irapuato 1443, Col. Ejidp, 36643 Irapuato, Gto., México",Buffet libre, Abre a las 12p.m. del dom,Irapuato
Lo Pezcaste,,None Found,+52 462 135 1753,"Blvd. Lázaro Cárdenas 4556, Residencial Campestre, 36698 Irapuato, Gto., México",Marisquería, Abre a las 10:30a.m. del dom,Irapuato
LINDO GUANAJUATO,,None Found,+52 477 518 0107,"Av. de Los Insurgentes 2470, Bajada de San Martin, 36555 Irapuato, Gto., México",Restaurante mexicano, Abre a las 8:30a.m. del dom,Irapuato
Momotaro Plaza Delta,,None Found,+52 462 135 6122,"Héroe de Nacozari 1655 Plaza Delta Local B-5 B-6, San Miguelito, 36557 Irapuato, Gto., México",Restaurante de sushi, 10p.m. ,Irapuato
Parripollo - Restaurante de Pollo Asado en Irapuato,linktr.ee,None Found,+52 462 624 8803,"Calz. De Los Chinacos 515, Ferrocarrilero, 36690 Irapuato, Gto., México",Restaurante especializado en pollo, Abre a las 11:30a.m. del dom,Irapuato
Huaraches Al Pastor,,None Found,+52 462 148 1067,"Av. Juan José Torres Landa 216, Rodriguez, 36690 Irapuato, Gto., México",Restaurante mexicano, Abre a las 10a.m. del dom,Irapuato
Mariscos Popeye's,,None Found,+52 462 624 3525,"44 y 45, Av. Guerrero 44, Col. Centro, 36500 Irapuato, Gto., México",Marisquería, Abre a las 11a.m. del dom,Irapuato
Mariscos Popeye's,,None Found,+52 462 624 3525,"44 y 45, Av. Guerrero 44, Col. Centro, 36500 Irapuato, Gto., México",Marisquería, Abre a las 11a.m. del dom,Irapuato
La Barvaquita Irapuato,la-barvaquita.ola.click,None Found,+52 462 247 6316,"Av. Guerrero 3198, Santa Fe, 36620 Irapuato, Gto., México",Restaurante, Abre a las 8:30a.m. del dom,Irapuato
Pescados y Mariscos Pepe´s,,None Found,,"Adolfo López Mateos 1460, Los Presidentes, 36550 Irapuato, Gto., México",Marisquería, Abre a las 11a.m. del dom,Irapuato
Zeiba Garden Resto Bar,,None Found,+52 462 153 8716,"Av Mariano J. García 1568, 36643 Irapuato, Gto., México",Restaurante, Abre a las 8:30a.m. del dom,Irapuato
Flamin wings Plaza Delta,flaminwings.com,None Found,+52 462 135 6025,"Héroe de Nacozari 1655, San Miguelito, 36557 Irapuato, Gto., México",Restaurante, Cierra a las 12a.m.,Irapuato
Tierra de Maíz,facebook.com,None Found,+52 462 624 4618,"Olas 3120-B, Las Reynas, 36660 Irapuato, Gto., México",Restaurante familiar, Abre a las 9a.m. del mar,Irapuato
El Aguacate Tostadas y Mariscos,,None Found,+52 462 625 0258,"Av. de la Reforma 934, La Hacienda, 36650 Irapuato, Gto., México",Marisquería, Abre a las 12p.m. del dom,Irapuato
El Aguacate Tostadas y Mariscos,,None Found,+52 462 625 0258,"Av. de la Reforma 934, La Hacienda, 36650 Irapuato, Gto., México",Marisquería, Abre a las 12p.m. del dom,Irapuato
El Jaibon Azúl,,None Found,+52 462 138 3981,"Avenida villas de Irapuato 2662-local 11, 36660 Irapuato, Gto., México",Restaurante, Abre a las 12p.m. del dom,Irapuato
Festín Mexicano Restaurante,facebook.com,None Found,+52 462 126 1357,"Laboratorio de CFE, Mocuzari 1606, Laboratorio CFE, 36631 Irapuato, Gto., México",Restaurante mexicano, Abre a las 9a.m. del dom,Irapuato
Festín Mexicano Restaurante,facebook.com,None Found,+52 462 126 1357,"Laboratorio de CFE, Mocuzari 1606, Laboratorio CFE, 36631 Irapuato, Gto., México",Restaurante mexicano, Abre a las 9a.m. del dom,Irapuato
Bistro La Comer Irapuato,,None Found,,"Del Bosque 1, Las Reynas, 36660 Irapuato, Gto., México",Restaurante familiar, Abre a las 7a.m. del dom,Irapuato
Luciano's Pizzería,rb.gy,None Found,+52 462 626 5583,"554-B, Boulevard Lázaro Cárdenas 554, Santa Julia, 36667 Irapuato, Gto., México",Pizzería, Abre a las 12:30p.m. del dom,Irapuato
OPA: Crudería,,None Found,+52 462 125 0267,"Av. Guerrero 1297, Rodriguez, 36690 Irapuato, Gto., México",Restaurante, Cierra a las 11p.m.,Irapuato
Gosto do Brasil,,None Found,+52 462 003 6925,"Las Villas 1, de Mayo, 36644 Irapuato, Gto., México",Restaurante brasileño, Abre a las 12:30p.m. del dom,Irapuato
Atípica - Coffee Corner,instagram.com,None Found,+52 462 193 6082,"C. Fco. Sarabia 411, Moderna, 36690 Irapuato, Gto., México",Restaurante de brunch, Abre a las 8a.m. del dom,Irapuato
Carnitas El Güero Irapuato,carnitaselguero.com,None Found,+52 462 273 0344,"Gómez Morin 3776-A, Las Heras, 36640 Irapuato, Gto., México",Restaurante mexicano, Abre a las 9a.m. del dom,Irapuato
Carnitas El Güero Irapuato,carnitaselguero.com,None Found,+52 462 273 0344,"Gómez Morin 3776-A, Las Heras, 36640 Irapuato, Gto., México",Restaurante mexicano, Abre a las 9a.m. del dom,Irapuato
Restaurante Zhen Yi,,None Found,+52 462 626 0817,"Av. 1ᵒ de Mayo 506, Col. Centro, 36500 Irapuato, Gto., México",Restaurante chino, Abre a las 12p.m. del dom,Irapuato
