Names,Website,Introduction,Phone Number,Address,Type,Opens At,Municipio
Restaurante Viva México,restaurantevivamexico.com,"Gran espacio iluminado con velas, donde se sirven almuerzo y desayuno tipo buffet, con espectáculos nocturnos.",+52 656 629 0157,"Av. Abraham Lincoln 900-1, Zona Pronaf Condominio La Plata, 32310 Juárez, Chih., México",Restaurante mexicano, Abre a las 8a.m. del dom,Juárez
La Nueva Central,lanuevacentral.com,"Restaurante antiguo con platos y postres internacionales, café, batidos y jugos.",+52 656 612 3738,"C. 16 de Septiembre 222, Centro, 32000 Juárez, Chih., México",Restaurante,,Juárez
Los Arcos,restaurantlosarcos.com,None Found,+52 656 616 7556,"Av. Paseo Triunfo de la República 2220, Partido Romero, 32030 Juárez, Chih., México",Marisquería, Abre a las 10a.m. del dom,Juárez
Great American Steakhouse,greatamericansteakhouse.com,None Found,+52 656 378 0429,"Boulevard Teófilo Borunda 8681, C.C. MISIONES Loc. 3, Partido Iglesias, 32663 Juárez, Chih., México",Restaurante especializado en filetes, Cierra a la 1a.m.,Juárez
La Choperia,lachoperiajuarez.com,"Restaurante tranquilo con música en vivo, filetes, mariscos, tacos y desayuno tipo buffet.",+52 656 611 0142,"Av. Abraham Lincoln 971, Zona Pronaf Condominio La Plata, 32317 Juárez, Chih., México",Restaurante de alta cocina, 12a.m. ,Juárez
Las Espadas - Brazilian Steakhouse,lasespadas.mx,None Found,+52 656 741 8166,"Av. Ejército Nacional #8397-Local B1, Partido Iglesias, 32600 Juárez, Chih., México",Restaurante brasileño, Abre a las 12:30p.m. del dom,Juárez
El Tragadero,,None Found,,"C. Constitución 179 Sur, Centro, 32000 Juárez, Chih., México",Restaurante mexicano, Abre a las 11:30a.m. del dom,Juárez
"Ardeo restaurante de brasas, en La Morín",eatardeo.com,None Found,+52 656 741 9714,"Blvd. Manuel Gomez Morin, Campestre 7855, 32460 Juárez, Chih., México",Restaurante, Cierra a la 1a.m.,Juárez
La Carbonería (Raza),,None Found,+52 656 438 1121,"Av de la Raza 6220, Condesa, 32320 Juárez, Chih., México",Restaurante especializado en filetes, Abre a la 1p.m. del dom,Juárez
Restaurante La Nueva Central Tecnologico,lanuevacentral.com,"Restaurante tranquilo, de alrededor de 1958, que ofrece platos internacionales en un comedor colorido.",+52 656 703 8199,"Av. Tecnológico 1561, Villa Hermosa, 32510 Juárez, Chih., México",Restaurante,,Juárez
Cabanna Restaurant,cabanna.com.mx,None Found,+52 656 173 4981,"Bulevar Tomás Fernández 7533, Partido Doblado, 32424 Juárez, Chih., México",Marisquería,,Juárez
Barrigas Misiones,barrigas.com,"Platillos mexicanos, opciones americanas y buffet de desayunos en un lugar acogedor con paredes de piedra.",+52 656 251 0492,"Av. P.º de la Victoria 4220, Partido Romero, 32040 Juárez, Chih., México",Bar restaurante,,Juárez
Barrigas Campestre,barrigas.com,None Found,+52 656 427 3248,"Blvd. Manuel Gómez Morín, Campestre 7814, 32460 Juárez, Chih., México",Restaurante, 12a.m. ,Juárez
Restaurante El Puente,facebook.com,None Found,+52 656 558 7370,"Av de la Raza 6720, Del Futuro, 32519 Juárez, Chih., México",Restaurante mexicano,,Juárez
La Cabaña Steak House - Sucursal Misiones,restaurant-lacabana.com,None Found,+52 656 648 4190,"Blvd. Teófilo Borunda 8681, Bosques del Sol, 32618 Juárez, Chih., México",Restaurante,,Juárez
Mercado San Benito,,None Found,+52 656 617 0370,"C. Pedro Rosales de León 7147, Fuentes del Valle, 32500 Juárez, Chih., México",Restaurante, 12a.m. ,Juárez
San Martín Cantina Tradicional,sanmartintradicional.com,Restaurante de platos típicos mexicanos con bar donde se sirve tequila y shows de los mariachis en vivo.,+52 656 395 7262,"Av. Abraham Lincoln 1002, Col La playa, 32310 Juárez, Chih., México",Bar restaurante, Cierra a las 2a.m.,Juárez
La Nueva Central Consulado,lanuevacentral.com,"Restaurante informal con un extenso menú de platos mexicanos y chinos, mariscos y hamburguesas.",+52 656 215 9354,"Av. Ramon Rivera Lara #9010, C. Las Lunas col-int 1, 32543 Juárez, Chih., México",Restaurante mexicano,,Juárez
La Nueva Central Consulado,lanuevacentral.com,"Restaurante informal con un extenso menú de platos mexicanos y chinos, mariscos y hamburguesas.",+52 656 215 9354,"Av. Ramon Rivera Lara #9010, C. Las Lunas col-int 1, 32543 Juárez, Chih., México",Restaurante mexicano,,Juárez
Generales de Villa Restaurante,,None Found,+52 656 626 6499,"Av Vicente Guerrero 3648, Partido Escobedo, 32330 Juárez, Chih., México",Restaurante mexicano, 12a.m. ,Juárez
Parador Tomochi,paradortomochi.com,None Found,+52 656 657 8528,"Av. Adolfo López Mateos 1145, Los Nogales, 32350 Juárez, Chih., México",Restaurante, Abre a las 7a.m. del dom,Juárez
María Chuchena,,None Found,+52 656 251 5346,"Bulevar Tomás Fernández 7818-1, Camino Real, 32460 Juárez, Chih., México",Restaurante, Abre a las 8a.m. del dom,Juárez
Taberna Dinner Club,lataberna.myrestoo.net,None Found,+52 656 863 0744,"Ortiz Rubio 734, Las Arcadas, 32563 Juárez, Chih., México",Restaurante, Abre a las 7p.m. del jue,Juárez
Rocco Café Bistro & Bar,roccocafe.com,"Acogedor lugar que sirve desayunos mexicanos, sándwiches y pastas en un estilizado comedor decorado en madera.",+52 656 625 0779,"Av. Campos Eliseos 9050, Campos Elíseos, 32472 Juárez, Chih., México",Restaurante, Abre a las 8a.m. del dom,Juárez
Italia Forno Ristorante,italia-ristorante.com,None Found,+52 656 611 2525,"26 Plaza Renacimiento, Av. Paseo Triunfo de la República 4020-26, Partido Romero, 32030 Juárez, Chih., México",Restaurante italiano, Abre a la 1p.m. del dom,Juárez
Italia Forno Ristorante,italia-ristorante.com,None Found,+52 656 611 2525,"26 Plaza Renacimiento, Av. Paseo Triunfo de la República 4020-26, Partido Romero, 32030 Juárez, Chih., México",Restaurante italiano, Abre a la 1p.m. del dom,Juárez
Ristorante Italiano Abelini,facebook.com,None Found,+52 656 264 3691,"Rancho el 24 3152, Pradera Dorada, 32618 Juárez, Chih., México",Restaurante italiano, Abre a las 11a.m. del dom,Juárez
Chapa,chapajrz.com,None Found,+52 656 617 0565,"Blvd. Manuel Gómez Morín 7150, Tecnológico, 32500 Juárez, Chih., México",Restaurante,,Juárez
Angus Rojo,angusrojo.com,None Found,+52 656 617 2020,"Av. Paseo Triunfo de la República 430, Partido Doblado, 32530 Juárez, Chih., México",Restaurante, 12a.m. ,Juárez
Restaurant MITLA,,None Found,+52 656 524 6076,"Av. Hermanos Escobar 2266, Hidalgo, 32300 Juárez, Chih., México",Restaurante especializado en filetes, Abre a las 11a.m. del dom,Juárez
Playa Bichis,playabichis.mx,None Found,+52 656 648 2048,"Blvd. Manuel Gómez Morín 8125, Partido, Senecú, 32530 Juárez, Chih., México",Restaurante, Abre a las 8a.m. del dom,Juárez
Playa Bichis,playabichis.mx,None Found,+52 656 648 2048,"Blvd. Manuel Gómez Morín 8125, Partido, Senecú, 32530 Juárez, Chih., México",Restaurante, Abre a las 8a.m. del dom,Juárez
Mitla restaurant,facebook.com,None Found,+52 656 837 0268,"Av. Ejército Nacional 6333, 32607 Juárez, Chih., México",Restaurante,,Juárez
Shangri La,shangrila.com.mx,None Found,+52 656 613 0033,"Av. de Las Americas 133, Margaritas, 32300 Juárez, Chih., México",Restaurante de cocina mandarina, 11:50p.m. ,Juárez
La Cabaña Steak House,restaurant-lacabana.com,"Lugar de destino tranquilo con desayunos, almuerzos y cenas típicos, además de zona de juegos.",+52 656 633 0660,"Carretera Panamericana, Calle Puente Alto 10015, 32695 Juárez, Chih., México",Restaurante mexicano,,Juárez
La Cabaña Steak House,restaurant-lacabana.com,"Lugar de destino tranquilo con desayunos, almuerzos y cenas típicos, además de zona de juegos.",+52 656 633 0660,"Carretera Panamericana, Calle Puente Alto 10015, 32695 Juárez, Chih., México",Restaurante mexicano,,Juárez
La Esquina De Chihuas.,facebook.com,None Found,+52 656 271 8258,"32000, Centro, 32000 Juárez, Chih., México",Bar, Cierra a las 2a.m.,Juárez
Costa Brava,facebook.com,None Found,+52 656 615 8587,"Av. de los Insurgentes 828, El Barreal, 32040 Juárez, Chih., México",Marisquería, Abre a las 8:30a.m. del dom,Juárez
Chapa Prime,instagram.com,"Cuidado comedor clásico con manteles blancos en donde se sirven cortes, langosta y platillos internacionales.",+52 656 173 9731,"Av. P.º de la Victoria 3508-1, Partido Iglesias, 31065 Juárez, Chih., México",Restaurante, Abre a las 8a.m. del dom,Juárez
Restaurante El Comal - María Bonita,,None Found,+52 656 406 6400,"Av. P.º de la Victoria 4451, Partido Iglesias, 32528 Juárez, Chih., México",Restaurante mexicano,,Juárez
El Arrancadero Restaurant & Bar,,None Found,+52 656 558 2595,"C. Don Pedro Meneses Hoyos 6754, Partido Iglesias, 32528 Juárez, Chih., México",Bar restaurante, Abre a las 8a.m. del dom,Juárez
Mayflower,,None Found,+52 656 753 3402,"Av de la Raza 5820, 32340 Juárez, Chih., México",Restaurante chino, Abre a las 11a.m. del dom,Juárez
Denny's Misiones,dennysmexico.com,Cadena de comedores informal que ofrece comida clásica estadounidense y favoritos del desayuno todo el día.,+52 656 648 3979,"Real de Misiones Centro de Negocios, Av. P.º de la Victoria 4150-Int. D, Partido Iglesias, 32528 Juárez, Chih., México",Diner,,Juárez
Las Espadas - Brazilian Steakhouse,lasespadas.mx,None Found,+52 656 639 4693,"Av. Paseo Triunfo de la República 4635-1, Monumental, 32310 Juárez, Chih., México",Restaurante brasileño, Abre a las 12:30p.m. del dom,Juárez
La Fondita Restaurant,,None Found,+52 656 637 9066,"C. Centeno 7257, Ampl. Aeropuerto, Aeropuerto, 32690 Juárez, Chih., México",Restaurante familiar, Abre a las 8a.m. del lun,Juárez
La Fondita Restaurant,,None Found,+52 656 637 9066,"C. Centeno 7257, Ampl. Aeropuerto, Aeropuerto, 32690 Juárez, Chih., México",Restaurante familiar, Abre a las 8a.m. del lun,Juárez
Garufa Restaurante Argentino - Cd. Juárez,garufajuarez.com,Asador con vasto comedor de manteles blancos y techos altos ofrece comida argentina en un entorno refinado.,+52 656 625 9772,"Bulevar Tomás Fernández 7671, Los Cisnes, Col Los Parques, 32440 Juárez, Chih., México",Restaurante argentino, Abre a la 1p.m. del dom,Juárez
Gula | Cocina + Bar (Senecú),facebook.com,None Found,+52 656 625 3483,"Av. Antonio J. Bermúdez 5770 - 6 Plaza Senecu Parque Industrial, Bermúdez, 32470 Juárez, Chih., México",Bar restaurante, Abre a las 9a.m. del dom,Juárez
Restaurante Bar Villa del Lobo,hoteldonnaanajrz.com,None Found,+52 656 623 2283,"Av. Ejército Nacional 7930, Partido Iglesias, 32663 Juárez, Chih., México",Restaurante mexicano, 12a.m. ,Juárez
Restaurante Bar Villa del Lobo,hoteldonnaanajrz.com,None Found,+52 656 623 2283,"Av. Ejército Nacional 7930, Partido Iglesias, 32663 Juárez, Chih., México",Restaurante mexicano, 12a.m. ,Juárez
La Toscana,,None Found,+52 656 326 4201,"C. Simona Barba 6315, Villa Hermosa, 32510 Juárez, Chih., México",Pizzería, Abre a la 1p.m. del dom,Juárez
Maya Cocina artesanal,,None Found,,"Av. Ejército Nacional 8397-c10, Partido Iglesias, 32528 Juárez, Chih., México",Restaurante, Abre a las 9a.m. del dom,Juárez
La Calle Restaurant,,None Found,+52 656 507 2698,"Calle Ramón Rayon 1700-Local 1, Rincón del Sol, 32575 Juárez, Chih., México",Restaurante, Cierra a las 2a.m.,Juárez
El Canano Steakhouse,,None Found,+52 656 252 8619,"Av de la Raza 6227, Mascareñas, 32320 Juárez, Chih., México",Restaurante,,Juárez
El Canano Steakhouse,,None Found,+52 656 252 8619,"Av de la Raza 6227, Mascareñas, 32320 Juárez, Chih., México",Restaurante,,Juárez
La Esquina Restaurante Sucursal Misiones,,None Found,+52 656 295 8298,"Blvd. Teófilo Borunda 8670, Partido Iglesias, 32618 Juárez, Chih., México",Restaurante familiar, 12a.m. ,Juárez
El Buen Sazón,facebook.com,None Found,+52 656 407 1273,"Ramón Rivera Lara, 32605 Juárez, Chih., México",Restaurante mexicano, Abre a las 8a.m. del dom,Juárez
Las Malas Compañías,,None Found,+52 656 617 4800,"Av. Ejército Nacional 2701-Local 14 G, Del Márquez, 32618 Juárez, Chih., México",Restaurante, Abre a las 8a.m. del dom,Juárez
Olas Mexcalli by Olas altas,,None Found,+52 656 703 8188,"Blvd. Manuel Gómez Morín 10252, Marcela, 32543 Juárez, Chih., México",Bar restaurante, Cierra a la 1a.m.,Juárez
Restaurante Las Cazuelas,m.facebook.com,None Found,,"Av. Abraham Lincoln, Córdova Americas, 32310 Juárez, Chih., México",Restaurante mexicano, Abre a las 8a.m. del dom,Juárez
Restaurante Las Cazuelas,m.facebook.com,None Found,,"Av. Abraham Lincoln, Córdova Americas, 32310 Juárez, Chih., México",Restaurante mexicano, Abre a las 8a.m. del dom,Juárez
El Burrito Crisóstomo,burritocrisostomo.com,None Found,+52 656 251 0720,"Blvd. Manuel Gómez Morín 8327-Int. A, Partido Senecú, 32471 Juárez, Chih., México",Restaurante de burritos, Abre a las 7a.m. del dom,Juárez
La Cabaña de Tony,,None Found,+52 656 397 0442,"Blvd. Manuel Gómez Morín 1255, Zaragoza, 32590 Juárez, Chih., México",Restaurante mexicano, Abre a las 9a.m. del dom,Juárez
Choby's,,None Found,+52 656 613 9390,"Av Vicente Guerrero 3838, Partido Escobedo, 32330 Juárez, Chih., México",Restaurante mexicano, Abre a las 8a.m. del dom,Juárez
El Pueblito De Don Cuco,,None Found,+52 656 217 4832,"Av. P.º de la Victoria 2118, Partido Senecú, 32459 Juárez, Chih., México",Restaurante, 12a.m. ,Juárez
El Pueblito De Don Cuco,,None Found,+52 656 217 4832,"Av. P.º de la Victoria 2118, Partido Senecú, 32459 Juárez, Chih., México",Restaurante, 12a.m. ,Juárez
Taquería El Leoncito,facebook.com,None Found,+52 656 741 7091,"Blvd. Manuel Gómez Morín 1649, Fidel Ávila, 32540 Juárez, Chih., México",Taquería, Cierra a las 3a.m.,Juárez
La Carboneria (Triunfo),facebook.com,None Found,+52 656 477 3322,"Paseo Triunfo de la Republica, Partido Díaz #5535, 32417 Juárez, Chih., México",Restaurante especializado en filetes, Abre a la 1p.m. del dom,Juárez
Fonda Las 2 Marías,,None Found,+52 656 603 0195,"C. Rancho Agua Caliente 3105, Pradera Dorada, 32618 Juárez, Chih., México",Restaurante mexicano, Abre a las 9a.m. del dom,Juárez
Taquería y Cantina La Número 4,,None Found,+52 656 198 5697,"C. de Los Portales 802, Partido Doblado, 32434 Juárez, Chih., México",Taquería, Cierra a las 2a.m.,Juárez
Taquería y Cantina La Número 4,,None Found,+52 656 198 5697,"C. de Los Portales 802, Partido Doblado, 32434 Juárez, Chih., México",Taquería, Cierra a las 2a.m.,Juárez
Ribs corner,ribscorner.com,None Found,+52 656 634 9688,"Av. Ejército Nacional 8397, Floresta de San José, 32618 Juárez, Chih., México",Restaurante, 12a.m. ,Juárez
Luperca,,None Found,+52 656 694 2094,"Bulevar Tomás Fernández 8770, Bermúdez, 32470 Juárez, Chih., México",Restaurante italiano, 12a.m. ,Juárez
Los Talegas,,None Found,,"Av. Ejército Nacional s/n, Partido Escobedo, Juárez, Chih., México",Taquería,,Juárez
Los Talegas,,None Found,,"Av. Ejército Nacional s/n, Partido Escobedo, Juárez, Chih., México",Taquería,,Juárez
La Choza,,None Found,+52 656 170 3342,"Av. Morelia 6839, Lino Vargas, 32663 Juárez, Chih., México",Restaurante mexicano, Abre a las 7a.m. del dom,Juárez
Restaurant Mexico Tipico,,None Found,,"Av. de Las Americas 1220, Zona Pronaf Condominio La Plata, 32300 Juárez, Chih., México",Restaurante mexicano, Abre a las 8a.m. del lun,Juárez
Fonda México viejo,facebook.com,None Found,+52 656 135 6849,"C. Neptuno 8530, Cerrada de los Cipreses, 32460 Juárez, Chih., México",Restaurante mexicano, Abre a las 9a.m. del dom,Juárez
The Sushi Place Misiones,thesushiplace.com,None Found,+52 656 618 0518,"Blvd. Teófilo Borunda 8681-Int. 3, Partido Iglesias, 32663 Juárez, Chih., México",Restaurante de sushi, Abre a las 12p.m. del dom,Juárez
La Esquina Oriental,,None Found,+52 656 235 3636,"En plaza Los Taniches, Calle Rancho Aguacaliente, Rancho San Valentin #7133-y, 32618 Juárez, Chih., México",Restaurante japonés, 12a.m. ,Juárez
La Esquina Oriental,,None Found,+52 656 235 3636,"En plaza Los Taniches, Calle Rancho Aguacaliente, Rancho San Valentin #7133-y, 32618 Juárez, Chih., México",Restaurante japonés, 12a.m. ,Juárez
"Sanborns Ciudad Juárez | Restaurante, Tienda y Farmacia",sanborns.com.mx,None Found,+52 656 613 8908,"Avenida Paseo Triunfo de la República Circuito, No. 3809, Zona Pronaf Condominio La Plata, 32300 Juárez, Chih., México",Restaurante, Abre a las 8a.m. del dom,Juárez
Juárez Burgers,facebook.com,None Found,+52 656 251 0804,"Blvd. Manuel Gómez Morín 7515, Rincones de San Marcos, 32450 Juárez, Chih., México",Hamburguesería, Cierra a las 4a.m.,Juárez
El herradero de los soto,,None Found,+52 656 701 0244,"Av. Hermanos Escobar 2350, Margaritas, 32300 Juárez, Chih., México",Restaurante mexicano, Abre a las 12p.m. del dom,Juárez
Restaurante El Rancho,,None Found,+52 656 391 9090,"México 2, Parcelas Ejido Zaragoza, 32599 Juárez, Chih., México",Restaurante, Abre a las 8a.m. del dom,Juárez
Restaurante El Rancho,,None Found,+52 656 391 9090,"México 2, Parcelas Ejido Zaragoza, 32599 Juárez, Chih., México",Restaurante, Abre a las 8a.m. del dom,Juárez
Restaurant La Choza,,None Found,+52 656 682 4458,"Pockets Plaza Bensa, Blvd. Manuel Gómez Morín 1325-Int. 31, Salvarcar, 32575 Juárez, Chih., México",Restaurante mexicano, Abre a las 7a.m. del dom,Juárez
El Encanto Jarocho,,None Found,+52 656 632 2579,"C. José María Morelos, Alto, 32160 Juárez, Chih., México",Marisquería, Abre a las 7a.m. del dom,Juárez
Los Pavos,facebook.com,None Found,+52 656 613 3424,"Av. Adolfo López Mateos 315, Zona Pronaf Condominio La Plata, 32315 Juárez, Chih., México",Restaurante mexicano, Abre a las 9a.m. del dom,Juárez
Los Pavos,facebook.com,None Found,+52 656 613 3424,"Av. Adolfo López Mateos 315, Zona Pronaf Condominio La Plata, 32315 Juárez, Chih., México",Restaurante mexicano, Abre a las 9a.m. del dom,Juárez
Cuartito Azul,elcuartitoazul.com,None Found,+52 656 623 6097,"C. Simona Barba 6415-13a, Villa Hermosa, 32424 Juárez, Chih., México",Restaurante argentino, Abre a la 1p.m. del dom,Juárez
Cuartito Azul,elcuartitoazul.com,None Found,+52 656 623 6097,"C. Simona Barba 6415-13a, Villa Hermosa, 32424 Juárez, Chih., México",Restaurante argentino, Abre a la 1p.m. del dom,Juárez
Restaurante Terraza Jardín Cibeles,restaurantecibeles.com.mx,None Found,+52 656 625 2425,"Bulevar Tomás Fernández 8450, Bosque Senecú, 32459 Juárez, Chih., México",Restaurante, Abre a las 8a.m. del dom,Juárez
Los Bichis,,None Found,+52 656 619 4074,"C. Sierra de las Cruces 5692, La Cuesta II, 32650 Juárez, Chih., México",Marisquería, Abre a las 8a.m. del dom,Juárez
Los Colegas,,None Found,+52 656 881 1638,"Av. Tecnológico 1808-Int 1, Partido Escobedo, 32330 Juárez, Chih., México",Marisquería, Abre a las 11a.m. del dom,Juárez
Los Colegas,,None Found,+52 656 881 1638,"Av. Tecnológico 1808-Int 1, Partido Escobedo, 32330 Juárez, Chih., México",Marisquería, Abre a las 11a.m. del dom,Juárez
El Barco Marisqueria,,None Found,+52 656 307 1333,"C. Cártamo 9002, Granjero, 32693 Juárez, Chih., México",Marisquería,,Juárez
Burritos Aquimichú,,None Found,+52 656 617 3925,"Av. Valle de Juárez 6593, San Lorenzo, 32320 Juárez, Chih., México",Restaurante de burritos, Abre a las 8a.m. del dom,Juárez
Tinto Cocina Libre,,None Found,+52 656 703 9303,"Blvd. Manuel Gómez Morín 7384, Tecnológico, 32500 Juárez, Chih., México",Restaurante, 12a.m. ,Juárez
Tinto Cocina Libre,,None Found,+52 656 703 9303,"Blvd. Manuel Gómez Morín 7384, Tecnológico, 32500 Juárez, Chih., México",Restaurante, 12a.m. ,Juárez
Taco Baja Cd. Juárez,tacobaja.com.mx,None Found,+52 656 411 1949,"Av. Ejército Nacional 8871, Partido Senecú, 32543 Juárez, Chih., México",Marisquería, Abre a las 11a.m. del dom,Juárez
Fonda Mis Tías,,None Found,+52 656 207 2758,"Acequia Mayor 3628, Jardines Residencial, Las Acequias, 32617 Juárez, Chih., México",Restaurante mexicano, Abre a las 8a.m. del lun,Juárez
Los Arcos,restaurantlosarcos.com,None Found,+52 656 616 7556,"Av. Paseo Triunfo de la República 2220, Partido Romero, 32030 Juárez, Chih., México",Marisquería, Abre a las 10a.m. del dom,Juárez
"Sanborns Ciudad Juárez | Restaurante, Tienda y Farmacia",sanborns.com.mx,None Found,+52 656 613 8908,"Avenida Paseo Triunfo de la República Circuito, No. 3809, Zona Pronaf Condominio La Plata, 32300 Juárez, Chih., México",Restaurante, Abre a las 8a.m. del dom,Juárez
Villa del Mar Restaurant Bar Sea Food,,None Found,+52 656 611 1648,"Av Vicente Guerrero 4181, Partido Escobedo, 32330 Juárez, Chih., México",Marisquería, Abre a las 9a.m. del dom,Juárez
Basilico Cd. Juárez,basilico.mx,None Found,+52 656 634 0039,"Av. Campos Elíseos 9388, Plaza Bistro, Restaurante 8, Campos Elíseos, 32472 Juárez, Chih., México",Pizzería, Abre a las 12p.m. del dom,Juárez
Basilico Cd. Juárez,basilico.mx,None Found,+52 656 634 0039,"Av. Campos Elíseos 9388, Plaza Bistro, Restaurante 8, Campos Elíseos, 32472 Juárez, Chih., México",Pizzería, Abre a las 12p.m. del dom,Juárez
El As del Sazón,,None Found,+52 656 897 1903,"C. 21 de Marzo 4250, 32350 Juárez, Chih., México",Restaurante mexicano, Abre a las 8a.m. del lun,Juárez
Tacotote,tacotote.com,"Cadena mexicana de servicio en el mesón que ofrece variedad de tacos, tortillas caseras y barra de salsas.",+52 656 648 2352,"Blvd. Teófilo Borunda 8681, Partido Iglesias, 32528 Juárez, Chih., México",Restaurante mexicano, Abre a las 10a.m. del dom,Juárez
Tacotote,tacotote.com,"Cadena mexicana de servicio en el mesón que ofrece variedad de tacos, tortillas caseras y barra de salsas.",+52 656 648 2352,"Blvd. Teófilo Borunda 8681, Partido Iglesias, 32528 Juárez, Chih., México",Restaurante mexicano, Abre a las 10a.m. del dom,Juárez
La Custodia De San Pablo,facebook.com,None Found,,"C. 16 de Septiembre 2355, Partido Romero, 32030 Juárez, Chih., México",Restaurante, Abre a la 1p.m. del dom,Juárez
Los Altos,,None Found,+52 656 397 2202,"Enrique Pinocelli, Aerojuarez, 32696 Juárez, Chih., México",Restaurante mexicano, Abre a las 9a.m. del dom,Juárez
Los Altos,,None Found,+52 656 397 2202,"Enrique Pinocelli, Aerojuarez, 32696 Juárez, Chih., México",Restaurante mexicano, Abre a las 9a.m. del dom,Juárez
Las Cúpulas,,None Found,+52 656 616 3266,"Av. Paseo Triunfo de la República 4850, Monumental, 32310 Juárez, Chih., México",Buffet libre,,Juárez
Las Cúpulas,,None Found,+52 656 616 3266,"Av. Paseo Triunfo de la República 4850, Monumental, 32310 Juárez, Chih., México",Buffet libre,,Juárez
Mariscos El Anzuelo,elanzuelojuarez.com,None Found,+52 656 612 3640,"Av. Benito Juárez 294, Centro, 32000 Juárez, Chih., México",Marisquería, Abre a las 8a.m. del dom,Juárez
Mariscos El Anzuelo,elanzuelojuarez.com,None Found,+52 656 612 3640,"Av. Benito Juárez 294, Centro, 32000 Juárez, Chih., México",Marisquería, Abre a las 8a.m. del dom,Juárez
Taquería El Cometa,,None Found,+52 656 610 6185,"Blvd. Óscar Flores 2715, Fraccionamiento División del Norte, División del Nte., 32620 Juárez, Chih., México",Taquería, Cierra a las 2a.m.,Juárez
Taquería El Cometa,,None Found,+52 656 610 6185,"Blvd. Óscar Flores 2715, Fraccionamiento División del Norte, División del Nte., 32620 Juárez, Chih., México",Taquería, Cierra a las 2a.m.,Juárez
"El Ombligo De La Luna - Desayunos, Molcajetes y Cortes",facebook.com,None Found,+52 656 772 2210,"Av. Adolfo López Mateos 1250, Los Nogales, 32330 Juárez, Chih., México",Restaurante, Abre a las 8a.m. del dom,Juárez
Acento Mexicano,,None Found,+52 656 752 8555,"C. Pedro Rosales de León 5523, San Angel, 32380 Juárez, Chih., México",Restaurante, Abre a las 8:30a.m. del dom,Juárez
Menuderia El Parian,facebook.com,None Found,+52 656 407 8817,"Montes Urales 6180-A, La Cuesta, 32680 Juárez, Chih., México",Restaurante mexicano, Abre a las 6a.m. del dom,Juárez
Menuderia El Parian,facebook.com,None Found,+52 656 407 8817,"Montes Urales 6180-A, La Cuesta, 32680 Juárez, Chih., México",Restaurante mexicano, Abre a las 6a.m. del dom,Juárez
Mariscos Villa del Mar,,None Found,+52 656 617 9525,"Blvd. Manuel Gómez Morín 8006, Sandra Lucía, 32460 Juárez, Chih., México",Marisquería, Abre a las 11a.m. del dom,Juárez
