Names,Website,Introduction,Phone Number,Address,Type,Opens At,Municipio
Restaurante El Farallón,farallon.com.mx,None Found,+52 668 812 1273,"Av Gral Álvaro Obregón 499, Centro, 81200 Los Mochis, Sin., México",Marisquería, 12a.m. ,Los Mochis
La Mentirosa,facebook.com,None Found,+52 668 861 1788,"Blvd Centenario 805, Centro, 81200 Los Mochis, Sin., México",Bar restaurante, 12a.m. ,Los Mochis
Panamá Restaurante y Pastelería Gabriel Leyva,panama.com.mx,"Establecimiento con patio y ambiente luminoso que ofrece comidas clásicas, pasteles y tortas.",+52 668 812 1277,"Av. Gral. Gabriel Leyva 690, Centro, 81289 Los Mochis, Sin., México",Restaurante mexicano, Abre a las 7a.m. del dom,Los Mochis
El Pecado Café,,None Found,+52 668 828 2808,"81200, Av. Independencia 528, 81200 Los Mochis, Sin., México",Hamburguesería, Cierra a la 1a.m.,Los Mochis
J&R Ribs Costilleria,ribsjr.com,None Found,+52 668 819 1537,"Plaza Santa Cecilia, Blvd Canuto Ibarra Guerrero 882-1-2, Privada San Mateo, Campestre II Primera Secc, 81248 Los Mochis, Sin., México",Restaurante especializado en soul food, 12a.m. ,Los Mochis
Restaurante V de Vaca,vdevaca.com.mx,None Found,+52 668 165 5555,"Av Gral Álvaro Obregón 525 Pte, Centro, 81200 Los Mochis, Sin., México",Restaurante de platos de carne, Cierra a la 1a.m.,Los Mochis
Lola Cocina de Mercado,,None Found,+52 668 818 0802,"Blvd. Antonio Rosales 800, Fátima, 81200 Los Mochis, Sin., México",Restaurante, Abre a las 8a.m. del dom,Los Mochis
El Leñador,ellenador.com.mx,None Found,+52 668 817 3322,"Blvd. Antonio Rosales 985 Sur, Centro, 81289 Los Mochis, Sin., México",Restaurante mexicano,,Los Mochis
El Quemado Restaurante,,None Found,+52 668 815 3178,"Blvd. Gral. Macario Gaxiola Sur 372, Centro, La Cuchilla, 81200 Los Mochis, Sin., México",Restaurante mexicano, Abre a las 11a.m. del dom,Los Mochis
Restaurant La Pura Calidad,,None Found,+52 668 812 8747,"Av. Belisario Domínguez s/n, Centro, 81200 Los Mochis, Sin., México",Marisquería, Abre a las 7a.m. del dom,Los Mochis
Manzara Gaudir Suc.Country,restaurante.covermanager.com,None Found,+52 668 812 6672,"Blvd Canuto Ibarra Guerrero 800, Privada San Mateo, Jardines del Country, 81248 Los Mochis, Sin., México",Restaurante mediterráneo, Abre a la 1p.m. del dom,Los Mochis
Bao Bao,,None Found,+52 668 253 0373,"Teroque 1298 Fracc, Villa Huites, 81256 Los Mochis, Sin., México",Restaurante chino, Abre a las 6p.m. del dom,Los Mochis
Los Jardines Restaurant,facebook.com,Restaurante tranquilo donde se sirven desayunos y mariscos en un entorno amplio con un patio lleno de plantas.,+52 668 817 4325,"Av. Venustiano Carranza 249, Centro, 81200 Los Mochis, Sin., México",Restaurante mexicano, Abre a las 7a.m. del dom,Los Mochis
Hacienda Los Saucillos,lossaucillos.com,None Found,+52 668 818 0404,"Av. Heriberto Valdez 1070, Scally, 81240 Los Mochis, Sin., México",Restaurante mexicano, Abre a las 6:30a.m. del dom,Los Mochis
Pitaya Costés,pitayacostes.com,None Found,+52 668 819 0883,"Blvd Centenario 805, Colonia Centro, 81200 Los Mochis, Sin., México",Restaurante, Abre a las 12p.m. del dom,Los Mochis
La Cabaña de Doña Chayo,,None Found,+52 668 690 5300,"Av. Independencia #856, Grijalva, 81245 Los Mochis, Sin., México",Taquería, 12a.m. ,Los Mochis
El Santo Remedio,facebook.com,None Found,+52 668 123 0010,"Blvd. Antonio Rosales 2182, Alameda, 81270 Los Mochis, Sin., México",Bar restaurante, Cierra a las 2a.m.,Los Mochis
Oasis de Los Mochis,,None Found,+52 668 812 1853,"Gabriel Leyva 72 sur TEL 668 812 1853, Centro, 81200 Los Mochis, Sin., México",Restaurante de comida rápida, Abre a las 10a.m. del dom,Los Mochis
Aruba Fish & Grill,facebook.com,None Found,+52 668 125 0328,"Blvd. Centenario 805 ote. Col. Salvador esquer apodaca, Terreno, 81271 Los Mochis, Sin., México",Restaurante occidental, 12a.m. ,Los Mochis
EL MOLCAJETE,,None Found,+52 668 817 2767,"C. Constitución 139 Norte, Centro, 81200 Los Mochis, Sin., México",Restaurante mexicano,,Los Mochis
El Leñador,ellenador.com.mx,None Found,+52 668 812 6600,"C. Guillermo Prieto 301, Centro, 81200 Los Mochis, Sin., México",Restaurante especializado en filetes, Abre a las 12p.m. del dom,Los Mochis
María Bonita La Casona | Restaurante Buffet - Eventos,facebook.com,None Found,+52 668 812 3464,"Av. Francisco I. Madero 18, Centro, 81200 Los Mochis, Sin., México",Restaurante mexicano, Abre a las 7a.m. del dom,Los Mochis
Cenaduria Cristy,facebook.com,None Found,+52 668 165 6834,"81200, A. Cano 52 Oriente, Centro, 81200 Los Mochis, Sin., México",Restaurante mexicano, Abre a las 10:30a.m. del dom,Los Mochis
AVIKA COCINA NIKKEI,avika.mx,None Found,+52 668 818 1820,"Río Sinaloa #151, Scally, 81240 Los Mochis, Sin., México",Restaurante japonés, Abre a las 12p.m. del dom,Los Mochis
Blue Note Los Mochis,instagram.com,"Local de dos pisos con mesas al aire libre en el que se ofrecen costillas, hamburguesas, sushi y batidos.",+52 668 856 1617,"Blvrd Río Fuerte 728, Scally, 81240 Los Mochis, Sin., México",Bar restaurante, 12a.m. ,Los Mochis
Mariscos El Tungar,,None Found,+52 668 861 7413,"Ignacio Ramírez 202 B, El parque, 81259 Los Mochis, Sin., México",Marisquería, Abre a las 10a.m. del dom,Los Mochis
Rey de Reyes Restaurant,facebook.com,None Found,+52 668 138 9370,"Av. Santos Degollado Sur 1047, La Bienestar, 81280 Los Mochis, Sin., México",Restaurante mexicano, Abre a las 7a.m. del dom,Los Mochis
Mochis Restaurante Montecarlo,,None Found,+52 668 815 4341,"Independencia, Libramiento Pte. 521, Centro, 81200 Los Mochis, Sin., México",Restaurante mexicano, Abre a las 7a.m. del dom,Los Mochis
La MarisKeña LM,,None Found,+52 668 116 1070,"CASI ESQUINA CON, Boulevard Pedro Anaya, Blvd. Antonio Rosales 827 PTE, Santa Teresa, 81271 Los Mochis, Sin., México",Marisquería, Abre a las 11a.m. del dom,Los Mochis
LA MARINA RESTAURANT,,None Found,+52 668 253 2822,"Av Gral Álvaro Obregón 1470, Jardines del Sol, 81245 Los Mochis, Sin., México",Restaurante, Abre a las 12:30p.m. del dom,Los Mochis
El Bronco Steak House & Bar Los Mochis,elbroncosteak.com,None Found,+52 668 165 0678,"Blvd. Antonio Rosales 60, Centro, 81200 Ahome Los Mochis, Sin., México",Parrilla, Abre a las 12p.m. del dom,Los Mochis
La Cocina Doña Licha Los Mochis,facebook.com,None Found,+52 668 114 3493,"Av. Heriberto Valdez 1300 Plaza Campanario, Local 10, Poniente, 81260 Los Mochis, Sin., México",Restaurante mexicano, Abre a las 7:30a.m. del dom,Los Mochis
Antojitos Las Delicias,facebook.com,None Found,+52 668 832 2596,"Benjamín Jhonston 981 Pte, Scally, 81240 Los Mochis, Sin., México",Restaurante mexicano,,Los Mochis
Cantón,facebook.com,None Found,+52 668 822 8037,"Av. Bienestar 38, La Bienestar, 81280 Los Mochis, Sin., México",Restaurante chino, Abre a las 11:30a.m. del dom,Los Mochis
Restaurante Mochis,facebook.com,None Found,+52 668 815 4378,"Ignacio Zaragoza s/n, Centro, 81200 Ahome Los Mochis, Sin., México",Restaurante mexicano, Abre a las 7:30a.m. del lun,Los Mochis
Tacos de Carne Asada Hays,tacos.mochis.net,None Found,+52 668 688 6262,"Blvd. Antonio Rosales 177, Scally, 81240 Los Mochis, Sin., México",Taquería, 12a.m. ,Los Mochis
Full House Los Mochis,fullhouseburger.mx,None Found,+52 668 100 0524,"Av Gral Álvaro Obregón 1502-B-1502-B, Jardines del Sol, 81245 Los Mochis, Sin., México",Restaurante, Cierra a la 1a.m.,Los Mochis
La Fogata Steakhouse,facebook.com,Restaurante tradicional en el que se sirven tacos clásicos con tortillas hechas a mano y diversas carnes a la parrilla.,+52 668 368 3240,"Av. Francisco I. Madero 1065, Jordán Madero, 81240 Los Mochis, Sin., México",Taquería, 11:20p.m. ,Los Mochis
Tacos El Güero,,None Found,+52 668 248 5337,"Av. Aquiles Serdán 180, Centro, 81200 Los Mochis, Sin., México",Taquería, Cierra a las 2:30a.m.,Los Mochis
Restaurant El Marinero,,None Found,+52 668 812 9294,"Blvd. Adolfo López Mateos 1798-Nte, Jiquilpan, 81220 Los Mochis, Sin., México",Marisquería, Abre a las 9a.m. del dom,Los Mochis
Restaurant El Marinero,,None Found,+52 668 812 9294,"Blvd. Adolfo López Mateos 1798-Nte, Jiquilpan, 81220 Los Mochis, Sin., México",Marisquería, Abre a las 9a.m. del dom,Los Mochis
Alma Mía Restaurante,,None Found,+52 668 812 7576,"Blvd Canuto Ibarra Guerrero 40, Cuahutemoc, 81248 Los Mochis, Sin., México",Restaurante, Abre a las 8a.m. del dom,Los Mochis
Los Callos,,None Found,+52 668 149 8165,"Isla del Socorro 495, Cuahutemoc, Los Mochis, Sin., México",Marisquería, Abre a las 9a.m. del dom,Los Mochis
La Choza Burgers & More,lachozaburger.com,None Found,+52 668 265 1714,"Av. Belisario Domínguez 482 Nte, Centro, 81200 Los Mochis, Sin., México",Hamburguesería, 11:30p.m. ,Los Mochis
Restaurant Luo Yuen,restaurantlouyuen.com,None Found,+52 668 815 0373,"Av Gral Álvaro Obregón 46, Poniente, Centro, 81200 Los Mochis, Sin., México",Restaurante cantonés, Abre a las 12p.m. del dom,Los Mochis
El Chivo de Oro BELISARIO,,None Found,+52 668 812 2805,"Av. Belisario Domínguez 656 sur, La Bienestar, 81280 Los Mochis, Sin., México",Restaurante mexicano, Abre a las 6a.m. del dom,Los Mochis
Mi Casita,,None Found,+52 668 173 4579,"Conquistadores 2260, Villas de Cortez, 81271 Los Mochis, Sin., México",Restaurante mexicano, 11:30p.m. ,Los Mochis
Kinatia,,None Found,+52 668 165 0151,"Blvd Canuto Ibarra Guerrero 790-Local 2, Privada San Mateo, Jardines del Country, 81248 Los Mochis, Sin., México",Restaurante, Abre a las 8a.m. del dom,Los Mochis
Robata Restaurant,facebook.com,None Found,+52 668 688 5671,"Calle Ignacio Allende 600, norte, 81257 Los Mochis, Sin., México",Restaurante japonés, Abre a la 1p.m. del dom,Los Mochis
Maritimo Sea Food Bar,facebook.com,None Found,+52 668 323 8935,"Boulevard Canuto Ibarra Guerrero Abeto 162, 81200 Los Mochis, Sin., México",Pub restaurante, 12a.m. ,Los Mochis
"Asadero ""El Rancho""",,None Found,+52 668 145 2345,"Av Gral Álvaro Obregón 987, Lázaro Cárdenas, 81256 Los Mochis, Sin., México",Parrilla, Cierra a la 1a.m.,Los Mochis
"Asadero ""El Rancho""",,None Found,+52 668 145 2345,"Av Gral Álvaro Obregón 987, Lázaro Cárdenas, 81256 Los Mochis, Sin., México",Parrilla, Cierra a la 1a.m.,Los Mochis
La Fabrica Cocina Italiana,facebook.com,None Found,+52 668 688 8888,"Río Sinaloa 147, Ernesto Hayss Borboa, 81240 Los Mochis, Sin., México",Pizzería, Abre a la 1p.m. del dom,Los Mochis
Cavas CaféBar & Kids,order.foodbot.ai,None Found,+52 668 177 1220,"Francisco Javier Mina 283, Centro, 81200 Los Mochis, Sin., México",Cafetería, Abre a las 7:45a.m. del dom,Los Mochis
Restaurant Los Chilaquiles,,None Found,+52 668 812 1356,"Calle Ignacio Allende 655C, Sinaloa, 81280 Los Mochis, Sin., México",Restaurante, Abre a las 7a.m. del dom,Los Mochis
Restaurante Best Western Plus Los Mochis,bestwestern.com,None Found,+52 668 816 3000,"Av Gral Álvaro Obregón 691, America, 81289 Los Mochis, Sin., México",Restaurante,,Los Mochis
La Mar de Cortéz | Restaurante,facebook.com,None Found,+52 668 812 7050,"C. Constitución 375, Centro, 81200 Los Mochis, Sin., México",Restaurante, Abre a las 10a.m. del dom,Los Mochis
Mariscos El Gordo,facebook.com,None Found,+52 668 247 3541,"Gral. Emiliano Zapata No. 253, Centro, 81200 Los Mochis, Sin., México",Marisquería, Abre a las 8a.m. del dom,Los Mochis
BANKETO,,None Found,+52 668 880 1976,"Av. Heriberto Valdez 1300, Scally, 81240 Los Mochis, Sin., México",Restaurante, Abre a las 7a.m. del dom,Los Mochis
Los Antojitos de Julieta,,None Found,+52 668 812 9458,"Av. Venustiano Carranza 609, Centro, 81200 Los Mochis, Sin., México",Restaurante mexicano, 12a.m. ,Los Mochis
Los Antojitos de Julieta,,None Found,+52 668 812 9458,"Av. Venustiano Carranza 609, Centro, 81200 Los Mochis, Sin., México",Restaurante mexicano, 12a.m. ,Los Mochis
Rice N Wok,facebook.com,None Found,+52 668 688 6093,"Blvd. Antonio Rosales 797, Scally, 81240 Los Mochis, Sin., México",Restaurante chino, Abre a las 11a.m. del dom,Los Mochis
Nicchu,facebook.com,None Found,+52 668 104 3906,"Blvrd Pedro Anaya 305-0te, Fraccionamiento Villa de Santiago, 81293 Los Mochis, Sin., México",Restaurante de sushi, Abre a la 1p.m. del dom,Los Mochis
Pescado Capital,,None Found,+52 668 822 8855,"Dr. Miguel Aguilar Silva S/N, Centro, 81245 Los Mochis, Sin., México",Restaurante, Abre a las 12:30p.m. del dom,Los Mochis
Mariscos Kiro,,None Found,+52 668 815 3543,"Av Ignacio Zaragoza S/N, Centro, 81363 Los Mochis, Sin., México",Marisquería, Abre a las 8:30a.m. del lun,Los Mochis
Yoico,facebook.com,None Found,+52 668 688 6678,"Dr. Miguel Aguilar Silva, Residencial El Pueblito, Jardines del Sol, 81245 Los Mochis, Sin., México",Restaurante japonés, Abre a la 1p.m. del dom,Los Mochis
Ristorante Italiano MARCONI,,None Found,+52 668 165 2540,"Boulevard Río Fuerte 396 81240 ENTRE BENJAMIN HILL, Anatolio Ortega Y, 81240 Los Mochis, Sin., México",Restaurante italiano, Abre a las 12p.m. del dom,Los Mochis
Ristorante Italiano MARCONI,,None Found,+52 668 165 2540,"Boulevard Río Fuerte 396 81240 ENTRE BENJAMIN HILL, Anatolio Ortega Y, 81240 Los Mochis, Sin., México",Restaurante italiano, Abre a las 12p.m. del dom,Los Mochis
Tabu Sushi Los Mochis,tabusushi.com,None Found,+52 668 320 4954,"Blvd Centenario 1215, Las Haciendas, 81277 Los Mochis, Sin., México",Restaurante japonés, 12a.m. ,Los Mochis
El Nuevo Pekín,,None Found,+52 668 829 3492,"Av. Santos Degollado 16 Norte, Centro, 81200 Los Mochis, Sin., México",Restaurante chino, Abre a las 10a.m. del dom,Los Mochis
Restaurante La Fortaleza,,None Found,+52 668 215 0563,"Calle Ignacio Allende 20, Centro, 81200 Los Mochis, Sin., México",Restaurante de brunch, Abre a las 7a.m. del dom,Los Mochis
La Eskina Urban food,,None Found,+52 668 186 8200,"Parque Mochis 604, Del Parque, 81259 Los Mochis, Sin., México",Restaurante, 12a.m. ,Los Mochis
Tacos Don Sebas,,None Found,+52 668 113 6854,"81200, Av. Santos Degollado 468, Centro, 81200 Los Mochis, Sin., México",Taquería, Cierra a las 3:30a.m.,Los Mochis
Restaurante Pacífico,facebook.com,"Sitio íntimo decorado con arte oriental que ofrece cocina china para llevar, comer ahí o entregar a domicilio.",+52 668 812 5973,"Parque Nacional 302, Del Parque, 81259 Los Mochis, Sin., México",Restaurante chino, Abre a las 12p.m. del dom,Los Mochis
EL MONTE DE LOS OLIVOS,,None Found,+52 668 125 5778,"Carr. los Mochis - el Fuerte, 81872 Huepaco, Sin., México",Restaurante mexicano, Abre a las 7:30a.m. del dom,Los Mochis
Asia City,,None Found,+52 668 248 8616,"C. Guillermo Prieto 30, Centro, 81200 Los Mochis, Sin., México",Restaurante,,Los Mochis
La Terraza,,None Found,+52 668 177 3936,"Gabriel Leyva s/n Local 16, Centro, 81200 Ahome Los Mochis, Sin., México",Restaurante mexicano, Abre a las 7a.m. del lun,Los Mochis
La Terraza,,None Found,+52 668 177 3936,"Gabriel Leyva s/n Local 16, Centro, 81200 Ahome Los Mochis, Sin., México",Restaurante mexicano, Abre a las 7a.m. del lun,Los Mochis
María Bonita Campestre | Restaurante Buffet - Eventos,facebook.com,None Found,,"Lazaro Cardenas y Agustin Melgar Calle Principal Ejido Plan de Ayala, 81379 Los Mochis, Sin., México",Restaurante, Abre a las 7a.m. del dom,Los Mochis
Restaurante Cin-Wah,,None Found,+52 668 815 2716,"Av. Francisco I. Madero 338, Centro, 81200 Los Mochis, Sin., México",Restaurante chino, Abre a las 11a.m. del dom,Los Mochis
Owens SteakHouse,,None Found,+52 668 816 0815,"Av. Gral. Gabriel Leyva 405, Centro, 81200 Los Mochis, Sin., México",Restaurante especializado en filetes, Abre a las 7a.m. del dom,Los Mochis
ESPAÑA RESTAURANTE S.A DE C.V.,espanarestaurante.com,Cocina mediterránea ofrecida en buffet en un restaurante clásico y en elegante salones para banquetes.,+52 668 812 2221,"ALVARO OBREGON # 525 PTE, Centro, 81200 Los Mochis, Sin., México",Restaurante de cocina española,,Los Mochis
Restaurante las delicias,,None Found,+52 668 818 2432,"Cuauhtémoc 78, Centro, 81280 Los Mochis, Sin., México",Restaurante familiar,,Los Mochis
Yzawa Cocina Japonesa,,None Found,+52 668 818 1811,"Palma 290-Norte, Fracc. Cuauhtemoc, 81277 Los Mochis, Sin., México",Restaurante japonés, Abre a la 1p.m. del dom,Los Mochis
Restaurante Banzai,,None Found,+52 668 812 2342,"Vicente Guerrero 488, Centro, 81200 Los Mochis, Sin., México",Restaurante japonés, Abre a la 1p.m. del dom,Los Mochis
Los Mariscos Del Parque,facebook.com,None Found,+52 668 195 9594,"Prol I. Ramírez 691, Fracc. El Parque, 81250 Los Mochis, Sin., México",Restaurante, Abre a las 10a.m. del dom,Los Mochis
Sushi House,facebook.com,None Found,+52 668 817 2533,"Av. Heriberto Valdez 844, Scally, 81240 Los Mochis, Sin., México",Restaurante de sushi, Abre a la 1p.m. del dom,Los Mochis
Mariscos Peke,,None Found,+52 668 396 9220,"C. Constitución 426, La Cuchilla, 81250 Los Mochis, Sin., México",Marisquería, Abre a las 10:30a.m. del dom,Los Mochis
Kira Sushi Los Mochis,facebook.com,None Found,+52 668 818 9292,"81200, A. Cano 243, Centro, 81200 Los Mochis, Sin., México",Restaurante de sushi, Abre a la 1p.m. del dom,Los Mochis
IKU SUSHI,,None Found,+52 668 690 6977,"Av Gral Álvaro Obregón 1410, Jardines del Sol, 81245 Los Mochis, Sin., México",Restaurante japonés, 11:30p.m. ,Los Mochis
IKU SUSHI,,None Found,+52 668 690 6977,"Av Gral Álvaro Obregón 1410, Jardines del Sol, 81245 Los Mochis, Sin., México",Restaurante japonés, 11:30p.m. ,Los Mochis
ASADERO EL COMPA LUIS,,None Found,+52 668 162 0437,"81229, Río Presidio 1817, Campestre Residencial, Los Mochis, Sin., México",Taquería, Cierra a la 1a.m.,Los Mochis
El Palomar De Los Pobres,,None Found,+52 668 177 6767,"Av. Aquiles Serdán 678, Centro, 81200 Los Mochis, Sin., México",Restaurante, Abre a las 8a.m. del dom,Los Mochis
Sushi Arao Centro,,Comida japonesa y cócteles creativos en un espacio cosmopolita con decoraciones orientales.,+52 668 818 4900,"Lic. Benito Juárez 442, Centro, 81200 Los Mochis, Sin., México",Restaurante japonés, Abre a las 12p.m. del dom,Los Mochis
Restaurante Max Chinese Sushi Bar,,None Found,+52 668 370 1333,"Av Gral Álvaro Obregón 693, America, 81200 Los Mochis, Sin., México",Restaurante chino, Abre a las 12p.m. del dom,Los Mochis
"Tacos de Birria ""La Comadre""",,None Found,+52 668 815 1650,"Lic. Benito Juárez 213 Oriente, Centro, 81200 Los Mochis, Sin., México",Taquería, Abre a las 8a.m. del dom,Los Mochis
Gastro Garden,gastrogarden.mx,None Found,+52 668 105 4610,"Av Gral Álvaro Obregón 1326, Jardines del Sol, 81270 Los Mochis, Sin., México",Restaurante,,Los Mochis
Dragón de Oro Comida China Cantonesa,,None Found,+52 668 818 8882,"Serapio Rendón 333, Centro, 81200 Los Mochis, Sin., México",Restaurante cantonés, Abre a las 11a.m. del dom,Los Mochis
Dragón de Oro Comida China Cantonesa,,None Found,+52 668 818 8882,"Serapio Rendón 333, Centro, 81200 Los Mochis, Sin., México",Restaurante cantonés, Abre a las 11a.m. del dom,Los Mochis
Luna de miel,,None Found,+52 668 192 5593,"Av. Heriberto Valdez 687 Pte, Centro, 81200 Los Mochis, Sin., México",Restaurante de desayunos, Abre a las 7:30a.m. del lun,Los Mochis
Luna de miel,,None Found,+52 668 192 5593,"Av. Heriberto Valdez 687 Pte, Centro, 81200 Los Mochis, Sin., México",Restaurante de desayunos, Abre a las 7:30a.m. del lun,Los Mochis
Cenaduría Isabel suc Batiz,,None Found,+52 668 138 1209,"Blvd. Juan de Dios Bátiz 30, Centro, 81200 Los Mochis, Sin., México",Restaurante mexicano, 11:30p.m. ,Los Mochis
Woky Comida Oriental Express,woky.ola.click,None Found,+52 668 815 9995,"Centro, 81200 Los Mochis, Sin., México",Restaurante chino, Abre a las 12p.m. del dom,Los Mochis
Tacos Don Chuy,,None Found,+52 668 169 8236,"Av. Independencia 618, Centro, 81200 Los Mochis, Sin., México",Taquería, Abre a las 8a.m. del dom,Los Mochis
Tertulia Café Estudio,,None Found,+52 668 880 1251,"Calle Ignacio Allende 600, Centro, 81200 Los Mochis, Sin., México",Restaurante, Abre a las 8a.m. del dom,Los Mochis
Hot Dog´s Venecia,,None Found,+52 668 143 4902,"Miguel Hidalgo y Costilla # 172 pte, Centro, 81200 Los Mochis, Sin., México",Restaurante de perritos calientes, Cierra a la 1:30a.m.,Los Mochis
Chinaloa,facebook.com,None Found,+52 668 815 1419,"ALVARO OBREGON MERCADO JUAREZ Z L-16, Centro, 81200 Los Mochis, Sin., México",Restaurante chino, Abre a las 9a.m. del dom,Los Mochis
Chinaloa,facebook.com,None Found,+52 668 815 1419,"ALVARO OBREGON MERCADO JUAREZ Z L-16, Centro, 81200 Los Mochis, Sin., México",Restaurante chino, Abre a las 9a.m. del dom,Los Mochis
Mariscos La Curva De San Peteer,,None Found,+52 668 370 0208,"Ignacio Ramírez 39, oriente, 81200 Los Mochis, Sin., México",Marisquería, Abre a las 10a.m. del dom,Los Mochis
Mariscos La Curva De San Peteer,,None Found,+52 668 370 0208,"Ignacio Ramírez 39, oriente, 81200 Los Mochis, Sin., México",Marisquería, Abre a las 10a.m. del dom,Los Mochis
Los Abulones Mariscos,,None Found,+52 668 818 2777,"Juan Aldama 440, Centro, 81200 Ahome Los Mochis, Sin., México",Marisquería, Abre a las 8a.m. del dom,Los Mochis
Los Abulones Mariscos,,None Found,+52 668 818 2777,"Juan Aldama 440, Centro, 81200 Ahome Los Mochis, Sin., México",Marisquería, Abre a las 8a.m. del dom,Los Mochis
El Güero,,None Found,+52 668 208 4397,"Blvd. Rosendo G. Castro Pte. 920 Ote, Antonio Toledo Corro, 81285 Los Mochis, Sin., México",Restaurante mexicano, Abre a las 6a.m. del lun,Los Mochis
Antojitos Regionales,,None Found,+52 668 164 8853,"Niños Héroes, Centro, 81200 Ahome Los Mochis, Sin., México",Restaurante mexicano, Abre a las 6a.m. del dom,Los Mochis
Antojitos Regionales,,None Found,+52 668 164 8853,"Niños Héroes, Centro, 81200 Ahome Los Mochis, Sin., México",Restaurante mexicano, Abre a las 6a.m. del dom,Los Mochis
Mariscos Y Clamatos La Rana,,None Found,,"José María Morelos y Pavón s/n, Centro, 81200 Ahome Los Mochis, Sin., México",Marisquería, Abre a las 8a.m. del dom,Los Mochis
Los Nachos Suc. Plaza Fiesta,losnachos.mx,None Found,+52 668 818 8080,"Blvd. Antonio Rosales Sur S/N, L6D, Centro, 81289 Los Mochis, Sin., México",Restaurante mexicano, Abre a las 10a.m. del dom,Los Mochis
Bajamar Aldama,bajamar.com.mx,None Found,+52 668 818 4433,"Juan Aldama 500 nte, La Cuchilla, 81250 Los Mochis, Sin., México",Restaurante, Abre a las 9a.m. del dom,Los Mochis
Bajamar Aldama,bajamar.com.mx,None Found,+52 668 818 4433,"Juan Aldama 500 nte, La Cuchilla, 81250 Los Mochis, Sin., México",Restaurante, Abre a las 9a.m. del dom,Los Mochis
Restaurante NutriRICO,,None Found,+52 668 156 5116,"Gral Angel Flores 31, Centro, 81200 Los Mochis, Sin., México",Restaurante mexicano,,Los Mochis
