Names,Website,Introduction,Phone Number,Address,Type,Opens At,Municipio
Restaurante La Casa Country,,"Restaurante colorido y recubierto en madera donde se sirven tacos, fajitas, filete y comida tex‚Äëmex.",+52 669 916 4535,"Av Camar√≥n S√°balo S/N, S√°balo Country, 82100 Mazatl√°n, Sin., M√©xico",Restaurante mexicano, Cierra a las 11:30p.m.,Mazatl√°n
Presidio Cocina de M√©xico,,"Lugar agradable con un ambiente hist√≥rico, un bar y mesas al aire libre en un patio con plantas.",+52 669 223 1021,"Blvd. Ni√±os H√©roes 1511, Centro, 82000 Mazatl√°n, Sin., M√©xico",Restaurante,,Mazatl√°n
Angelo's,,Restaurante del Hotel Pueblo Bonito que ofrece comida internacional en un refinado comedor con candelabros.,+52 669 989 8900,"Av Camar√≥n S√°balo 2121, S√°balo Country, 82100 Mazatl√°n, Sin., M√©xico",Restaurante italiano, Cierra a las 11p.m.,Mazatl√°n
Restaurant Pancho's frente al Mar.,facebook.com,"Cadena informal frente al mar con platos cl√°sicos, amplio men√∫ de desayuno y decoraci√≥n tradicional.",+52 669 914 0911,"Av. Gaviotas 408, Zona Dorada, 82110 Mazatl√°n, Sin., M√©xico",Restaurante mexicano, Cierra a las 11p.m.,Mazatl√°n
Los Arcos,restaurantlosarcos.com,None Found,+52 669 913 9577,"Av Camar√≥n S√°balo 1019, Zona Costera, 82110 Mazatl√°n, Sin., M√©xico",Marisquer√≠a, 10p.m. ,Mazatl√°n
Hector's Bistro,hectors.mx,Sencillo comedor de aire art√≠stico con un variado men√∫ de cocina internacional acompa√±ada de vino y cocteles.,+52 669 981 1577,"Mariano Escobedo 409, Centro, 82000 Mazatl√°n, Sin., M√©xico",Restaurante de cocina contempor√°nea europea, Cierra a las 11p.m.,Mazatl√°n
Restaurante Chile's Pepper,,None Found,+52 669 913 0069,"Del At√∫n, Sin Nombre, 82110 Mazatl√°n, Sin., M√©xico",Restaurante mexicano, Cierra a las 10:30p.m.,Mazatl√°n
Restaurante Chile's Pepper,,None Found,+52 669 913 0069,"Del At√∫n, Sin Nombre, 82110 Mazatl√°n, Sin., M√©xico",Restaurante mexicano, Cierra a las 10:30p.m.,Mazatl√°n
Restaurant Panchos,facebook.com,None Found,+52 669 913 3040,"Av. Camaron Sabalo 1614-B, S√°balo Country, 82100 Mazatl√°n, Sin., M√©xico",Restaurante mexicano, Cierra a las 11p.m.,Mazatl√°n
La Marea Mazatl√°n,lamareamazatlan.shop,None Found,+52 669 239 3266,"Cam. a Observatorio 11, Cerro del Vig√≠a, 82040 Mazatl√°n, Sin., M√©xico",Marisquer√≠a, Cierra a las 11p.m.,Mazatl√°n
Gus & Gus Restaurant Bar & Grill,,"Cantina relajada con terraza para probar mariscos, tomar margaritas, cantar karaoke y escuchar rock en vivo.",+52 669 914 4501,"Av Camar√≥n S√°balo 1730, El Dorado, 82110 Mazatl√°n, Sin., M√©xico",Bar restaurante, Cierra a las 2a.m.,Mazatl√°n
Angelina's Kitchen,angelinasmexico.com,None Found,+52 669 910 1596,"Venustiano Carranza 18, Centro, 82000 Mazatl√°n, Sin., M√©xico",Restaurante mediterr√°neo,,Mazatl√°n
Casa 46,casa46.mx,None Found,+52 669 136 0545,"Constituci√≥n 79, Centro, 82000 Mazatl√°n, Sin., M√©xico",Restaurante mexicano, Cierra a las 12a.m.,Mazatl√°n
Topolo,topolomaz.com,Sabores mexicanos en un frondoso patio jard√≠n de paredes multicolores y ambiente colonial con √≠ntimo vino bar.,+52 669 136 0660,"Centro Historico, Constituci√≥n 629 Benito Juarez, 82000 Mazatl√°n, Sin., M√©xico",Restaurante mexicano, 9:30p.m. ,Mazatl√°n
Cilantro's,,None Found,,"Hotel Pueblo Bonito, Av Camar√≥n S√°balo 2121, S√°balo Country, 82100 Mazatl√°n, Sin., M√©xico",Restaurante mexicano, Cierra a las 10:30p.m.,Mazatl√°n
El Sinaloense,facebook.com,"Restaurante tranquilo con ceviche, mariscos fr√≠os, pescado frito y m√∫sica en vivo.",+52 669 166 9043,"Av del Mar 882, Teller√≠a, 82017 Mazatl√°n, Sin., M√©xico",Marisquer√≠a, Cierra a las 12a.m.,Mazatl√°n
Restaurante Catalina La Aviadora Mazatl√°n,catalinalaaviadora.com,None Found,+52 669 213 9985,"Av. Reforma 2007, Flamingos, 82149 Mazatl√°n, Sin., M√©xico",Restaurante, Cierra a las 12:30a.m.,Mazatl√°n
Mr Lionso,mrlionso.com,"Comedor colorido con terraza grande y men√∫ mexicano amplio que incluye desayunos, mariscos y carnes asadas.",+52 669 988 0425,"Av. Cerritos S / N, Zona Playa Brujas, 82112 Mazatl√°n, Sin., M√©xico",Restaurante mexicano,,Mazatl√°n
Los Zarapes,restaurantwebexperts.com,None Found,+52 669 913 1400,"Av. Gaviotas 27, Zona Dorada, 82110 Mazatl√°n, Sin., M√©xico",Restaurante, Cierra a las 2a.m.,Mazatl√°n
El Cielo Restaurant Bar Plazuela Machado,elcielorb.com,None Found,+52 667 696 5417,"Sixto Osuna 518, Centro, 82000 Mazatl√°n, Sin., M√©xico",Restaurante,,Mazatl√°n
"PINUPS FUN & GRILL Comida, Diversi√≥n y M√∫sica en vivo",pinupsfungrill.com,None Found,+52 669 250 6360,"Av. Gaviotas 404-L-1, Zona Dorada, 82110 Mazatl√°n, Sin., M√©xico",Restaurante, Cierra a las 12a.m.,Mazatl√°n
La Costa Marinera,facebook.com,"Mesas en la playa o en un espacio concurrido de interior con platos de mariscos, sashimi de at√∫n y cocteles.",+52 669 916 1599,"Del Camar√≥n S/N, S√°balo Country, 82100 Mazatl√°n, Sin., M√©xico",Restaurante,,Mazatl√°n
T√≥tem,totemcafe.mx,"Lugar r√∫stico y elegante con terraza en la azotea, donde se ofrece caf√©, desayuno y cenas internacionales.",+52 669 933 4379,"C. Heriberto Fr√≠as 1504, Centro, 82000 Mazatl√°n, Sin., M√©xico",Restaurante, Cierra a las 10:30p.m.,Mazatl√°n
Lucky B's Cantina Grill,facebook.com,None Found,+52 669 195 4545,"Av. Gaviotas 204, Zona Dorada, 82110 Mazatl√°n, Sin., M√©xico",Bar restaurante, 10p.m. ,Mazatl√°n
La Puntilla Restaurante de Mariscos,facebook.com,"Lugar junto al mar con terraza, ceviche, platos de camar√≥n y desayuno tipo buffet.",+52 669 197 1124,"Int. Muelle Tur√≠stico s/n, Playas del Sur, 82040 Mazatl√°n, Sin., M√©xico",Restaurante,,Mazatl√°n
Gaia Bistrot,gaiabistrot.com,None Found,+52 669 112 2525,"C. Heriberto Fr√≠as 1301, Centro, 82000 Mazatl√°n, Sin., M√©xico",Restaurante, Cierra a las 11p.m.,Mazatl√°n
Gaia Bistrot,gaiabistrot.com,None Found,+52 669 112 2525,"C. Heriberto Fr√≠as 1301, Centro, 82000 Mazatl√°n, Sin., M√©xico",Restaurante, Cierra a las 11p.m.,Mazatl√°n
Mahi Sushi Bar,mahisushi.com,None Found,+52 669 193 7303,"un costado de ACUARIO y enseguida de KIOSKO A media cuadra, Isla Lobos, Del Malec√≥n 1501-A, Teller√≠a, 82017 Mazatl√°n, Sin., M√©xico",Restaurante japon√©s, Cierra a las 11p.m.,Mazatl√°n
Rico's Caf√© - Zona Dorada,facebook.com,None Found,+52 669 913 1444,"Avenida Camar√≥n S√°balo Y Gabriel Ruiz, El Dorado, 82110 Mazatl√°n, Sin., M√©xico",Restaurante de brunch, Cierra a las 11p.m.,Mazatl√°n
La Molcajeteria,facebook.com,None Found,+52 669 195 7652,"Constituci√≥n 205, Centro, 82000 Mazatl√°n, Sin., M√©xico",Restaurante, Cierra a las 12a.m.,Mazatl√°n
Casita Maria by cheff Ja Llano,instagram.com,None Found,+52 669 176 2684,"Av Camar√≥n S√°balo S/N, El Dorado, 82110 Mazatl√°n, Sin., M√©xico",Restaurante mediterr√°neo, Cierra a las 11p.m.,Mazatl√°n
MAN√â,facebook.com,None Found,+52 669 240 3509,"Av Camar√≥n S√°balo 1968, S√°balo Country, 82100 Mazatl√°n, Sin., M√©xico",Restaurante, Cierra a las 11p.m.,Mazatl√°n
Palmar√©s Mazatl√°n,facebook.com,None Found,+52 669 194 0492,"plaza Isla tres 1096, Av Camar√≥n S√°balo, S√°balo Country, 82100 Mazatl√°n, Sin., M√©xico",Restaurante familiar, 10p.m. ,Mazatl√°n
Pedro y Lola,facebook.com,"Recetas del mar, de Sinaloa y el mundo se ofrece con vinos en un lugar cl√°sico con mesas al aire libre.",+52 669 982 2589,"Constituci√≥n 1313, Centro, 82000 Mazatl√°n, Sin., M√©xico",Restaurante mexicano, Cierra a las 11p.m.,Mazatl√°n
Via Condotti,facebook.com,None Found,+52 669 910 2085,"C. Heriberto Fr√≠as 1505, Centro, 82000 Mazatl√°n, Sin., M√©xico",Restaurante, Cierra a las 11p.m.,Mazatl√°n
Restaurantes y Pasteler√≠as Panam√° Catedral,panama.com.mx,None Found,+52 669 985 1853,"C. Benito Ju√°rez S/N, Centro, 82000 Mazatl√°n, Sin., M√©xico",Restaurante familiar, Cierra a las 10:30p.m.,Mazatl√°n
La Churrascaria Mazatl√°n,instagram.com,None Found,+52 669 255 6103,"Av Camar√≥n S√°balo 500, Zona Dorada, 82110 Mazatl√°n, Sin., M√©xico",Restaurante brasile√±o, Cierra a las 11p.m.,Mazatl√°n
ATOL,atolmexico.com,None Found,+52 669 533 2904,"21 de Marzo 1414, Centro, 82000 Mazatl√°n, Sin., M√©xico",Restaurante, 10p.m. ,Mazatl√°n
Taquer√≠a El Paisa Mazatl√°n Sinaloa ü¶úü§†üåÆ,instagram.com,None Found,+52 669 986 2392,"Av. Rafael Buelna 22, Zona Dorada, 82110 Mazatl√°n, Sin., M√©xico",Taquer√≠a, Cierra a las 5a.m. del dom,Mazatl√°n
Mano Santa,manosantamzt.mx,None Found,+52 669 177 0569,"Av. La, Blvd. Marina Mazatlan 2205-Local 14, Marina Mazatl√°n, 82103 Mazatl√°n, Sin., M√©xico",Restaurante, Cierra a la 1a.m.,Mazatl√°n
Panam√° Restaurante y Pasteler√≠a Zona Dorada,panama.com.mx,"Restaurante y pasteler√≠a familiar en el que se ofrecen desayunos, hamburguesas y platos latinoamericanos.",+52 669 914 0612,"Av Camar√≥n S√°balo S/N, Zona Dorada, 82110 Mazatl√°n, Sin., M√©xico",Restaurante familiar, Abre a las 7a.m. del dom,Mazatl√°n
Mariscos Marea Negra,,None Found,+52 669 166 8807,"Av. del Delfin 335, Fraccionamiento Hacienda los Mangos, Dorados de Villa, 82127 Mazatl√°n, Sin., M√©xico",Marisquer√≠a, Abre a las 10a.m. del dom,Mazatl√°n
La Antigua (Centro Hist√≥rico),facebook.com,None Found,+52 669 985 5465,"Belisario Dom√≠nguez 1201, Centro, 82000 Mazatl√°n, Sin., M√©xico",Restaurante, Abre a las 8a.m. del dom,Mazatl√°n
Restaurante Condimento,,None Found,,"Av Camar√≥n S√°balo 51, Zona Dorada, 82110 Mazatl√°n, Sin., M√©xico",Restaurante,,Mazatl√°n
Roy's Restaurant,,None Found,+52 669 990 6228,"Av. de la Marina 6085, Mediterr√°neo, 82127 Mazatl√°n, Sin., M√©xico",Restaurante familiar, Cierra a las 11p.m.,Mazatl√°n
Roy's Restaurant,,None Found,+52 669 990 6228,"Av. de la Marina 6085, Mediterr√°neo, 82127 Mazatl√°n, Sin., M√©xico",Restaurante familiar, Cierra a las 11p.m.,Mazatl√°n
Restaurante El Amanecer,facebook.com,None Found,+52 669 325 3000,"Av. Lib. N√∫m. 2 Pte., Las Misiones, 82133 Mazatl√°n, Sin., M√©xico",Restaurante, Abre a las 7:30a.m. del dom,Mazatl√°n
Pinchis Plebes,,None Found,+52 669 990 4949,"Av. de la Marina 1202, Alameda, 82123 Mazatl√°n, Sin., M√©xico",Marisquer√≠a, 10p.m. ,Mazatl√°n
Pinchis Plebes,,None Found,+52 669 990 4949,"Av. de la Marina 1202, Alameda, 82123 Mazatl√°n, Sin., M√©xico",Marisquer√≠a, 10p.m. ,Mazatl√°n
Water's Edge Bistro,,None Found,+52 669 136 0895,"Sixto Osuna 48, Centro, 82000 Mazatl√°n, Sin., M√©xico",Restaurante, Cierra a las 11p.m.,Mazatl√°n
Water's Edge Bistro,,None Found,+52 669 136 0895,"Sixto Osuna 48, Centro, 82000 Mazatl√°n, Sin., M√©xico",Restaurante, Cierra a las 11p.m.,Mazatl√°n
Restaurante Abad√≠a,facebook.com,None Found,+52 669 990 0092,"Av Camar√≥n S√°balo 201, Lomas de Mazatl√°n, 82110 Mazatl√°n, Sin., M√©xico",Restaurante, Cierra a las 12a.m.,Mazatl√°n
Restaurante Abad√≠a,facebook.com,None Found,+52 669 990 0092,"Av Camar√≥n S√°balo 201, Lomas de Mazatl√°n, 82110 Mazatl√°n, Sin., M√©xico",Restaurante, Cierra a las 12a.m.,Mazatl√°n
Mi Ranchito Los Osuna,miranchitolososuna.com,None Found,+52 669 990 4575,"Av. Rafael Buelna 113, Lomas de Mazatl√°n, 82110 Mazatl√°n, Sin., M√©xico",Restaurante mexicano, Abre a las 7:30a.m. del dom,Mazatl√°n
El Tenampa Restaurante Campestre,facebook.com,Desayunos caseros y almuerzos abundantes en un jard√≠n en la terraza encantador con sensaci√≥n r√∫stica.,+52 669 941 5341,"C. Teacap√°n 12001, Sinaloa, 82129 Mazatl√°n, Sin., M√©xico",Restaurante,,Mazatl√°n
El Changuirongo,,None Found,+52 669 193 3019,"21 de Marzo 1326, Centro, 82000 Mazatl√°n, Sin., M√©xico",Marisquer√≠a, Abre a las 9:30a.m. del dom,Mazatl√°n
Cenaduria Chayito,,None Found,+52 669 913 2815,"Av Camar√≥n S√°balo 5100, Cerritos, 82100 Mazatl√°n, Sin., M√©xico",Restaurante mexicano, Cierra a las 11p.m.,Mazatl√°n
Mary's,marys.restaurantwebexperts.com,None Found,+52 669 913 0090,"Av Camar√≥n S√°balo Local I, El Dorado, 82110 Mazatl√°n, Sin., M√©xico",Hamburgueser√≠a, 9:30p.m. ,Mazatl√°n
Restaurante El Montalayo,facebook.com,Local tradicional con terraza y ambiente familiar en el que se sirve comida casera.,+52 669 983 0042,"Av. de la Marina 438, Alameda, 82123 Mazatl√°n, Sin., M√©xico",Restaurante mexicano, Abre a las 8a.m. del dom,Mazatl√°n
El Galer√≥n del Pata Salada,,None Found,+52 669 254 9748,"avenida quirino ordaz, esquina con, Isla Creston 104, frente maleconcito, 82017 Mazatl√°n, Sin., M√©xico",Restaurante, 10p.m. ,Mazatl√°n
Surf's Up Beach Cafe,surfsupmazatlan.com,None Found,+52 669 988 0951,"Av. Ernesto Coppel Campa√±a 520, Nuevo, 82112 Mazatl√°n, Sin., M√©xico",Restaurante, Abre a las 8:30a.m. del dom,Mazatl√°n
Papagayo Centro Hist√≥rico,theinnmazatlan.com,None Found,+52 800 718 9670,"Calle Gral. √Ångel Flores 420, Centro, 82000 Mazatl√°n, Sin., M√©xico",Restaurante, Cierra a las 11p.m.,Mazatl√°n
San Juan Le√±ero Asador Mazatl√°n,,None Found,+52 669 329 2715,"Av. de la Marina 6107, Marina, 82103 Mazatl√°n, Sin., M√©xico",Restaurante mediterr√°neo, Cierra a la 1a.m.,Mazatl√°n
Cafferium,,None Found,+52 669 105 4810,"Belisario Dom√≠nguez 2006, Centro, 82000 Mazatl√°n, Sin., M√©xico",Cafeter√≠a, Cierra a las 11p.m.,Mazatl√°n
CHAYITO CENADUR√çA,cenaduriachayitomx.com,None Found,+52 669 982 6723,"Teniente Jos√© Azueta 2407, Centro, 82000 Mazatl√°n, Sin., M√©xico",Restaurante mexicano, 10p.m. ,Mazatl√°n
CHAYITO CENADUR√çA,cenaduriachayitomx.com,None Found,+52 669 982 6723,"Teniente Jos√© Azueta 2407, Centro, 82000 Mazatl√°n, Sin., M√©xico",Restaurante mexicano, 10p.m. ,Mazatl√°n
Los Huevos D√≠as,facebook.com,None Found,+52 669 991 3703,"Av. Rafael Buelna 103, El Toreo, 82120 Mazatl√°n, Sin., M√©xico",Restaurante, Abre a las 7:30a.m. del dom,Mazatl√°n
Panam√° Restaurante y Pasteler√≠a Multicinemas,panama.com.mx,None Found,+52 669 985 2096,"Av. Ej√©rcito Mexicano 700, Lomas del Mar, 82120 Mazatl√°n, Sin., M√©xico",Restaurante familiar, 10p.m. ,Mazatl√°n
Mariscos El Mem√≠n,facebook.com,"Restaurante informal de mariscos con ambiente agradable en el que se sirven camarones, pescado frito y otros platos tradicionales.",,"Av. Rafael Buelna 103, Lomas de Mazatl√°n, 82110 Mazatl√°n, Sin., M√©xico",Marisquer√≠a, Abre a las 8a.m. del dom,Mazatl√°n
Macaws,facebook.com,None Found,+52 669 195 2151,"Venustiano Carranza 4, Centro, 82000 Mazatl√°n, Sin., M√©xico",Restaurante, Cierra a las 11p.m.,Mazatl√°n
Rosman√≠ Mazatl√°n,rosmanirestaurant.com,None Found,+52 669 690 8569,"Av. del Delfin 6300-L-1, Marina Mazatl√°n, 82112 Mazatl√°n, Sin., M√©xico",Restaurante mexicano,,Mazatl√°n
Mariscos Puerto Azul,facebook.com,None Found,+52 669 920 7728,"Malec√≥n de Mazatl√°n S/N, Centro, 82000 Mazatl√°n, Sin., M√©xico",Marisquer√≠a, Abre a las 11:30a.m. del dom,Mazatl√°n
Mariscos Puerto Azul,facebook.com,None Found,+52 669 920 7728,"Malec√≥n de Mazatl√°n S/N, Centro, 82000 Mazatl√°n, Sin., M√©xico",Marisquer√≠a, Abre a las 11:30a.m. del dom,Mazatl√°n
Barra al Mar Restaurante de Mariscos,,None Found,+52 669 164 5141,"Av. Gaviotas, Zona Dorada, 82110 Mazatl√°n, Sin., M√©xico",Bar restaurante, Abre a las 11a.m. del dom,Mazatl√°n
Birrier√≠a Valencia,,None Found,+52 669 155 0578,"Av. de la Marina 375, Sanchez Celis, 82123 Mazatl√°n, Sin., M√©xico",Restaurante, Abre a las 8a.m. del dom,Mazatl√°n
La Cocina de Ana,,None Found,+52 669 916 3119,"Laguna 49, Las Gaviotas, 82110 Mazatl√°n, Sin., M√©xico",Restaurante mexicano, Abre a las 12p.m. del lun,Mazatl√°n
Restaurante El Chilito,,None Found,+52 669 194 5206,"Av Camar√≥n S√°balo 1666, El Dorado, 82110 Mazatl√°n, Sin., M√©xico",Restaurante mexicano, Abre a las 8a.m. del dom,Mazatl√°n
Taqueria San Pablo,facebook.com,"Parada de carretera simple con tacos, quesadillas y otros cl√°sicos mexicanos.",+52 669 267 7716,"Av. Rafael Buelna 203, Lomas de Mazatl√°n, 82110 Mazatl√°n, Sin., M√©xico",Taquer√≠a, Cierra a las 5a.m. del dom,Mazatl√°n
Cenadur√≠a Chayito,m.facebook.com,None Found,+52 669 688 2379,"Del Delfin, Plaza San Ignacio, 82089 Mazatl√°n, Sin., M√©xico",Restaurante mexicano, Cierra a las 11p.m.,Mazatl√°n
Cenadur√≠a Chayito,m.facebook.com,None Found,+52 669 688 2379,"Del Delfin, Plaza San Ignacio, 82089 Mazatl√°n, Sin., M√©xico",Restaurante mexicano, Cierra a las 11p.m.,Mazatl√°n
Hotel Oceano Palace,oceanopalace.com,None Found,+52 669 989 3200,"Av Camar√≥n S√°balo 2601, S√°balo Country, 82100 Mazatl√°n, Sin., M√©xico",,,Mazatl√°n
The Palms Resort of Mazatlan,palmsmazatlan.com.mx,None Found,+52 669 913 2222,"Av Camar√≥n S√°balo 696, Zona Dorada, 82103 Mazatl√°n, Sin., M√©xico",,,Mazatl√°n
Restaurant El Rinc√≥n de Nasha,,None Found,+52 669 193 4254,"Av Camar√≥n S√°balo 1936, S√°balo Country, 82110 Mazatl√°n, Sin., M√©xico",Bar restaurante, Abre a las 8a.m. del dom,Mazatl√°n
Mariscos El Torito La Marina,mariscoseltorito.com,None Found,+52 669 329 0101,"Av. de la Marina 6105, La Marina, 82103 Mazatl√°n, Sin., M√©xico",Marisquer√≠a, Abre a las 10:30a.m. del dom,Mazatl√°n
El Bife Parrilla Argentina,,None Found,+52 669 136 0436,"Constituci√≥n 515, Centro, 82000 Mazatl√°n, Sin., M√©xico",Restaurante argentino, Cierra a la 1:30a.m.,Mazatl√°n
Restaurante El Habale√±o,,None Found,+52 669 954 4308,"Internacional Kil√≥metro 10.5, 82250 Mazatl√°n, Sin., M√©xico",Restaurante mexicano, Abre a las 6a.m. del dom,Mazatl√°n
Miyeya Restaurante Campestre,,None Found,+52 669 240 3088,"Zeus & Patos, Villas del Estero, 82150 Mazatl√°n, Sin., M√©xico",Restaurante, Abre a las 7a.m. del dom,Mazatl√°n
Casa Italia,facebook.com,None Found,+52 669 215 7793,"Cuauht√©moc, Sector O #6, Lopez Mateos, 82140 Mazatl√°n, Sin., M√©xico",Restaurante italiano, Cierra a las 10:30p.m.,Mazatl√°n
Gourmet Cimaco Mazatl√°n,gourmetcimaco.com.mx,None Found,+52 669 989 5747,"La Gran Plaza Local R-15, Av. Reforma 2206, Alameda, 82123 Mazatl√°n, Sin., M√©xico",Restaurante, 9:30p.m. ,Mazatl√°n
Caf√© Bar 500 Noches Mazatl√°n,,None Found,+52 669 441 2146,"Av. de la Marina 6107, Marina Mazatl√°n, 82103 Mazatl√°n, Sin., M√©xico",Restaurante, Cierra a la 1a.m.,Mazatl√°n
Casa Maria Mazatl√°n,instagram.com,None Found,+52 669 153 0113,"Boulevard Marina Mazatlan, Costa Veleros 2205-Local 1, Marina Mazatl√°n, 82103 Mazatl√°n, Sin., M√©xico",Restaurante, Cierra a las 11:30p.m.,Mazatl√°n
Barrio Olas Altas,,Animado local con suelo ajedrezado y terraza para probar variado men√∫ de platillos elaborados con camarones.,+52 669 441 4111,"P.¬∫ Olas Altas 11, Centro, 82000 Mazatl√°n, Sin., M√©xico",Bar restaurante, Abre a las 11a.m. del dom,Mazatl√°n
Barrio Olas Altas,,Animado local con suelo ajedrezado y terraza para probar variado men√∫ de platillos elaborados con camarones.,+52 669 441 4111,"P.¬∫ Olas Altas 11, Centro, 82000 Mazatl√°n, Sin., M√©xico",Bar restaurante, Abre a las 11a.m. del dom,Mazatl√°n
La Callecita Cenadur√≠a,,None Found,+52 669 668 0043,"Venus 73, Centro, 82000 Mazatl√°n, Sin., M√©xico",Restaurante mexicano, 10p.m. ,Mazatl√°n
El Molacho,,None Found,+52 669 326 8735,"Miguel Hidalgo 210, Centro, 82000 Mazatl√°n, Sin., M√©xico",Marisquer√≠a, Abre a las 7:30a.m. del dom,Mazatl√°n
LA CASA AZUL,,None Found,+52 669 668 8495,"De Las Garzas 18, Zona Dorada, 82110 Mazatl√°n, Sin., M√©xico",Bar restaurante, Abre a las 7a.m. del dom,Mazatl√°n
LA CASA AZUL,,None Found,+52 669 668 8495,"De Las Garzas 18, Zona Dorada, 82110 Mazatl√°n, Sin., M√©xico",Bar restaurante, Abre a las 7a.m. del dom,Mazatl√°n
La casa del Buffet Moira Mazatl√°n,facebook.com,None Found,+52 669 326 0009,"Av. Sierra de Venados, Lomas de Mazatl√°n, 82110 Mazatl√°n, Sin., M√©xico",Restaurante, Cierra a las 11p.m.,Mazatl√°n
La casa del Buffet Moira Mazatl√°n,facebook.com,None Found,+52 669 326 0009,"Av. Sierra de Venados, Lomas de Mazatl√°n, 82110 Mazatl√°n, Sin., M√©xico",Restaurante, Cierra a las 11p.m.,Mazatl√°n
El muchacho alegre zona dorada,widget.riservi.com,None Found,+52 669 123 9907,"Plaza Playa Pacifico, Av. Gaviotas 100-Local 6, Zona Dorada, 82110 Mazatl√°n, Sin., M√©xico",Restaurante, Cierra a las 11p.m.,Mazatl√°n
Mariscos El Beto,facebook.com,"Cocina con ceviche, camar√≥n y otros mariscos cl√°sicos, cerveza y mesas al aire libre.",+52 669 984 9629,"Av. de la Marina 331, Alameda, 82123 Mazatl√°n, Sin., M√©xico",Marisquer√≠a, Abre a las 11a.m. del dom,Mazatl√°n
Mariscos El Beto,facebook.com,"Cocina con ceviche, camar√≥n y otros mariscos cl√°sicos, cerveza y mesas al aire libre.",+52 669 984 9629,"Av. de la Marina 331, Alameda, 82123 Mazatl√°n, Sin., M√©xico",Marisquer√≠a, Abre a las 11a.m. del dom,Mazatl√°n
Hotel Oceano Palace,oceanopalace.com,None Found,+52 669 989 3200,"Av Camar√≥n S√°balo 2601, S√°balo Country, 82100 Mazatl√°n, Sin., M√©xico",,,Mazatl√°n
Hotel Oceano Palace,oceanopalace.com,None Found,+52 669 989 3200,"Av Camar√≥n S√°balo 2601, S√°balo Country, 82100 Mazatl√°n, Sin., M√©xico",,,Mazatl√°n
Restaurante El Tejaban,,None Found,+52 669 990 5896,"Sta. Laura, Mar√≠a Antonieta, 82136 Mazatl√°n, Sin., M√©xico",Restaurante familiar, Abre a las 7a.m. del dom,Mazatl√°n
El Guamuchilito,facebook.com,"Especialidades del mar, como ceviche, aguachile y ostras, en local informal y luminoso con decoraci√≥n n√°utica.",+52 669 986 6691,"Jos√© Mujica 232, Flamingos, 82149 Mazatl√°n, Sin., M√©xico",Marisquer√≠a, Abre a las 9a.m. del dom,Mazatl√°n
El Guamuchilito,facebook.com,"Especialidades del mar, como ceviche, aguachile y ostras, en local informal y luminoso con decoraci√≥n n√°utica.",+52 669 986 6691,"Jos√© Mujica 232, Flamingos, 82149 Mazatl√°n, Sin., M√©xico",Marisquer√≠a, Abre a las 9a.m. del dom,Mazatl√°n
Beach Grill,instagram.com,None Found,+52 669 983 5333,"Av. Gaviotas 100, Zona Dorada, 82110 Mazatl√°n, Sin., M√©xico",Parrilla, Cierra a las 11p.m.,Mazatl√°n
Beach Grill,instagram.com,None Found,+52 669 983 5333,"Av. Gaviotas 100, Zona Dorada, 82110 Mazatl√°n, Sin., M√©xico",Parrilla, Cierra a las 11p.m.,Mazatl√°n
Taqueria Oaxaque√±a Mazatlan,facebook.com,None Found,+52 669 141 7167,"Luis Z√∫√±iga 804, Centro, 82000 Mazatl√°n, Sin., M√©xico",Restaurante mexicano, Cierra a las 2a.m.,Mazatl√°n
Sweet and fit - Mazatl√°n,sweetandfit.mx,None Found,+52 669 990 6972,"Av Camar√≥n S√°balo 500, Zona Dorada, 82110 Mazatl√°n, Sin., M√©xico",Restaurante, Abre a las 8:30a.m. del dom,Mazatl√°n
Sweet and fit - Mazatl√°n,sweetandfit.mx,None Found,+52 669 990 6972,"Av Camar√≥n S√°balo 500, Zona Dorada, 82110 Mazatl√°n, Sin., M√©xico",Restaurante, Abre a las 8:30a.m. del dom,Mazatl√°n
Tacos Chema,tacoschema.com,None Found,+52 669 986 6478,"Av. Las Americas, C. Pedro Infante 1201, Benito Ju√°rez, 82180 Mazatl√°n, Sin., M√©xico",Taquer√≠a, Cierra a las 2a.m.,Mazatl√°n
Tacos Chema,tacoschema.com,None Found,+52 669 986 6478,"Av. Las Americas, C. Pedro Infante 1201, Benito Ju√°rez, 82180 Mazatl√°n, Sin., M√©xico",Taquer√≠a, Cierra a las 2a.m.,Mazatl√°n
Restaurante La Curva II,,None Found,+52 669 986 8048,"Av Sta Rosa 931, Isla Residencial, Jacarandas, 82157 Mazatl√°n, Sin., M√©xico",Restaurante, Cierra a las 12a.m.,Mazatl√°n
Restaurante La Curva II,,None Found,+52 669 986 8048,"Av Sta Rosa 931, Isla Residencial, Jacarandas, 82157 Mazatl√°n, Sin., M√©xico",Restaurante, Cierra a las 12a.m.,Mazatl√°n
El Palomar,facebook.com,None Found,+52 669 146 7194,"P.¬∫ Claussen 107, Centro, 82000 Mazatl√°n, Sin., M√©xico",Restaurante familiar, Abre a la 1p.m. del dom,Mazatl√°n
Restaurant san antonio mazatlan,,None Found,+52 669 933 0006,"Silverio P√©rez 129, El Toreo, 82120 Mazatl√°n, Sin., M√©xico",Restaurante, Abre a las 8a.m. del lun,Mazatl√°n
"Murmullos MB, Suc. Mazatl√°n",instagram.com,None Found,+52 669 990 6659,"Av Camar√≥n S√°balo 500, Zona Dorada, 82110 Mazatl√°n, Sin., M√©xico",Restaurante, Cierra a las 12a.m.,Mazatl√°n
"Murmullos MB, Suc. Mazatl√°n",instagram.com,None Found,+52 669 990 6659,"Av Camar√≥n S√°balo 500, Zona Dorada, 82110 Mazatl√°n, Sin., M√©xico",Restaurante, Cierra a las 12a.m.,Mazatl√°n
Looney Bean Coffee Cerritos,,None Found,+52 669 988 1159,"Av. S√°balo Cerritos 3500, Cerritos, 82000 Mazatl√°n, Sin., M√©xico",Cafeter√≠a, Abre a las 7:30a.m. del dom,Mazatl√°n
Looney Bean Coffee Cerritos,,None Found,+52 669 988 1159,"Av. S√°balo Cerritos 3500, Cerritos, 82000 Mazatl√°n, Sin., M√©xico",Cafeter√≠a, Abre a las 7:30a.m. del dom,Mazatl√°n
II Mosto,ilmosto.wixsite.com,None Found,+52 669 193 8423,"Sixto Osuna 510-B, Centro, 82000 Mazatl√°n, Sin., M√©xico",Restaurante italiano, Cierra a las 11p.m.,Mazatl√°n
Fishermans Mazatl√°n,facebook.com,None Found,+52 669 114 6022,"Malec√≥n de Mazatl√°n 147, Palos Prietos, 82010 Mazatl√°n, Sin., M√©xico",Restaurante, Abre a las 12p.m. del dom,Mazatl√°n
