Names,Website,Introduction,Phone Number,Address,Type,Opens At,Municipio
Tierra Santa Restaurante,,None Found,+52 866 634 0404,"Washington 33-A, Guadalupe, 25720 Monclova, Coah., México",Restaurante mexicano, Abre a las 12p.m.,Monclova
Hacienda Campanario,,"Un amplio restaurant bar con especialidades regionales y de la parrilla, con área de juegos y menú para niños.",+52 866 633 8355,"Blvd Harold R. Pape 1617, Colonia, Santa Monica, 25720 Monclova, Coah., México",Restaurante mexicano, Abre a las 8a.m.,Monclova
Restaurante El Álamo,facebook.com,None Found,+52 866 635 2859,"Jalisco Sur 901, Tecnológico, 25750 Monclova, Coah., México",Restaurante, Abre a las 12p.m.,Monclova
Boruca Restaurant & Sports-Bar,facebook.com,"Lugar amplio y casual, con paredes de ladrillo que lucen fotos de deportistas y un variado menú internacional.",+52 866 105 2888,"Blvd Harold R. Pape 1629, Santa Monica, 25720 Monclova, Coah., México",Restaurante americano, 2a.m. ,Monclova
Los Corrales,loscorralesrestaurant.com,None Found,+52 866 631 3333,"Calle Blvd. Pape & Frontera, Guadalupe, 25750 Monclova, Coah., México",Bar restaurante, Abre a las 7:30a.m.,Monclova
KÓKORO CAFÉ,kokorocafe.com.mx,None Found,+52 866 688 1717,"Blvd Harold R. Pape 1402, El Pueblo, 25730 Monclova, Coah., México",Cafetería, Abre a las 3p.m.,Monclova
Puro Taco,purotaco.com.mx,None Found,+52 866 688 1616,"San Miguel Nte 1210, El Pueblo, 25730 Monclova, Coah., México",Taquería, Abre a las 12p.m.,Monclova
Hooligans Irish Pub + Kitchen,,None Found,+52 866 634 5009,"Blvd. Ejercito Mexicano 1406, Los Pinos, 25720 Monclova, Coah., México",Pub irlandés,,Monclova
Restaurant Vitali,vitalitaqueriaasador.com.mx,None Found,+52 866 633 2828,"Nogal 26, Santa Monica, 25720 Monclova, Coah., México",Taquería, Abre a las 8a.m.,Monclova
Triple B restaurante & bar,facebook.com,None Found,+52 866 697 7717,"Blvd Harold R. Pape, Santa Monica, 25720 Monclova, Coah., México",Bar restaurante, 2a.m. ,Monclova
La Pesca Sinaloense,m.facebook.com,None Found,+52 866 631 4536,"Anáhuac, 25750 Monclova, Coah., México",Marisquería, Abre a las 12p.m.,Monclova
El taco del sirlon,,None Found,+52 866 635 8045,"Blvd Harold R. Pape 1813, Fraccionamiento La Salle, 25720 Monclova, Coah., México",Restaurante especializado en filetes, Abre a las 8a.m.,Monclova
Panorámica Monclova,,None Found,+52 866 281 6268,"Blvd Harold R. Pape 2006, col. Palma, 25730, 25718 Monclova, Coah., México",Restaurante, 2a.m. ,Monclova
Ribs,,None Found,+52 866 136 3363,"Blvd Harold R. Pape, Santa Monica, 25720 Monclova, Coah., México",Restaurante mexicano, Abre a las 11a.m.,Monclova
Los Chilaquiles,,None Found,+52 866 634 6672,"Benito Juárez 709, Guadalupe, 25750 Monclova, Coah., México",Restaurante mexicano, Abre a las 7:30a.m.,Monclova
Piccola Italia,facebook.com,None Found,+52 866 648 2555,"Blvrd Benito Juárez 320, Chapultepec, 25730 Monclova, Coah., México",Restaurante italiano, Abre a las 7:30p.m. del mar,Monclova
Susso's by Vera,,None Found,+52 866 633 6511,"Blvd Harold R. Pape 508, Guadalupe, 25750 Monclova, Coah., México",Restaurante, 2a.m. ,Monclova
Restaurante Gourmet Cimaco,gourmetcimaco.com.mx,None Found,+52 866 649 5408,"Blvd Harold R. Pape No. 1000-Local 1, Estancias de San Juan Bautista, 25726 Monclova, Coah., México",Restaurante, Abre a las 8a.m.,Monclova
Pappa’s Grill Monclova,,None Found,+52 866 632 1556,"Blvd Harold R. Pape 6201, Guadalupe, 25750 Monclova, Coah., México",Restaurante americano, Abre a las 12:40p.m.,Monclova
Los Colorines Monclova,,None Found,+52 866 688 1288,"Río Lerma 402, Jardines del Valle, 25730 Monclova, Coah., México",Restaurante mexicano, Abre a las 8a.m.,Monclova
Los Toritos Restaurante,facebook.com,None Found,+52 866 157 0307,"Venustiano Carranza 351, Zona Centro, 25700 Monclova, Coah., México",Restaurante mexicano, Abre a las 8a.m.,Monclova
Antiguo Restaurant Jardin,,None Found,+52 866 633 3197,"Río Lerma 299, Del Valle, 25730 Monclova, Coah., México",Restaurante, Abre a las 9a.m.,Monclova
Gyros Restaurant,,None Found,+52 866 633 7033,"Blvd. Boulevard Harold R. Pape 1509, esquina con Kennedy, El Pueblo, 25730 Monclova, Coah., México",Restaurante, Abre a las 6p.m.,Monclova
Hawaii Restaurante,,None Found,+52 866 632 0900,"Av. Ildefonso Fuentes 212, Zona Centro, 25700 Monclova, Coah., México",Restaurante, Abre a las 8a.m. del lun,Monclova
Tacos y Comidas Alan,,None Found,+52 866 633 3111,"Blvd Harold R. Pape 2006, col. Palma, 25730 Monclova, Coah., México",Taquería,,Monclova
Las Adelitas Monclova,,None Found,+52 866 177 9552,"C. Huemac 007, Anáhuac, 25750 Monclova, Coah., México",Restaurante, Abre a las 8:30a.m. del lun,Monclova
Sukori Sushi,facebook.com,None Found,+52 866 641 5606,"C. Manuel Acuña 301, El Pueblo, 25730 Monclova, Coah., México",Restaurante de sushi, 2a.m. ,Monclova
Cleto's Grill,,None Found,+52 866 634 6019,"La Paz LB, Rosita, 25717 Monclova, Coah., México",Bar restaurante, Abre a las 8a.m.,Monclova
La Republica Cocina y Cantina,facebook.com,None Found,,"Morelia Esq, C. Guatemala S/N, Chapultepec, 25730 Monclova, Coah., México",Bar, 2a.m. ,Monclova
El Malecón,,None Found,+52 866 632 4455,"Abasolo 698, Zona Centro, 25700 Monclova, Coah., México",Marisquería, Abre a las 9:30a.m.,Monclova
Fonda La Sirena,,None Found,+52 866 632 2550,"Benito Juárez Sur 700, Zona Centro, 25700 Monclova, Coah., México",Restaurante mexicano, Abre a las 8a.m.,Monclova
Restaurante Santa Fe,,None Found,+52 866 256 5917,"25720, Los Pinos, 25720 Monclova, Coah., México",Restaurante, Abre a las 8a.m.,Monclova
El Molcajete Taqueria,,None Found,+52 866 214 5582,"Bulevard Harold R. Pape, Kennedy Esquina, con, 25730 Monclova, Coah., México",Taquería, Abre a las 8a.m.,Monclova
Picosso Cocina Pop,facebook.com,None Found,+52 866 177 5858,"C. Huemac 1106, Anáhuac, 25750 Monclova, Coah., México",Restaurante, Abre a las 12p.m.,Monclova
"Asadero de Juan Hermilo ""El Original""",,None Found,+52 866 642 8787,"Av. Juárez, El Pueblo, 25730 Monclova, Coah., México",Parrilla, Abre a las 11a.m.,Monclova
La Cocina De María,,None Found,+52 866 190 4433,"25730, C. Cuauhtemoc 1716, Del Valle, Monclova, Coah., México",Restaurante, Abre a las 8a.m.,Monclova
La Nacional Botanero Bar,,None Found,+52 866 224 3396,"Blvd. Ejercito Mexicano 507-C, Los Pinos, 25720 Monclova, Coah., México",Bar restaurante, 2a.m. ,Monclova
Los Cuatro Vientos,los4vientosmonclova.com.mx,None Found,+52 866 633 7784,"México 57 2100, Santa Isabel, 25732 Monclova, Coah., México",Marisquería, Abre a las 8a.m.,Monclova
Dong Sushi Pape Norte,,None Found,+52 866 161 5983,"Blvd Harold R. Pape 2010, Jardines del Valle, 25730 Monclova, Coah., México",Restaurante japonés, Abre a las 12p.m.,Monclova
Jugos del Sur,facebook.com,None Found,+52 866 632 2298,"Venustiano Carranza 100, Zona Centro, 25700 Monclova, Coah., México",Restaurante mexicano, Abre a las 7a.m.,Monclova
La Yarda Food Station,facebook.com,None Found,,"Hermosillo 1113, Los Nogales, 25730 Monclova, Coah., México",Restaurante,,Monclova
La Parroquia,,None Found,+52 866 633 0004,"Zona Centro, 25700 Monclova, Coah., México",Restaurante, Abre a las 7a.m.,Monclova
Mima restaurante,,None Found,+52 866 636 8400,"Carretera 57 #1072 Colonia, Obrera Sur, 25790 Monclova, Coah., México",Restaurante, Abre a las 8a.m. del lun,Monclova
Mi Restaurante Vizana,instagram.com,None Found,+52 866 124 0721,"Jalisco Sur 1010-3, Los Pinos, 25720 Monclova, Coah., México",Restaurante, Abre a las 7a.m. del lun,Monclova
El Griego tacos al pastor,,None Found,+52 844 444 2535,"Country: MX MX, Blvd. Francisco I. Madero 1106, 25720 Monclova, Coah., México",Taquería, 2a.m. ,Monclova
Pescadería García,instagram.com,None Found,+52 866 131 3594,"Río de Janeiro 101, Guadalupe, 25750 Monclova, Coah., México",Marisquería, Abre a las 8a.m.,Monclova
Mi Fondita,,None Found,+52 866 633 0576,"Av. Juárez Nte. 860, El Pueblo, 25730 Monclova, Coah., México",Restaurante, Abre a las 7a.m.,Monclova
Nierika,facebook.com,None Found,+52 866 634 3611,"Blvd. Francisco I. Madero 1106, Guadalupe, 25720 Monclova, Coah., México",Restaurante de brunch, Abre a las 8a.m. del lun,Monclova
San Onofre Restaurant,,None Found,+52 866 147 2380,"Corregidora 1302 A, Tecnológico, 25716 Monclova, Coah., México",Restaurante, Abre a las 8a.m.,Monclova
Kalionchiz Restaurant-Bar,facebook.com,None Found,+52 866 632 0025,"Blvd Harold R. Pape 200, Guadalupe, 25750 Monclova, Coah., México",Bar restaurante, Abre a las 7a.m.,Monclova
La Cabaña,facebook.com,None Found,,"Abasolo 500, Zona Centro, 25700 Monclova, Coah., México",Restaurante,,Monclova
Super Sushi,,None Found,+52 866 641 5104,"Nogal #407, Santa Monica, 25720 Monclova, Coah., México",Restaurante de sushi, 2a.m. ,Monclova
Bufalo's,facebook.com,None Found,+52 866 110 5389,"C. Huemac 1130-A, Guadalupe, 25750 Monclova, Coah., México",Restaurante, Abre a las 9a.m.,Monclova
Paesanos Restaurante,,None Found,+52 866 632 0033,"Bulevar ejercito mexicano #102, esquina con calle monclova, el pueblo, 25730 Monclova, Coah., México",Restaurante italiano, Abre a la 1p.m.,Monclova
Restaurante Grill Rancho Don Trino,,None Found,+52 866 636 9692,"Carr. 57 1071, Obrera Sur, 25790 Monclova, Coah., México",Restaurante especializado en pollo, Abre a las 11a.m.,Monclova
Restaurante El Establo,,None Found,+52 866 631 5610,"Chopo y Nogal, La Loma, 25770 Monclova, Coah., México",Restaurante, Abre a las 8a.m.,Monclova
Pescadería Andrade,,None Found,+52 866 633 0830,"Blvd Harold R. Pape 525, Zona Centro, 25700 Monclova, Coah., México",Marisquería, Abre a las 9a.m.,Monclova
TACOS VILLA,,None Found,+52 866 279 6811,"C. Cuauhtemoc 1521, El Pueblo, 25730 Monclova, Coah., México",Restaurante mexicano, Cierra a las 3a.m. ,Monclova
Comerama,,None Found,+52 866 633 9750,"C. de la Fuente 310, Zona Centro, 25700 Monclova, Coah., México",Restaurante de desayunos, Abre a las 8a.m.,Monclova
Napoli Pizza & Pasta,napolipizza.com.mx,None Found,+52 866 641 4843,"Blvrd Benito Juárez 503, Col. Palma, 25730 Monclova, Coah., México",Restaurante italiano, Abre a las 12p.m.,Monclova
Pizza Rizza,facebook.com,None Found,+52 866 635 6500,"Boulevard Benito Juárez, Blvd. Tecnológico y, 25716 Monclova, Coah., México",Pizzería, 2a.m. ,Monclova
La Toscana Cocina Express,,None Found,+52 866 171 8169,"esquina con Itzcoatl, Cuauhtémoc 212, Colonia Anahuac, 25750 Monclova, Coah., México",Restaurante de comida para llevar, Abre a las 11:30a.m. del lun,Monclova
Ola Sinaloa - Mariscos Auténticos | Rib’s Restaurant-Bar,facebook.com,None Found,+52 866 136 3363,"Blvd Harold R. Pape 1815, Santa Monica, 25720 Monclova, Coah., México",Marisquería, Abre a las 11a.m.,Monclova
"Taquería ""Naranjos""",,None Found,+52 866 124 3147,"C. Cuauhtemoc 1404, El Pueblo, 25730 Monclova, Coah., México",Restaurante mexicano, Cierra a las 4a.m. ,Monclova
Beto tacos,,None Found,+52 81 2036 8391,"San Miguel Nte, El Pueblo, 25730 Monclova, Coah., México",Taquería, Abre a las 8a.m.,Monclova
El Charco,,None Found,+52 866 632 0737,"Aldama 406, El Pueblo, 25730 Monclova, Coah., México",Restaurante mexicano, Abre a las 8a.m.,Monclova
El Taconix,facebook.com,None Found,+52 866 254 2970,"25710, Blvrd Benito Juárez 709, 25717 Monclova, Coah., México",Restaurante, Abre a las 7p.m.,Monclova
Los Antojos de Lupita,facebook.com,None Found,+52 866 157 3665,"Blvrd San Jose, Heroes del 47, 25740 Monclova, Coah., México",Restaurante,,Monclova
Pancho Madero Botanero,,None Found,+52 866 173 2032,"Blvd. Francisco I. Madero 1011, Guadalupe, 25750 Monclova, Coah., México",Bar restaurante, 2a.m. ,Monclova
Gringa Extrema,,None Found,+52 866 218 8748,"Av. Oriente, C. 4 con, Hipódromo 2do. Sector, 25740 Monclova, Coah., México",Taquería, 2a.m. ,Monclova
Fu Yuan Comida China,,None Found,+52 866 141 6999,"C. Miguel Blanco, Zona Centro, 25700 Monclova, Coah., México",Restaurante chino, Cierra a las 8:30a.m. ,Monclova
Bartola Bar&Food,,None Found,+52 866 340 1564,"Guadalajara 600A, Guadalupe, 25750 Monclova, Coah., México",Restaurante, 2a.m. ,Monclova
Dong Sushi Galerias Olloqui,,None Found,+52 866 631 4432,"Blvd Harold R. Pape 1300-L-7, Los Nogales, 25730 Monclova, Coah., México",Restaurante japonés, Abre a las 11a.m.,Monclova
San Onofre Restaurant & Bar,my.canva.site,None Found,+52 866 115 0294,"Blvrd Ejército Nacional 223, El Pueblo, 25730 Monclova, Coah., México",Restaurante mexicano, Abre a las 9a.m.,Monclova
Río 70,,None Found,+52 866 633 0523,"Ignacio Zaragoza 209, Centro, 25700 Monclova, Coah., México",Restaurante,,Monclova
La Cocinita Restaurant,ueniweb.com,None Found,+52 866 132 0481,"Blvd. Ejercito Mexicano 710, San Francisco, 25720 Monclova, Coah., México",Restaurante mexicano, Abre a las 10a.m. del lun,Monclova
Siberiana,,None Found,+52 866 631 2054,"Blvd. Harold Pape, Guadalupe, 25750 Monclova, México",Restaurante mexicano, Abre a la 1p.m.,Monclova
Gordo De Oro,,None Found,+52 866 652 2912,"Blvd. Francisco I. Madero 1028, Guadalupe, 25750 Monclova, Coah., México",Restaurante mexicano, Abre a las 8a.m.,Monclova
Quesadillas El Gallo,,None Found,+52 866 635 7501,"Campeche, Los Pinos, 25720 Monclova, Coah., México",Restaurante de comida rápida, Abre a las 8a.m.,Monclova
Plaza Juárez,,None Found,+52 866 633 0903,"C. Cuauhtemoc 815, El Pueblo, 25730 Monclova, Coah., México",Restaurante especializado en pollo, Abre a las 8a.m.,Monclova
La Siberias JR.,,None Found,+52 866 633 3976,"Av. Ildefonso Fuentes 507, Zona Centro, 25700 Monclova, Coah., México",Restaurante, Abre a las 11a.m. del lun,Monclova
EL GALLITO ANTOJERIA,facebook.com,None Found,+52 866 131 2265,"Harold R pape 1815, Monclova, Mexico, 25720 Monclova, Coah., México",Churrería, Abre a las 2p.m.,Monclova
Natt,facebook.com,None Found,+52 866 635 1011,"Blvd. Francisco I. Madero 701, Guadalupe, 25720 Monclova, Coah., México",Restaurante de comida saludable, Abre a las 12p.m.,Monclova
La Robles,tageamevcard.com,None Found,+52 81 3687 0559,"C. Huemac 1112, Anáhuac, 25750 Monclova, Coah., México",Restaurante, Abre a las 9a.m.,Monclova
La Siberia's,,None Found,+52 866 177 2028,"Venustiano Carranza 345, Centro, 25700 Monclova, Coah., México",Restaurante mexicano, Abre a las 12p.m.,Monclova
Carl's Jr. Monclova,carlsjr.com.mx,"Cadena de comida rápida, famosa por su variedad de hamburguesas apiladas y promociones, además de batidos.",+52 866 648 3000,"Blvd Harold R. Pape 1327, Los Nogales, 25730 Monclova, Coah., México",Restaurante de comida rápida, Abre a las 8a.m.,Monclova
Master House,,None Found,+52 866 633 5667,"Mérida 805, Chapultepec, 25730 Monclova, Coah., México",Restaurante, Abre a las 12p.m.,Monclova
Tortas Aca-Toy,,None Found,+52 866 237 0548,"Benito Juárez Sur 213, Zona Centro, 25700 Monclova, Coah., México",Restaurante mexicano, Abre a las 7a.m.,Monclova
Tacos Charly (Bomberos),,None Found,+52 866 139 8257,"Veracruz, Guadalupe, 25750 Monclova, Coah., México",Taquería, Cierra a las 3a.m. ,Monclova
Hamburguesas al carbon El Porton,facebook.com,None Found,+52 866 132 0210,"Matamoros Sur 517, Zona Centro, 25700 Monclova, Coah., México",Hamburguesería, Abre a la 1p.m.,Monclova
Tortas El Canaston,,None Found,+52 866 136 0712,"Los Nogales, 25730 Monclova, Coah., México",Restaurante mexicano, Abre a las 10a.m.,Monclova
Pizza Klein,facebook.com,None Found,+52 866 635 8876,"Blvd. Francisco I. Madero, Guadalupe, 25750 Monclova, Coah., México",Pizzería, Abre a las 11a.m.,Monclova
Las Brazas Monclova,fiestainn.com,None Found,+52 866 649 4900,"Blvd Harold R. Pape 1909 A Col, Jardines de la salle, 25730 Monclova, Coah., México",Restaurante, Abre a las 12p.m.,Monclova
Mr. Taco Restaurante,,None Found,+52 866 107 6245,"República de Chile 1004, Guadalupe, 25750 Monclova, Coah., México",Taquería, Abre a las 6:30p.m.,Monclova
Burger Bowl,,None Found,+52 866 174 9527,"Blvd Harold R. Pape 809, Zona Centro, 25700 Monclova, Coah., México",Hamburguesería, Abre a las 6p.m.,Monclova
Asadero Los NONOS,,None Found,+52 866 651 4130,"San Buenaventura 337, Picaso, 25714 Monclova, Coah., México",Parrilla, Abre a las 7p.m.,Monclova
Zuki Sushi Express,facebook.com,None Found,+52 866 633 3302,"Blvd. Francisco I. Madero 127, Zona Centro, 25700 Monclova, Coah., México",Restaurante japonés, Abre a las 12p.m.,Monclova
La Fantoche Restaurante & Bar.,,None Found,+52 866 226 2298,"Blvrd Ejército Nacional 507-D, Los Pinos, 25720 Monclova, Coah., México",Restaurante americano, Abre a las 6p.m.,Monclova
Mozarella Pizza Mva Juarez,,None Found,,"Monterrey León, Tecnológico, 25720 Monclova, Coah., México",Pizzería, Abre a las 10a.m.,Monclova
Pollos Tick Waldos,,None Found,+52 866 633 1373,"Blvrd Benito Juárez 414, Los Nogales, 25730 Monclova, Coah., México",Restaurante de comida para llevar, Abre a las 9a.m.,Monclova
Birrieria La Chula,,None Found,+52 866 200 7540,"Brasilia 902, Guadalupe, 25750 Monclova, Coah., México",Restaurante, Abre a las 8a.m.,Monclova
Todo Empanadas Monclova,,None Found,+52 866 631 0654,"Blvd Harold R. Pape 1066-Local 14, Sin Nombre de Colonia, 25720 Monclova, Coah., México",Restaurante argentino, Abre a las 12p.m.,Monclova
Pescaderia Garcia - Industrial Monclova,pescaderiasgarcia.webnode.mx,None Found,+52 866 631 0563,"Ave. Industrial 318, Fracc, Miguel Alemán 318, Benavides, 25760 Monclova, Coah., México",Marisquería, Abre a las 8:30a.m.,Monclova
Buffet Los Comales Comida Casera,,None Found,+52 866 257 7231,"Tecnológico, 25720 Monclova, Coah., México",Restaurante, Abre a las 9a.m.,Monclova
LA PARRILLA DE SALLY,,None Found,,"Av. Juárez 798, El Pueblo, 25730 Monclova, Coah., México",Restaurante familiar, Abre a las 7p.m.,Monclova
TACOS TOCHO,facebook.com,None Found,+52 866 650 1311,"Puebla y, Valparaíso, Guadalupe, 25750 Monclova, Coah., México",Taquería, Abre a las 6p.m.,Monclova
Los Corrales Las Granjas,,None Found,+52 866 641 2749,"Av. Las Granjas 903, Fraccionamiento La Salle, 25720 Monclova, Coah., México",Restaurante, Abre a las 8a.m.,Monclova
Tacos Queño,,None Found,+52 866 635 8121,"Blvd Harold R. Pape 510, Guadalupe, 25750 Monclova, Coah., México",Taquería, Cierra a las 3a.m. ,Monclova
Aron's,facebook.com,None Found,+52 866 632 4911,"C. Cuauhtemoc 131, Centro, 25700 Monclova, Coah., México",Restaurante de comida rápida, Abre a las 8a.m. del lun,Monclova
HAPPY BAR RESTAURANT,,None Found,+52 866 237 5812,"Blvd Harold R. Pape 505, Guadalupe, 25750 Monclova, Coah., México",Bar restaurante, Abre a las 6p.m.,Monclova
Burger Coy,,None Found,+52 866 632 3823,"Blvd Harold R. Pape 902-A, Chapultepec, 25730 Monclova, Coah., México",Hamburguesería, Abre a las 11a.m.,Monclova
El Pollo Loco,elpolloloco.com.mx,"Cadena de comida rápida local, famosa por los clásicos mexicanos preparados con pollo a la parrilla.",+52 800 999 5626,"Blvd Harold R. Pape, La Salle 1903, 25700 Monclova, Coah., México",Restaurante de comida rápida, Abre a las 10a.m.,Monclova
Tacos y Cocas,facebook.com,None Found,+52 866 226 6890,"Cuauhtémoc esquina con Aldama s/n, El Pueblo, 25730 Monclova, Coah., México",Taquería, Abre a las 8a.m.,Monclova
Master House,,None Found,+52 866 229 2798,"Brasil 202, Guadalupe, 25750 Monclova, Coah., México",Hamburguesería, Abre a las 12p.m.,Monclova
Pollos Tick Restaurante,,None Found,+52 866 632 1530,"Jiménez, El Pueblo, 25730 Monclova, Coah., México",Restaurante especializado en pollo, Abre a las 9a.m.,Monclova
Restaurant Rico's,,None Found,+52 866 138 1331,"Lib. Lic. Carlos Salinas de Gortari km 12.9, 25640 Frontera, Coah., México",Restaurante mexicano, Abre a las 8a.m.,Monclova
Pollos Puente,pollospuente.com,"Colorido restaurante de comida rápida con entrega a domicilio que ofrece pollos asados, parrilladas y botanas.",+52 866 216 4466,"Avenida de los Reyes #1022, Nueva Rosita, 25750 Monclova, Coah., México",Restaurante especializado en pollo, Abre a las 11a.m.,Monclova
Rest. Mi sazón Mexicano,,None Found,+52 866 106 6843,"C. Cuauhtemoc, Zona Centro, 25700 Monclova, Coah., México",Restaurante, Abre a las 8a.m.,Monclova
Restaurante La Cima,,None Found,+52 866 218 1420,"Valparaíso 109, Guadalupe, 25750 Monclova, Coah., México",Restaurante, Abre a las 9a.m.,Monclova
Pollo Hot,m.facebook.com,None Found,+52 866 632 3862,"Av. Adolfo López Mateos 2001, Sin Nombre de Colonia, 25770 Monclova, Coah., México",Restaurante especializado en pollo, Abre a las 11a.m.,Monclova
