Names,Website,Introduction,Phone Number,Address,Type,Opens At,Municipio
La Casa de los Olivos,,"Comedor abierto con aire informal en donde se sirven sándwiches, carne asada y platillos mexicanos.",+52 55 5360 5166,"Valle de México 45, El Mirador, 53050 Naucalpan de Juárez, Méx., México",Restaurante, Abre a las 8:30a.m. del dom,Naucalpan de Juárez (municipio de Naucalpan)
La Vaka Satélite,lavaka.mx,None Found,+52 55 5920 0172,"Boulevard Manuel Ávila Camacho Norte Conjunto, San Miguel, 53010 Naucalpan de Juárez, Méx., México",Buffet libre, Cierra a las 10p.m.,Naucalpan de Juárez (municipio de Naucalpan)
La Casa de Toño en Echegaray,sucursales.lacasadetono.mx,None Found,+52 55 9331 4671,"Hda. de Salitrillo 22, Bosques de Echegaray, 53310 Naucalpan de Juárez, Méx., México",Restaurante mexicano, Cierra a las 11p.m.,Naucalpan de Juárez (municipio de Naucalpan)
Don Capitán San Mateo,doncapitan.com.mx,Especialidades del mar que incluye parrilladas y tacos en un restaurante casual decorado con redes de pescar.,+52 55 5363 1362,"Av. Jardines de San Mateo 69, Sta Cruz Acatlan, 53150 Naucalpan de Juárez, Méx., México",Marisquería, Cierra a las 11p.m.,Naucalpan de Juárez (municipio de Naucalpan)
Los Dorados,,None Found,+52 55 5560 7555,"Colina del Silencio 181-A, Boulevares, 53140 Naucalpan de Juárez, Méx., México",Restaurante mexicano, Cierra a las 11p.m.,Naucalpan de Juárez (municipio de Naucalpan)
La Vicenta Restaurante (Toreo),lavicenta.com.mx,None Found,+52 55 9688 7272,"Perif. Blvd. Manuel Ávila Camacho 5, Residencial Lomas de Sotelo, 53390 Naucalpan de Juárez, Méx., México",Restaurante de platos de carne, Cierra a la 1a.m.,Naucalpan de Juárez (municipio de Naucalpan)
Taquería Parrilla Leonesa Satélite,parrillaleonesa.com.mx,Lugar familiar decorado con motivos mexicanos en el que se sirve comida internacional en porciones abundantes.,+52 55 5360 1890,"Blvd. Manuel Ávila Camacho 1515, La Florida, 53160 Naucalpan de Juárez, Méx., México",Bar restaurante, Cierra a las 11p.m.,Naucalpan de Juárez (municipio de Naucalpan)
Restaurante Bar Mérida,,None Found,+52 55 5358 5031,"Av. Dr. Gustavo Baz 9, Naucalpan Centro, 53000 Naucalpan de Juárez, Méx., México",Bar restaurante, 9p.m. ,Naucalpan de Juárez (municipio de Naucalpan)
Volver,restaurantevolver.com.mx,"Cortes, pizzas y ensaladas servidas en un comedor de estilo actual con muros de piedra, techo alto y terraza.",+52 55 5363 0396,"Av. Dr. Gustavo Baz 128, Bosques de Echegaray, 53330 Naucalpan de Juárez, Méx., México",Restaurante argentino, Cierra a las 11p.m.,Naucalpan de Juárez (municipio de Naucalpan)
Restaurante La Tama,,None Found,+52 55 2745 3934,"De Las Mixtecas 5-B, Sta Cruz Acatlan, 53150 Naucalpan de Juárez, Méx., México",Bar restaurante, Abre a la 1p.m. del lun,Naucalpan de Juárez (municipio de Naucalpan)
Carnitas Alfonso,,Concurrido local de ambiente familiar donde la especialidad de la casa son las carnitas y platillos caseros.,+52 55 5360 5590,"Perif. Blvd. Manuel Ávila Camacho 865, Bosques de Echegaray, 53310 Naucalpan de Juárez, Méx., México",Restaurante de platos de carne, Abre a las 9a.m. del dom,Naucalpan de Juárez (municipio de Naucalpan)
Los Chato's,loschatos.com.mx,None Found,+52 55 5373 4524,"Av. México #33-Local B - 91 And 92, Las Americas, 53040 Naucalpan de Juárez, Méx., México",Restaurante mexicano, Abre a las 9a.m. del dom,Naucalpan de Juárez (municipio de Naucalpan)
La Vid Argentina Lomas Verdes,lavidargentina.com,Carnes asadas y comida argentina por tenedor libre o la carta en un lugar elegante con muebles de madera.,+52 55 5448 5448,"Perif. Blvd. Manuel Ávila Camacho 13, San Lorenzo Totolinga Primera Secc, 53150 Naucalpan de Juárez, Méx., México",Restaurante argentino, Cierra a las 10p.m.,Naucalpan de Juárez (municipio de Naucalpan)
El Asadero,facebook.com,None Found,+52 55 5373 4920,"Cam. a San Mateo Nopala 14, Jardines de San Mateo, 53240 Naucalpan de Juárez, Méx., México",Taquería, Cierra a las 12a.m.,Naucalpan de Juárez (municipio de Naucalpan)
Casa Cano,,None Found,+52 55 5359 4135,"Av. 16 de Septiembre 12, Naucalpan Centro, 53000 Naucalpan de Juárez, Méx., México",Bar restaurante, Cierra a las 11:30p.m.,Naucalpan de Juárez (municipio de Naucalpan)
Restaurante Villamar,hotelscala-magna.com,Sitio clásico con mesas de mantel blanco en el hotel Scala Magna que sirve alta cocina del mar y de la tierra.,+52 55 5359 2222,"Perif. Blvd. Manuel Ávila Camacho 495, San Andres Atoto, 53500 Naucalpan de Juárez, Méx., México",Restaurante mediterráneo,,Naucalpan de Juárez (municipio de Naucalpan)
La Esquina del Sabor,,None Found,+52 55 5956 9122,"Valle de México 49B, El Mirador, 53050 Naucalpan de Juárez, Méx., México",Restaurante, Abre a las 8a.m. del lun,Naucalpan de Juárez (municipio de Naucalpan)
Barrita de Mar Satelite,barritademar.mx,None Found,+52 55 4737 4658,"Perif. Blvd. Manuel Ávila Camacho 1735, La Florida, 53160 Naucalpan de Juárez, Méx., México",Marisquería, Cierra a las 2a.m.,Naucalpan de Juárez (municipio de Naucalpan)
Marisquería El Muelle,mariscoselmuelle.com,None Found,+52 55 6236 7611,"Av. Valle de México 8 Local 1 Entre Valle de Jilotepec, C. Valle de Morelos y, El Mirador, 53050 Naucalpan de Juárez, Méx., México",Marisquería, Abre a las 9a.m. del lun,Naucalpan de Juárez (municipio de Naucalpan)
Pozoleria Poctzin Naucalpan,poctzin.com,None Found,+52 55 5357 4266,"Parque El Chico 5, El Parque, 53398 Naucalpan de Juárez, Méx., México",Restaurante mexicano, Abre a las 10a.m. del dom,Naucalpan de Juárez (municipio de Naucalpan)
La Curandera,,None Found,+52 55 5294 3436,"De Los Olmecas 18, Sta Cruz Acatlan, 53150 Naucalpan de Juárez, Méx., México",Restaurante mexicano, Abre a las 8a.m. del dom,Naucalpan de Juárez (municipio de Naucalpan)
Cantaritos El Compa De Jalisco Satelite,,None Found,+52 55 1864 9710,"Perif. Blvd. Manuel Ávila Camacho 885, Sta Maria Nativitas, 53338 Naucalpan de Juárez, Méx., México",Bar restaurante, Cierra a las 2a.m.,Naucalpan de Juárez (municipio de Naucalpan)
Pescados y Mariscos Rolas,,None Found,+52 55 7265 2845,"Primavera 6, Naucalpan Centro, 53000 Naucalpan de Juárez, Méx., México",Marisquería, Abre a las 9:30a.m. del dom,Naucalpan de Juárez (municipio de Naucalpan)
La Luz Satelite,laluzsatelite.com.mx,Comedor sofisticado con toques hogareños que ofrece cocina alemana y opciones mexicanas con vino o cerveza.,+52 55 5360 1311,"Perif. Blvd. Manuel Ávila Camacho 1475-C, La Florida, 53160 Naucalpan de Juárez, Méx., México",Restaurante alemán,,Naucalpan de Juárez (municipio de Naucalpan)
Potzollcalli Echegaray,potzollcalli.com,None Found,+52 800 222 1010,"Av. Dr. Gustavo Baz 132, Modelo, 53310 Naucalpan de Juárez, Méx., México",Restaurante mexicano, Cierra a las 11p.m.,Naucalpan de Juárez (municipio de Naucalpan)
Casa Nava,,None Found,+52 55 5358 6271,"C. 5 24, San Andres Atoto, 53500 Naucalpan de Juárez, Méx., México",Restaurante, Abre a las 8a.m. del dom,Naucalpan de Juárez (municipio de Naucalpan)
Carnitas Alfonso,facebook.com,"Restaurante simple con sopas, bocadillos y platillos regionales para desayunar y almorzar, además de menúes diarios.",+52 55 5363 1863,"Valle de México 39A, El Mirador, 53050 Naucalpan de Juárez, Méx., México",Restaurante mexicano, Abre a las 9a.m. del dom,Naucalpan de Juárez (municipio de Naucalpan)
Porfirio's,porfirios.com.mx,None Found,+52 55 5162 7213,"Blvd. Manuel Avila Camacho 5 Toreo Parque Central, Planta Baja, 53390 Naucalpan de Juárez, Méx., México",Restaurante mexicano, Cierra a la 1a.m.,Naucalpan de Juárez (municipio de Naucalpan)
La Buena Mesa,,None Found,+52 55 2640 9272,"De Los Arcos 26, San Juan Totoltepec, 53270 Naucalpan de Juárez, Méx., México",Restaurante mexicano, Abre a las 8:15a.m. del lun,Naucalpan de Juárez (municipio de Naucalpan)
La Buena Mesa,,None Found,+52 55 2640 9272,"De Los Arcos 26, San Juan Totoltepec, 53270 Naucalpan de Juárez, Méx., México",Restaurante mexicano, Abre a las 8:15a.m. del lun,Naucalpan de Juárez (municipio de Naucalpan)
La Cocina Vicky,facebook.com,None Found,+52 55 8226 8618,"5 de Mayo, Naucalpan Centro, 53000 Naucalpan de Juárez, Méx., México",Restaurante mexicano, Abre a las 8:30a.m. del lun,Naucalpan de Juárez (municipio de Naucalpan)
El Medio y Medio / Satélite,elmedioymedio.com,None Found,+52 55 9298 6631,"Rosas 216, La Florida, 53160 Naucalpan de Juárez, Méx., México",Restaurante uruguayo, Cierra a las 10p.m.,Naucalpan de Juárez (municipio de Naucalpan)
Tina La Catrina,tina-la-catrina.ueniweb.com,None Found,+52 55 3043 3640,"Colina de La Quebrada 179A, Boulevares, 53140 Naucalpan de Juárez, Méx., México",Restaurante mexicano, Cierra a las 2a.m.,Naucalpan de Juárez (municipio de Naucalpan)
Nuevo Jade - Naucalpan de Juárez,facebook.com,None Found,,"Av. Vía Adolfo López Mateos 201, Bosques de Moctezuma, 53140 Naucalpan de Juárez, Méx., México",Restaurante chino,,Naucalpan de Juárez (municipio de Naucalpan)
El Gusto Jarocho Echegaray,,None Found,+52 55 5373 0744,"Via Gustavo Baz 124-A local 1, Col. Cervecera Modelo, Echegaray / Naucalpan, Av. Dr. Gustavo Baz 124B, Modelo, 53330 Naucalpan de Juárez, Méx., México",Restaurante, 9p.m. ,Naucalpan de Juárez (municipio de Naucalpan)
El Gusto Jarocho Echegaray,,None Found,+52 55 5373 0744,"Via Gustavo Baz 124-A local 1, Col. Cervecera Modelo, Echegaray / Naucalpan, Av. Dr. Gustavo Baz 124B, Modelo, 53330 Naucalpan de Juárez, Méx., México",Restaurante, 9p.m. ,Naucalpan de Juárez (municipio de Naucalpan)
La Mesa del Chef,p3df.mex.tl,None Found,+52 55 8848 8852,"Av San Francisco Cuautlalpan 45, Ahuizotla, 53378 Naucalpan de Juárez, Méx., México",Restaurante mexicano, Abre a las 12p.m. del lun,Naucalpan de Juárez (municipio de Naucalpan)
Puerto Madero,puertomaderorestaurantes.com,None Found,+52 55 8995 0751,"Boulevard Manuel Ávila Camacho #1230 Local 1-A y 2, Cd. Satélite, 53100 Naucalpan de Juárez, Méx., México",Restaurante argentino, Cierra a la 1a.m.,Naucalpan de Juárez (municipio de Naucalpan)
Fisher's Mexicas,fishers.com.mx,None Found,+52 55 5360 5272,"P.º de los Mexicas 37, Sta Cruz Acatlan, 53150 Naucalpan de Juárez, Méx., México",Marisquería, Cierra a las 10p.m.,Naucalpan de Juárez (municipio de Naucalpan)
Río Duero,,None Found,,"C. Abasolo 10-B, Centro, 53000 Naucalpan de Juárez, Méx., México",Bar restaurante, Cierra a las 10p.m.,Naucalpan de Juárez (municipio de Naucalpan)
Restaurante Martina's Grill,martinasgrill.com.mx,None Found,+52 55 2306 2946,"Av. Dr. Gustavo Baz 220, Hacienda de Echegaray, 53350 Naucalpan de Juárez, Méx., México",Restaurante,,Naucalpan de Juárez (municipio de Naucalpan)
Lagrange Churrascaría Naucalpan Toreo,lagrangechurrascaria.com.mx,Restaurante familiar de atmósfera casual que ofrece carnes asadas en espadas y una amplia barra de ensaladas.,+52 55 5003 1718,"Perif. Blvd. Manuel Ávila Camacho 160, El Parque, 53398 Naucalpan de Juárez, Méx., México",Restaurante brasileño, Cierra a las 11p.m.,Naucalpan de Juárez (municipio de Naucalpan)
El Rico Taco,,None Found,+52 55 8848 8527,"Av. José María Morelos 14, Centro, 53000 Naucalpan de Juárez, Méx., México",Taquería, Cierra a las 10p.m.,Naucalpan de Juárez (municipio de Naucalpan)
Restaurante Bar la Cabaña,,None Found,+52 55 6829 0978,"C.Jdn. 25, Naucalpan Centro, 53000 Naucalpan de Juárez, Méx., México",Bar, Cierra a las 2a.m.,Naucalpan de Juárez (municipio de Naucalpan)
Huaraches La Morena,,None Found,+52 55 6650 2976,"Valle de México 25, El Mirador, 53050 Naucalpan de Juárez, Méx., México",Restaurante mexicano, Abre a las 9a.m. del lun,Naucalpan de Juárez (municipio de Naucalpan)
Huaraches La Morena,,None Found,+52 55 6650 2976,"Valle de México 25, El Mirador, 53050 Naucalpan de Juárez, Méx., México",Restaurante mexicano, Abre a las 9a.m. del lun,Naucalpan de Juárez (municipio de Naucalpan)
Chazz,chazz.com.mx,None Found,+52 55 1663 0341,"Gran Terraza Lomas Verdes, Avenida Lomas Verdes 25, Boulevares, 53140 Naucalpan de Juárez, Méx., México",Restaurante americano, Cierra a las 11p.m.,Naucalpan de Juárez (municipio de Naucalpan)
Chazz,chazz.com.mx,None Found,+52 55 1663 0341,"Gran Terraza Lomas Verdes, Avenida Lomas Verdes 25, Boulevares, 53140 Naucalpan de Juárez, Méx., México",Restaurante americano, Cierra a las 11p.m.,Naucalpan de Juárez (municipio de Naucalpan)
Fonda Terra-Nosa,,None Found,+52 55 5373 6682,"Rosas 204, La Florida, 53160 Naucalpan de Juárez, Méx., México",Restaurante, Abre a las 9a.m. del dom,Naucalpan de Juárez (municipio de Naucalpan)
Butchery México GRILL,facebook.com,None Found,+52 55 1644 3012,"Baden Powell 8, Sta Cruz Acatlan, 53150 Naucalpan de Juárez, Méx., México",Parrilla, Abre a las 11a.m. del dom,Naucalpan de Juárez (municipio de Naucalpan)
A lo cubano,,None Found,+52 55 7712 7287,"Av. José María Morelos 18, Naucalpan Centro, 53000 Naucalpan de Juárez, Méx., México",Restaurante familiar, Cierra a las 10p.m.,Naucalpan de Juárez (municipio de Naucalpan)
Restaurante Los Caporales,,None Found,+52 55 2118 2284,"C. 5 No.26, San Andres Atoto, 53500 Naucalpan de Juárez, Méx., México",Restaurante, Cierra a las 6a.m. del dom,Naucalpan de Juárez (municipio de Naucalpan)
Alta Cocina Juanita,,None Found,+52 55 6791 8872,"Primavera 37, Naucalpan Centro, 53000 Naucalpan de Juárez, Méx., México",Marisquería, Abre a las 12a.m. del lun,Naucalpan de Juárez (municipio de Naucalpan)
Restaurante del Pueblito,,None Found,+52 55 6491 4608,"Cda. San Luis Tlatilco 2, Industrial Tlatilco 2, 53470 Naucalpan de Juárez, Méx., México",Restaurante familiar, Cierra a las 10p.m.,Naucalpan de Juárez (municipio de Naucalpan)
La Choza Encantada,lachoza.com.mx,None Found,+52 55 5560 0144,"Hacienda de la Gavia 72, Bosques de Echegaray, 53310 Naucalpan de Juárez, Méx., México",Restaurante mexicano, Cierra a las 10p.m.,Naucalpan de Juárez (municipio de Naucalpan)
La Choza Encantada,lachoza.com.mx,None Found,+52 55 5560 0144,"Hacienda de la Gavia 72, Bosques de Echegaray, 53310 Naucalpan de Juárez, Méx., México",Restaurante mexicano, Cierra a las 10p.m.,Naucalpan de Juárez (municipio de Naucalpan)
BAR LA PERDICION NAUCALPAN,facebook.com,None Found,,"Calle de Los Purépechas 50, Sta Cruz Acatlan, 53150 Naucalpan de Juárez, Méx., México",Bar restaurante, Cierra a las 2a.m.,Naucalpan de Juárez (municipio de Naucalpan)
El Camarón Guasaveño Lomas Verdes,,None Found,+52 55 2580 5713,"Avenida Lomas Verdes 139, Sta Cruz Acatlan, 53150 Naucalpan de Juárez, Méx., México",Marisquería, Abre a las 11a.m. del dom,Naucalpan de Juárez (municipio de Naucalpan)
"Carnitas ""Vargas""",,None Found,,"Av. Dr. Gustavo Baz 15, Naucalpan Centro, 53000 Naucalpan de Juárez, Méx., México",Restaurante mexicano, Abre a las 8a.m. del dom,Naucalpan de Juárez (municipio de Naucalpan)
A la Mexicana Cantina Tradicional,linktr.ee,None Found,+52 55 5360 2562,"Av. Gustavo Baz Prada 187, , Hacienda de Echegaray Naucalpan de Juárez, 53300 México, Méx., México",Restaurante mexicano, Cierra a las 12a.m.,Naucalpan de Juárez (municipio de Naucalpan)
"Porto Brasil, Restaurante De Espadas",,None Found,+52 55 6812 0312,"53150, Blvd. de la Sta. Cruz 166, Sta Cruz Acatlan, 53150 Naucalpan de Juárez, Méx., México",Buffet libre, Cierra a las 11p.m.,Naucalpan de Juárez (municipio de Naucalpan)
"Porto Brasil, Restaurante De Espadas",,None Found,+52 55 6812 0312,"53150, Blvd. de la Sta. Cruz 166, Sta Cruz Acatlan, 53150 Naucalpan de Juárez, Méx., México",Buffet libre, Cierra a las 11p.m.,Naucalpan de Juárez (municipio de Naucalpan)
Restaurante Familiar,,None Found,,"Esfuerzo 6, Lazaro Cardenas, 53560 Naucalpan de Juárez, Méx., México",Restaurante familiar, Abre a las 11:30a.m. del dom,Naucalpan de Juárez (municipio de Naucalpan)
Restaurante Familiar,,None Found,,"Esfuerzo 6, Lazaro Cardenas, 53560 Naucalpan de Juárez, Méx., México",Restaurante familiar, Abre a las 11:30a.m. del dom,Naucalpan de Juárez (municipio de Naucalpan)
Gabylu,,None Found,+52 55 6280 0340,"Blvd. de la Sta. Cruz 130-B, Sta Cruz Acatlan, 53150 Naucalpan de Juárez, Méx., México",Restaurante mexicano, Cierra a las 11p.m.,Naucalpan de Juárez (municipio de Naucalpan)
La BTK Naucalpan Centro,labtk.com.mx,None Found,+52 55 2208 7597,"Av. José María Morelos 20-interior 1, Naucalpan Centro, 53000 Naucalpan de Juárez, Méx., México",Restaurante de alas de pollo, Cierra a las 11p.m.,Naucalpan de Juárez (municipio de Naucalpan)
Raíces Cocina de Origen,,None Found,+52 55 4006 2780,"Hacienda de Temixco 48, Bosques de Echegaray, 53310 Naucalpan de Juárez, Méx., México",Restaurante, Abre a las 9:30a.m. del dom,Naucalpan de Juárez (municipio de Naucalpan)
Restaurant Bar Familiar La Junta,,None Found,,"53370, Av. 16 de Septiembre 560, Alce Blanco, 53370 Naucalpan de Juárez, Méx., México",Restaurante, Cierra a la 1a.m.,Naucalpan de Juárez (municipio de Naucalpan)
Los Dorados,,"Tacos al pastor, pozole y otros antojitos mexicanos en un local casual con bancas de madera y cocina abierta.",+52 55 5360 5327,"Colina de La Umbría 164, Boulevares, 53140 Naucalpan de Juárez, Méx., México",Restaurante mexicano, Cierra a las 12a.m.,Naucalpan de Juárez (municipio de Naucalpan)
Los Arcos,facebook.com,"Restaurante antiguo con platos con cerdo y carne, bocadillos y ensaladas.",+52 55 5562 5616,"Avenida Lomas Verdes 17, Cd. Satélite, 53100 Naucalpan de Juárez, Méx., México",Taquería, Cierra a las 12a.m.,Naucalpan de Juárez (municipio de Naucalpan)
Los Arcos,facebook.com,"Restaurante antiguo con platos con cerdo y carne, bocadillos y ensaladas.",+52 55 5562 5616,"Avenida Lomas Verdes 17, Cd. Satélite, 53100 Naucalpan de Juárez, Méx., México",Taquería, Cierra a las 12a.m.,Naucalpan de Juárez (municipio de Naucalpan)
Restaurante Jin Ding,,None Found,,"Av Doctor Gustavo Baz Norte 5, Naucalpan Centro, 53000 Naucalpan de Juárez, Méx., México",Restaurante de cocina mandarina, 9p.m. ,Naucalpan de Juárez (municipio de Naucalpan)
Restaurante Mi Taquito,,None Found,,"Av dr Gustavo Baz esquina, Av. 16 de Septiembre 2-2, Naucalpan Centro, 53000 Naucalpan de Juárez, Méx., México",Taquería, Abre a las 8a.m. del dom,Naucalpan de Juárez (municipio de Naucalpan)
Sumo All You Can Eat Echegaray,sumo.com.mx,None Found,+52 55 8989 7610,"Av. Gustavo Baz Prada 187 Hacienda de Echegaray Naucalpan de Juárez, 53300 México, Méx., México",Buffet libre, Cierra a las 12a.m.,Naucalpan de Juárez (municipio de Naucalpan)
Heliana,all.accor.com,None Found,+52 55 8920 0412,"Av. Primero de Mayo 120-Torre 2, San Andres Atoto, 53500 Naucalpan de Juárez, Méx., México",Restaurante,,Naucalpan de Juárez (municipio de Naucalpan)
Comida Echegaray,,None Found,+52 56 3441 6865,"46,, C. A 44, Modelo, 53330 Naucalpan de Juárez, Méx., México",Restaurante, Abre a la 1p.m. del lun,Naucalpan de Juárez (municipio de Naucalpan)
La Terraza Naucalpan,laterrazanaucalpan.com.mx,None Found,+52 55 3150 9331,"Av. Dr. Gustavo Baz 6, Naucalpan Centro, 53000 Naucalpan de Juárez, Méx., México",Bar, Cierra a las 2a.m.,Naucalpan de Juárez (municipio de Naucalpan)
La Terraza Naucalpan,laterrazanaucalpan.com.mx,None Found,+52 55 3150 9331,"Av. Dr. Gustavo Baz 6, Naucalpan Centro, 53000 Naucalpan de Juárez, Méx., México",Bar, Cierra a las 2a.m.,Naucalpan de Juárez (municipio de Naucalpan)
Restauran Bar La Diferencia,,None Found,+52 55 4178 1406,"Av. 16 de Septiembre 1111, Naucalpan Centro, 53370 Naucalpan de Juárez, Méx., México",Bar restaurante, Cierra a las 2a.m.,Naucalpan de Juárez (municipio de Naucalpan)
Restaurante Los Pajaritos,,None Found,+52 55 1244 4316,"Blvd. Toluca 2, San Francisco Cuautlalpan, 53370 Naucalpan de Juárez, Méx., México",Restaurante latinoamericano, Abre a las 8:30a.m. del lun,Naucalpan de Juárez (municipio de Naucalpan)
Guadiana Satélite,guadiana.com.mx,Recetas mexicanas del mar y tierra en un restaurant bar de aire cosmopolita con terraza y arte moderno.,+52 55 5562 4023,"Cto. Novelistas 6, Cd. Satélite, 53100 Naucalpan de Juárez, Méx., México",Restaurante mexicano, Cierra a las 11p.m.,Naucalpan de Juárez (municipio de Naucalpan)
CANTINA LA TRADICIONAL,cantinalatradicional.com,None Found,+52 55 7333 3244,"Fernando Leal Novelo 9, Cd. Satélite, 53100 Naucalpan de Juárez, Méx., México",Bar restaurante, Cierra a las 2a.m.,Naucalpan de Juárez (municipio de Naucalpan)
Fisher's Lomas Verdes,fishers.com.mx,None Found,+52 55 5560 6510,"Avenida Lomas Verdes 896-B, Sta Cruz Acatlan, 53150 Naucalpan de Juárez, Méx., México",Marisquería, Cierra a las 10p.m.,Naucalpan de Juárez (municipio de Naucalpan)
Sushi Sasha,,None Found,+52 55 5359 1726,"Av. Benito Juárez 15, Naucalpan Centro, 53000 Naucalpan de Juárez, Méx., México",Restaurante de sushi, Abre a las 11a.m. del lun,Naucalpan de Juárez (municipio de Naucalpan)
Sushi Sasha,,None Found,+52 55 5359 1726,"Av. Benito Juárez 15, Naucalpan Centro, 53000 Naucalpan de Juárez, Méx., México",Restaurante de sushi, Abre a las 11a.m. del lun,Naucalpan de Juárez (municipio de Naucalpan)
La Frontera Echegaray Bar & Grill,,None Found,+52 55 6587 1272,"Calle Calz. Echegaray 23, 10 de Abril, 53320 Naucalpan de Juárez, Méx., México",Bar restaurante, Cierra a las 12a.m.,Naucalpan de Juárez (municipio de Naucalpan)
Los Arcos,restaurantlosarcos.com,None Found,+52 55 5562 1953,"Perif. Blvd. Manuel Ávila Camacho 2150, Cd. Satélite, 53100 Naucalpan de Juárez, Méx., México",Marisquería,,Naucalpan de Juárez (municipio de Naucalpan)
La BTK Echegaray,labtk.com.mx,None Found,+52 55 5363 2629,"Av. Dr. Gustavo Baz 132 C, Modelo, 53330 Naucalpan de Juárez, Méx., México",Bar restaurante, Cierra a las 12a.m.,Naucalpan de Juárez (municipio de Naucalpan)
Mariscos El Pescador,,None Found,,"Av. José María Morelos loc.622, Naucalpan Centro, 53000 Naucalpan de Juárez, Méx., México",Marisquería, Abre a las 9:30a.m. del dom,Naucalpan de Juárez (municipio de Naucalpan)
La Tortería - Entre Tortas,,None Found,+52 55 5019 4649,"Victoria 24, El Mirador, 53330 Naucalpan de Juárez, Méx., México",Restaurante de comida rápida, Abre a las 9:30a.m. del lun,Naucalpan de Juárez (municipio de Naucalpan)
La Tortería - Entre Tortas,,None Found,+52 55 5019 4649,"Victoria 24, El Mirador, 53330 Naucalpan de Juárez, Méx., México",Restaurante de comida rápida, Abre a las 9:30a.m. del lun,Naucalpan de Juárez (municipio de Naucalpan)
Taquería La Farándula,,None Found,+52 55 7610 4034,"Villa del Carbón 1, Sta Cruz Acatlan, 53150 Naucalpan de Juárez, Méx., México",Restaurante, Cierra a las 4a.m.,Naucalpan de Juárez (municipio de Naucalpan)
La Mansión Satélite,lamansion.com.mx,None Found,+52 55 5572 8271,"Circuito Ingenieros 11, Cd. Satélite, 53100 Naucalpan de Juárez, Méx., México",Restaurante de platos de carne,,Naucalpan de Juárez (municipio de Naucalpan)
Oasis restaurante-terraza-eventos,,None Found,+52 55 4054 8436,"Av. Dr. Gustavo Baz 40, Bosques de Echegaray, 53310 Naucalpan de Juárez, Méx., México",Restaurante, Cierra a las 11:30p.m.,Naucalpan de Juárez (municipio de Naucalpan)
Vips Echegaray,vips.com.mx,None Found,+52 800 900 8477,"Hda. de Emiliano Zapata 7, Col. Nativitas, 53020 Naucalpan de Juárez, Méx., México",Restaurante mexicano, Cierra a las 11p.m.,Naucalpan de Juárez (municipio de Naucalpan)
La Sazon de Huichi,,None Found,+52 55 5360 6143,"Av. Benito Juárez 36-Local 8, Centro, 53000 Naucalpan de Juárez, Méx., México",Restaurante mexicano, Abre a las 9a.m. del lun,Naucalpan de Juárez (municipio de Naucalpan)
P.F. Chang's Lomas Verdes,pfchangsmexico.com.mx,None Found,+52 55 1663 0516,"Colina de La Paz 25, Boulevares, 53140 Naucalpan de Juárez, Méx., México",Restaurante asiático,,Naucalpan de Juárez (municipio de Naucalpan)
La Casa de Ofe,,None Found,+52 55 2791 7311,"Cto. Medicos 48, Cd. Satélite, 53100 Naucalpan de Juárez, Méx., México",Restaurante mexicano, Abre a las 8a.m. del lun,Naucalpan de Juárez (municipio de Naucalpan)
La Reina de Naucalpan,,None Found,,"C. Zaragoza 5, Naucalpan Centro, 53000 Naucalpan de Juárez, Méx., México",Marisquería, 8:10p.m. ,Naucalpan de Juárez (municipio de Naucalpan)
La Reina de Naucalpan,,None Found,,"C. Zaragoza 5, Naucalpan Centro, 53000 Naucalpan de Juárez, Méx., México",Marisquería, 8:10p.m. ,Naucalpan de Juárez (municipio de Naucalpan)
LOS DOS CHARROS,,None Found,+52 55 6327 6093,"Yaquis 89, Sta Cruz Acatlan, 53150 Naucalpan de Juárez, Méx., México",Restaurante, Abre a las 8a.m. del dom,Naucalpan de Juárez (municipio de Naucalpan)
Guadiana Satélite,guadiana.com.mx,Recetas mexicanas del mar y tierra en un restaurant bar de aire cosmopolita con terraza y arte moderno.,+52 55 5562 4023,"Cto. Novelistas 6, Cd. Satélite, 53100 Naucalpan de Juárez, Méx., México",Restaurante mexicano, Cierra a las 11p.m.,Naucalpan de Juárez (municipio de Naucalpan)
Guadiana Satélite,guadiana.com.mx,Recetas mexicanas del mar y tierra en un restaurant bar de aire cosmopolita con terraza y arte moderno.,+52 55 5562 4023,"Cto. Novelistas 6, Cd. Satélite, 53100 Naucalpan de Juárez, Méx., México",Restaurante mexicano, Cierra a las 11p.m.,Naucalpan de Juárez (municipio de Naucalpan)
Toks San Mateo,toks.com.mx,None Found,+52 55 5360 0632,"Av. Vía Adolfo López Mateos 201, Sta Cruz Acatlan, 53258 Naucalpan de Juárez, Méx., México",Restaurante mexicano, Cierra a las 10p.m.,Naucalpan de Juárez (municipio de Naucalpan)
Toks San Mateo,toks.com.mx,None Found,+52 55 5360 0632,"Av. Vía Adolfo López Mateos 201, Sta Cruz Acatlan, 53258 Naucalpan de Juárez, Méx., México",Restaurante mexicano, Cierra a las 10p.m.,Naucalpan de Juárez (municipio de Naucalpan)
BLACK BONES,,None Found,,"Av. México 47-Local 3, Sta Cruz Acatlan, 53150 Naucalpan de Juárez, Méx., México",Restaurante de comida rápida, Cierra a las 11p.m.,Naucalpan de Juárez (municipio de Naucalpan)
Olive Garden Italian Restaurant,olivegardenmexico.com.mx,"Animada cadena apta para familias con platos italianos, como pastas y ensaladas.",+52 55 5395 5195,"Perif. Blvd. Manuel Ávila Camacho 5, Residencial Lomas de Sotelo, 53390 Naucalpan de Juárez, Méx., México",Restaurante italiano, Cierra a las 11p.m.,Naucalpan de Juárez (municipio de Naucalpan)
Parrilla Quilmes,restaurantequilmes.com,"Platillos argentinos y pizzas en un lugar moderno con aire casual, ventanas grandes y vista de la ciudad.",+52 55 5349 2731,"Avenida Lomas Verdes Manzana 001, La Cuspide, 53124 Naucalpan de Juárez, Méx., México",Restaurante argentino, Cierra a las 11p.m.,Naucalpan de Juárez (municipio de Naucalpan)
Urbano x Lorenza,,None Found,+52 55 2640 3705,"Blvd de la santa cruz 142 local 17pb, Sta Cruz Acatlan, 53140 Naucalpan de Juárez, Méx., México",Restaurante, Cierra a las 11p.m.,Naucalpan de Juárez (municipio de Naucalpan)
Urbano x Lorenza,,None Found,+52 55 2640 3705,"Blvd de la santa cruz 142 local 17pb, Sta Cruz Acatlan, 53140 Naucalpan de Juárez, Méx., México",Restaurante, Cierra a las 11p.m.,Naucalpan de Juárez (municipio de Naucalpan)
Ostioneria Boca del Mar,,None Found,+52 55 5576 2377,"C. Abasolo 13, Naucalpan Centro, 53000 Naucalpan de Juárez, Méx., México",Marisquería, Abre a las 10a.m. del dom,Naucalpan de Juárez (municipio de Naucalpan)
El Bife del Padrino,bifedelpadrino.com.mx,"Moderno restaurante decorado con toques campestres que sirve ensaladas, pastas y cortes a la parrilla.",+52 56 1881 1451,"Cto Centro Comercial 2251-Local : LC R04, Cd. Satélite, 53100 Naucalpan de Juárez, Méx., México",Restaurante argentino, Cierra a las 12a.m.,Naucalpan de Juárez (municipio de Naucalpan)
Tortas Vikingo Leon,,None Found,+52 15537433034,"Cuauhtémoc 100, Alce Blanco, 53330 Naucalpan de Juárez, Méx., México",Restaurante de comida rápida,,Naucalpan de Juárez (municipio de Naucalpan)
Paella Gofram,,None Found,+52 55 1805 8007,"Hacienda de Xajay 202, Hacienda de Echegaray, 53300 Naucalpan de Juárez Méx Hacienda, P.º de Echegaray, 53300 Naucalpan de Juárez, Méx., México",Restaurante, Abre a las 11a.m. del dom,Naucalpan de Juárez (municipio de Naucalpan)
Paella Gofram,,None Found,+52 55 1805 8007,"Hacienda de Xajay 202, Hacienda de Echegaray, 53300 Naucalpan de Juárez Méx Hacienda, P.º de Echegaray, 53300 Naucalpan de Juárez, Méx., México",Restaurante, Abre a las 11a.m. del dom,Naucalpan de Juárez (municipio de Naucalpan)
El Pizzero,,None Found,+52 55 4733 5599,"Parque 6, S. Bartolo, 53000 Naucalpan de Juárez, Méx., México",Pizzería, Cierra a las 10p.m.,Naucalpan de Juárez (municipio de Naucalpan)
Tacos El Campeón,,None Found,+52 55 5360 6792,"Cda. Revolución 4, Sta Maria Nativitas, 53338 Naucalpan de Juárez, Méx., México",Taquería,,Naucalpan de Juárez (municipio de Naucalpan)
Safari Satélite Tacos Al Carbon,facebook.com,None Found,+52 55 5373 3878,"Manuel Avila Camacho 3129, La Florida, 53160 Naucalpan de Juárez, Méx., México",Restaurante, Cierra a la 1a.m.,Naucalpan de Juárez (municipio de Naucalpan)
Los Canarios Satélite,loscanarios.com.mx,None Found,+52 55 7829 1472,"Cto Centro Comercial 2251, Cd. Satélite, 53100 Naucalpan de Juárez, Méx., México",Restaurante mexicano, Cierra a las 12a.m.,Naucalpan de Juárez (municipio de Naucalpan)
Potzollcalli Satélite,potzollcalli.com,None Found,+52 800 222 1010,"Circuito Ingenieros 5-B, Cd. Satélite, 53100 Naucalpan de Juárez, Méx., México",Restaurante mexicano, Cierra a las 11p.m.,Naucalpan de Juárez (municipio de Naucalpan)
Guadiana Satélite,guadiana.com.mx,Recetas mexicanas del mar y tierra en un restaurant bar de aire cosmopolita con terraza y arte moderno.,+52 55 5562 4023,"Cto. Novelistas 6, Cd. Satélite, 53100 Naucalpan de Juárez, Méx., México",Restaurante mexicano, Cierra a las 11p.m.,Naucalpan de Juárez (municipio de Naucalpan)
Sinai,,None Found,+52 55 5359 7044,"Av. 16 de Septiembre 3-Local I, Alce Blanco, 53370 Naucalpan de Juárez, Méx., México",Restaurante kosher, Abre a las 10:30a.m. del dom,Naucalpan de Juárez (municipio de Naucalpan)
El Galán,,None Found,,"Valle de México 43, El Mirador, 53050 Naucalpan de Juárez, Méx., México",Restaurante de comida rápida, 9p.m. ,Naucalpan de Juárez (municipio de Naucalpan)
