Names,Website,Introduction,Phone Number,Address,Type,Opens At,Municipio
Restaurante las Caballerizas,lascaballerizas.com,Cocina mexicana-internacional en un lugar pintoresco y familiar con muchas áreas verdes y una granja pequeña.,+52 55 8284 1041,"Domilicio Conocido, Av. San Francisco s/n, 52790 Dos Ríos, Méx., México",Restaurante mexicano, Abre a las 9a.m.,Naucalpan de Juárez (municipio de Huixquilucan)
Restaurante 9 hoyos,,None Found,+52 55 5304 8175,"And. José de San Martin 15, Bosque Real, 53713 Naucalpan de Juárez, Méx., México",Restaurante, Abre a las 7a.m.,Naucalpan de Juárez (municipio de Huixquilucan)
La Casa de los Olivos,,"Comedor abierto con aire informal en donde se sirven sándwiches, carne asada y platillos mexicanos.",+52 55 5360 5166,"Valle de México 45, El Mirador, 53050 Naucalpan de Juárez, Méx., México",Restaurante, Abre a las 8:30a.m.,Naucalpan de Juárez (municipio de Huixquilucan)
La Casa de Toño en Magnocentro,sucursales.lacasadetono.mx,None Found,+52 55 9331 4671,"Blvd. Magnocentro 29-Local 110, Centro, 52760 Huixquilucan de Degollado, Méx., México",Restaurante mexicano, Abre a las 8a.m.,Naucalpan de Juárez (municipio de Huixquilucan)
Loma Linda Interlomas,lomalinda.com.mx,Reconocido restaurante que ofrece cortes al carbón y vinos en un estilizado comedor decorado en madera y piel.,+52 55 5290 0149,"Vialidad de la Barranca 6, Col. Ex Hacienda Jesús del Monte, Bosque de las Palmas, 52779 Naucalpan de Juárez, Méx., México",Restaurante especializado en filetes, Abre a la 1p.m.,Naucalpan de Juárez (municipio de Huixquilucan)
"Restaurante ""El Castillo""",elcastillosalon01.wixsite.com,None Found,+52 55 2821 4770,"Cam. Agua Bendita 26, 52798 Huixquilucan de Degollado, Méx., México",Restaurante,,Naucalpan de Juárez (municipio de Huixquilucan)
Cambalache Interlomas,cambalacherestaurantes.com,None Found,+52 55 4780 3330,"Palmas Hills Mz II, Lt 1-2, Valle de las Palmas, 52763 Méx., México",Restaurante argentino, Abre a la 1p.m.,Naucalpan de Juárez (municipio de Huixquilucan)
La Vaka Satélite,lavaka.mx,None Found,+52 55 5920 0172,"Boulevard Manuel Ávila Camacho Norte Conjunto, San Miguel, 53010 Naucalpan de Juárez, Méx., México",Buffet libre, Abre a las 11a.m.,Naucalpan de Juárez (municipio de Huixquilucan)
Suntory Interlomas,suntory.com.mx,Comida japonesa tradicional ofrecida en un refinado salón con mesas de teppanyaki y un sofisticado bar lounge.,+52 55 5290 4420,"Vialidad de la Barranca 6, Col. Ex Hacienda Jesús del Monte, Bosque de las Palmas, 52779 Naucalpan de Juárez, Méx., México",Restaurante japonés, Abre a la 1p.m.,Naucalpan de Juárez (municipio de Huixquilucan)
La kuchineria,,None Found,+52 55 9131 4432,"Gral. Agustín de Iturbide 2, 53126 Naucalpan de Juárez, Méx., México",Restaurante, Abre a las 8a.m.,Naucalpan de Juárez (municipio de Huixquilucan)
"Restaurante ""Tú Casa""",tucasa.rest,None Found,+52 55 9690 3083,"Nicolás Bravo Manzana 025, San Melchor, 52760 Huixquilucan de Degollado, Méx., México",Restaurante, Abre a las 9a.m.,Naucalpan de Juárez (municipio de Huixquilucan)
Restaurante Las Bugambilias,,None Found,+52 55 2650 9277,"Amado Nervo 8, San Miguel, 52760 Huixquilucan de Degollado, Méx., México",Bar restaurante, Abre a las 8a.m.,Naucalpan de Juárez (municipio de Huixquilucan)
La Vicenta Restaurante (Toreo),lavicenta.com.mx,None Found,+52 55 9688 7272,"Perif. Blvd. Manuel Ávila Camacho 5, Residencial Lomas de Sotelo, 53390 Naucalpan de Juárez, Méx., México",Restaurante de platos de carne, Abre a la 1p.m.,Naucalpan de Juárez (municipio de Huixquilucan)
Restaurante Villamar,hotelscala-magna.com,Sitio clásico con mesas de mantel blanco en el hotel Scala Magna que sirve alta cocina del mar y de la tierra.,+52 55 5359 2222,"Perif. Blvd. Manuel Ávila Camacho 495, San Andres Atoto, 53500 Naucalpan de Juárez, Méx., México",Restaurante mediterráneo,,Naucalpan de Juárez (municipio de Huixquilucan)
Carolo Paseo Interlomas,carolo.com.mx,None Found,+52 55 5290 8198,"Vialidad de la barranca, Av. Jesús del Monte 6, 52779 Méx., México",Restaurante, Abre a las 8a.m.,Naucalpan de Juárez (municipio de Huixquilucan)
El Bife del Padrino Gran Terraza Lomas Verdes,bifedelpadrino.com.mx,"Cortes argentinos al carbón, pastas, pizzas y ensaladas en un comedor idóneo para negocios o domingo familiar.",+52 55 8581 1391,"Colina de La Paz 25, Boulevares, 53120 Naucalpan de Juárez, Méx., México",Restaurante argentino,,Naucalpan de Juárez (municipio de Huixquilucan)
Ciao Mamma pizza & pasta fatta a mano,,None Found,+52 55 9131 5300,"Pje. Interlomas 6, Bosque de las Palmas, 52786 Naucalpan de Juárez, Méx., México",Restaurante italiano, Abre a la 1p.m.,Naucalpan de Juárez (municipio de Huixquilucan)
Casa Cano,,None Found,+52 55 5359 4135,"Av. 16 de Septiembre 12, Naucalpan Centro, 53000 Naucalpan de Juárez, Méx., México",Bar restaurante, Abre a la 1p.m.,Naucalpan de Juárez (municipio de Huixquilucan)
El Japonez Interlomas,eljaponez.com,None Found,+52 55 4780 9773,"BLVD. Palmas Hills 2 MZ II, Lote 1-2, Valle de las Palmas, 52787 Méx., México",Restaurante japonés, Abre a la 1p.m.,Naucalpan de Juárez (municipio de Huixquilucan)
El Japonez Interlomas,eljaponez.com,None Found,+52 55 4780 9773,"BLVD. Palmas Hills 2 MZ II, Lote 1-2, Valle de las Palmas, 52787 Méx., México",Restaurante japonés, Abre a la 1p.m.,Naucalpan de Juárez (municipio de Huixquilucan)
La Colifata,,None Found,+52 55 5290 2606,"Pje. Interlomas 6, La Herradura, 52787 Naucalpan de Juárez, Méx., México",Restaurante argentino, Abre a la 1p.m.,Naucalpan de Juárez (municipio de Huixquilucan)
Los Chato's,loschatos.com.mx,None Found,+52 55 5373 4524,"Av. México #33-Local B - 91 And 92, Las Americas, 53040 Naucalpan de Juárez, Méx., México",Restaurante mexicano, Abre a las 9a.m.,Naucalpan de Juárez (municipio de Huixquilucan)
Porfirio's,porfirios.com.mx,None Found,+52 55 5162 7213,"Blvd. Manuel Avila Camacho 5 Toreo Parque Central, Planta Baja, 53390 Naucalpan de Juárez, Méx., México",Restaurante mexicano, Abre a la 1p.m.,Naucalpan de Juárez (municipio de Huixquilucan)
Huaraches la Morena,,None Found,,"Av Dr Gustavo Baz Sur 43, Industrial Tlatilco 2, 53480 Naucalpan de Juárez, Méx., México",Restaurante mexicano, Abre a las 9a.m. del lun,Naucalpan de Juárez (municipio de Huixquilucan)
Restaurante del Pueblito,,None Found,+52 55 6491 4608,"Cda. San Luis Tlatilco 2, Industrial Tlatilco 2, 53470 Naucalpan de Juárez, Méx., México",Restaurante familiar, Abre a las 7a.m.,Naucalpan de Juárez (municipio de Huixquilucan)
Onomura Nigiri Room Interlomas,onomura.com.mx,None Found,+52 55 5868 4229,"Parque de Granada 25-Local 10 Piso 2, Parques de la Herradura, 52786 Naucalpan de Juárez, Méx., México",Restaurante, Abre a la 1p.m.,Naucalpan de Juárez (municipio de Huixquilucan)
Don Capitán San Mateo,doncapitan.com.mx,Especialidades del mar que incluye parrilladas y tacos en un restaurante casual decorado con redes de pescar.,+52 55 5363 1362,"Av. Jardines de San Mateo 69, Sta Cruz Acatlan, 53150 Naucalpan de Juárez, Méx., México",Marisquería, Abre a las 10a.m.,Naucalpan de Juárez (municipio de Huixquilucan)
Carnitas Alfonso,facebook.com,"Restaurante simple con sopas, bocadillos y platillos regionales para desayunar y almorzar, además de menúes diarios.",+52 55 5363 1863,"Valle de México 39A, El Mirador, 53050 Naucalpan de Juárez, Méx., México",Restaurante mexicano, Abre a las 9a.m.,Naucalpan de Juárez (municipio de Huixquilucan)
Farina Interlomas,farinarest.com,None Found,+52 55 5998 8148,"Blvd. Palmas Hills 1, Valle de las Palmas, 52763 Naucalpan de Juárez, Méx., México",Restaurante italiano, Abre a la 1p.m.,Naucalpan de Juárez (municipio de Huixquilucan)
Farina Interlomas,farinarest.com,None Found,+52 55 5998 8148,"Blvd. Palmas Hills 1, Valle de las Palmas, 52763 Naucalpan de Juárez, Méx., México",Restaurante italiano, Abre a la 1p.m.,Naucalpan de Juárez (municipio de Huixquilucan)
Japánika Interlomas,grupojapanika.online,Espacio de diseño moderno con arte oriental y parrillas en las mesas que ofrece especialidades de Japón.,+52 55 5290 2232,"Pje. Interlomas 22, La Herradura, 52786 Naucalpan de Juárez, Méx., México",Restaurante japonés, Abre a la 1p.m.,Naucalpan de Juárez (municipio de Huixquilucan)
Restaurante Bar Mérida,,None Found,+52 55 5358 5031,"Av. Dr. Gustavo Baz 9, Naucalpan Centro, 53000 Naucalpan de Juárez, Méx., México",Bar restaurante, Abre a las 11a.m.,Naucalpan de Juárez (municipio de Huixquilucan)
Casa Nava,,None Found,+52 55 5358 6271,"C. 5 24, San Andres Atoto, 53500 Naucalpan de Juárez, Méx., México",Restaurante, Abre a las 8a.m.,Naucalpan de Juárez (municipio de Huixquilucan)
Volver,restaurantevolver.com.mx,"Cortes, pizzas y ensaladas servidas en un comedor de estilo actual con muros de piedra, techo alto y terraza.",+52 55 5363 0396,"Av. Dr. Gustavo Baz 128, Bosques de Echegaray, 53330 Naucalpan de Juárez, Méx., México",Restaurante argentino, Abre a la 1p.m.,Naucalpan de Juárez (municipio de Huixquilucan)
Volver,restaurantevolver.com.mx,"Cortes, pizzas y ensaladas servidas en un comedor de estilo actual con muros de piedra, techo alto y terraza.",+52 55 5363 0396,"Av. Dr. Gustavo Baz 128, Bosques de Echegaray, 53330 Naucalpan de Juárez, Méx., México",Restaurante argentino, Abre a la 1p.m.,Naucalpan de Juárez (municipio de Huixquilucan)
La Bella Toluca,,None Found,+52 55 5576 1616,"Av. Dr. Gustavo Baz 13, Naucalpan Centro, 53000 Naucalpan de Juárez, Méx., México",Bar restaurante, Abre a las 12p.m. del lun,Naucalpan de Juárez (municipio de Huixquilucan)
La Esquina del Sabor,,None Found,+52 55 5956 9122,"Valle de México 49B, El Mirador, 53050 Naucalpan de Juárez, Méx., México",Restaurante, Abre a las 8a.m. del lun,Naucalpan de Juárez (municipio de Huixquilucan)
Garnacheria La Doña,,None Found,+52 55 4323 2072,"5 de Mayo 73 - A, San Bartolo, Naucalpan Centro, 53000 Naucalpan de Juárez, Méx., México",Restaurante, Abre a las 9a.m.,Naucalpan de Juárez (municipio de Huixquilucan)
Huaraches La Morena,,None Found,+52 55 6650 2976,"Valle de México 25, El Mirador, 53050 Naucalpan de Juárez, Méx., México",Restaurante mexicano, Abre a las 9a.m. del lun,Naucalpan de Juárez (municipio de Huixquilucan)
Los Canarios Satélite,loscanarios.com.mx,None Found,+52 55 7829 1472,"Cto Centro Comercial 2251, Cd. Satélite, 53100 Naucalpan de Juárez, Méx., México",Restaurante mexicano, Abre a las 8a.m.,Naucalpan de Juárez (municipio de Huixquilucan)
Los Arcos,facebook.com,"Restaurante antiguo con platos con cerdo y carne, bocadillos y ensaladas.",+52 55 5562 5616,"Avenida Lomas Verdes 17, Cd. Satélite, 53100 Naucalpan de Juárez, Méx., México",Taquería, Abre a las 10a.m.,Naucalpan de Juárez (municipio de Huixquilucan)
Los Arcos,facebook.com,"Restaurante antiguo con platos con cerdo y carne, bocadillos y ensaladas.",+52 55 5562 5616,"Avenida Lomas Verdes 17, Cd. Satélite, 53100 Naucalpan de Juárez, Méx., México",Taquería, Abre a las 10a.m.,Naucalpan de Juárez (municipio de Huixquilucan)
El Bife del Padrino,bifedelpadrino.com.mx,"Moderno restaurante decorado con toques campestres que sirve ensaladas, pastas y cortes a la parrilla.",+52 56 1881 1451,"Cto Centro Comercial 2251-Local : LC R04, Cd. Satélite, 53100 Naucalpan de Juárez, Méx., México",Restaurante argentino, Abre a la 1p.m.,Naucalpan de Juárez (municipio de Huixquilucan)
Marisquería El Muelle,mariscoselmuelle.com,None Found,+52 55 6236 7611,"Av. Valle de México 8 Local 1 Entre Valle de Jilotepec, C. Valle de Morelos y, El Mirador, 53050 Naucalpan de Juárez, Méx., México",Marisquería, Abre a las 9a.m. del lun,Naucalpan de Juárez (municipio de Huixquilucan)
La Mansión Satélite,lamansion.com.mx,None Found,+52 55 5572 8271,"Circuito Ingenieros 11, Cd. Satélite, 53100 Naucalpan de Juárez, Méx., México",Restaurante de platos de carne,,Naucalpan de Juárez (municipio de Huixquilucan)
Pescados y Mariscos Rolas,,None Found,+52 55 7265 2845,"Primavera 6, Naucalpan Centro, 53000 Naucalpan de Juárez, Méx., México",Marisquería, Abre a las 9:30a.m.,Naucalpan de Juárez (municipio de Huixquilucan)
Sonora Grill Mundo E,sonoragrill.com.mx,None Found,+52 55 5366 9520,"Perif. Blvd. Manuel Ávila Camacho 1007, Hab Jardines de Santa Monica, 54050 Tlalnepantla, Méx., México",Restaurante, Abre a las 12p.m.,Naucalpan de Juárez (municipio de Huixquilucan)
LAVO,lavomexico.com,None Found,+52 55 1540 9085,"P.º de los Tamarindos 90-Local 12, Arcos Bosques, Bosques de las Lomas, Cuajimalpa de Morelos, 05120 Ciudad de México, CDMX, México",Restaurante, Abre a la 1p.m.,Naucalpan de Juárez (municipio de Huixquilucan)
La Cocina Vicky,facebook.com,None Found,+52 55 8226 8618,"5 de Mayo, Naucalpan Centro, 53000 Naucalpan de Juárez, Méx., México",Restaurante mexicano, Abre a las 8:30a.m. del lun,Naucalpan de Juárez (municipio de Huixquilucan)
Los Arcos,restaurantlosarcos.com,None Found,+52 55 5562 1953,"Perif. Blvd. Manuel Ávila Camacho 2150, Cd. Satélite, 53100 Naucalpan de Juárez, Méx., México",Marisquería,,Naucalpan de Juárez (municipio de Huixquilucan)
Los Arcos,restaurantlosarcos.com,None Found,+52 55 5562 1953,"Perif. Blvd. Manuel Ávila Camacho 2150, Cd. Satélite, 53100 Naucalpan de Juárez, Méx., México",Marisquería,,Naucalpan de Juárez (municipio de Huixquilucan)
Río Duero,,None Found,,"C. Abasolo 10-B, Centro, 53000 Naucalpan de Juárez, Méx., México",Bar restaurante, Abre a las 9a.m.,Naucalpan de Juárez (municipio de Huixquilucan)
Tacos El Olivo,tacoselolivo.blogspot.mx,None Found,+52 55 7090 0533,"Tecamachalco Lomas Local 1 y 2, El Olivo, 52789 De mexico, Méx., México",Taquería, Abre a las 2p.m.,Naucalpan de Juárez (municipio de Huixquilucan)
Khao trabajar,,None Found,+52 55 9131 8712,"Via Magna 39, Bosque de las Palmas, 52786 Naucalpan de Juárez, Méx., México",Restaurante tailandés, Abre a la 1p.m.,Naucalpan de Juárez (municipio de Huixquilucan)
El Rico Taco,,None Found,+52 55 8848 8527,"Av. José María Morelos 14, Centro, 53000 Naucalpan de Juárez, Méx., México",Taquería, Abre a las 9a.m.,Naucalpan de Juárez (municipio de Huixquilucan)
La Terraza Naucalpan,laterrazanaucalpan.com.mx,None Found,+52 55 3150 9331,"Av. Dr. Gustavo Baz 6, Naucalpan Centro, 53000 Naucalpan de Juárez, Méx., México",Bar, Abre a la 1p.m.,Naucalpan de Juárez (municipio de Huixquilucan)
La Terraza Naucalpan,laterrazanaucalpan.com.mx,None Found,+52 55 3150 9331,"Av. Dr. Gustavo Baz 6, Naucalpan Centro, 53000 Naucalpan de Juárez, Méx., México",Bar, Abre a la 1p.m.,Naucalpan de Juárez (municipio de Huixquilucan)
Los Culiados Mariscos,,None Found,+52 55 1903 4339,"Cto. Economistas 93A, Cd. Satélite, 53100 Naucalpan de Juárez, Méx., México",Restaurante, Abre a las 10a.m.,Naucalpan de Juárez (municipio de Huixquilucan)
Guadiana Satélite,guadiana.com.mx,Recetas mexicanas del mar y tierra en un restaurant bar de aire cosmopolita con terraza y arte moderno.,+52 55 5562 4023,"Cto. Novelistas 6, Cd. Satélite, 53100 Naucalpan de Juárez, Méx., México",Restaurante mexicano, Abre a la 1:30p.m.,Naucalpan de Juárez (municipio de Huixquilucan)
Restaurante Jin Ding,,None Found,,"Av Doctor Gustavo Baz Norte 5, Naucalpan Centro, 53000 Naucalpan de Juárez, Méx., México",Restaurante de cocina mandarina, Abre a las 9a.m.,Naucalpan de Juárez (municipio de Huixquilucan)
Prosecco Satélite,prosecco.mx,None Found,+52 55 5084 4501,"Cto Centro Comercial 2251, Cd. Satélite, 53100 Naucalpan de Juárez, Méx., México",Restaurante italiano, Abre a la 1p.m.,Naucalpan de Juárez (municipio de Huixquilucan)
Caldos de Gallina Indianilla,,None Found,,"Gabriel Ramos Millán 14, Naucalpan Centro, 53000 Naucalpan de Juárez, Méx., México",Restaurante mexicano, Abre a las 7a.m.,Naucalpan de Juárez (municipio de Huixquilucan)
"Molino Viejo, Restaurante",,None Found,+52 55 5452 1940,"Paraje del Molino Viejo, Hacienda de las Palmas, 52763 Ciudad de México, Méx., México",Restaurante, Abre a las 8:30a.m.,Naucalpan de Juárez (municipio de Huixquilucan)
Restaurante Bar la Cabaña,,None Found,+52 55 6829 0978,"C.Jdn. 25, Naucalpan Centro, 53000 Naucalpan de Juárez, Méx., México",Bar, Abre a las 11a.m.,Naucalpan de Juárez (municipio de Huixquilucan)
La Cocina de El Tras,lacocinadeltras.com,"Legendario y festivo restaurant conocido por su pintoresca decoración, menú mexicano y sus tacos de carnitas.",+52 55 5259 0641,"Carr. México-Toluca 2685, Granjas Palo Alto, Cuajimalpa de Morelos, 05110 Ciudad de México, CDMX, México",Restaurante mexicano, Abre a las 8a.m.,Naucalpan de Juárez (municipio de Huixquilucan)
La Cocina de El Tras,lacocinadeltras.com,"Legendario y festivo restaurant conocido por su pintoresca decoración, menú mexicano y sus tacos de carnitas.",+52 55 5259 0641,"Carr. México-Toluca 2685, Granjas Palo Alto, Cuajimalpa de Morelos, 05110 Ciudad de México, CDMX, México",Restaurante mexicano, Abre a las 8a.m.,Naucalpan de Juárez (municipio de Huixquilucan)
Elia Estiatorio,eliaestiatorio.com,None Found,+52 55 1547 2678,"Paseo de los Tamarindos 90 local PB-15, Bosques de las Lomas, 05120 CDMX, México",Restaurante, Abre a la 1p.m.,Naucalpan de Juárez (municipio de Huixquilucan)
La Vieille France Boulevares,lavieillefrance.com.mx,None Found,+52 55 5572 1787,"Blvd. de la Sta. Cruz 25, Boulevares, 53140 Naucalpan de Juárez, Méx., México",Restaurante, Abre a las 8a.m.,Naucalpan de Juárez (municipio de Huixquilucan)
Ostioneria Boca Del Mar,,None Found,+52 55 1485 3696,"Gabriel Ramos Millán 10, Naucalpan Centro, 53000 Naucalpan de Juárez, Méx., México",Marisquería, Abre a las 9:30a.m.,Naucalpan de Juárez (municipio de Huixquilucan)
Caldos de Gallina Indianilla,,None Found,+52 55 7159 0335,"Av. 16 de Septiembre 35, Naucalpan Centro, 53000 Naucalpan de Juárez, Méx., México",Restaurante mexicano, Abre a las 7a.m.,Naucalpan de Juárez (municipio de Huixquilucan)
Caldos de Gallina Indianilla,,None Found,+52 55 7159 0335,"Av. 16 de Septiembre 35, Naucalpan Centro, 53000 Naucalpan de Juárez, Méx., México",Restaurante mexicano, Abre a las 7a.m.,Naucalpan de Juárez (municipio de Huixquilucan)
La Cabaña,,None Found,,"Av. José María Morelos #20, Naucalpan Centro, 53000 Ciudad de México, Méx., México",Bar restaurante, Abre a la 1p.m.,Naucalpan de Juárez (municipio de Huixquilucan)
Restauran Bar La Diferencia,,None Found,+52 55 4178 1406,"Av. 16 de Septiembre 1111, Naucalpan Centro, 53370 Naucalpan de Juárez, Méx., México",Bar restaurante, Abre a las 11a.m. del lun,Naucalpan de Juárez (municipio de Huixquilucan)
Sushi Sasha,,None Found,+52 55 5359 1726,"Av. Benito Juárez 15, Naucalpan Centro, 53000 Naucalpan de Juárez, Méx., México",Restaurante de sushi, Abre a las 11a.m. del lun,Naucalpan de Juárez (municipio de Huixquilucan)
Nuthri-Club del Parque,,None Found,+52 55 3378 5218,"Venustiano Carranza 3, Naucalpan Centro, 53000 Naucalpan de Juárez, Méx., México",Restaurante, Abre a las 7a.m.,Naucalpan de Juárez (municipio de Huixquilucan)
Restaurante Mi Taquito,,None Found,,"Av dr Gustavo Baz esquina, Av. 16 de Septiembre 2-2, Naucalpan Centro, 53000 Naucalpan de Juárez, Méx., México",Taquería, Abre a las 8a.m.,Naucalpan de Juárez (municipio de Huixquilucan)
Cachava,cachava.com.mx,None Found,+52 55 9154 3921,"P.º de los Tamarindos 90, Bosques de las Lomas, Cuajimalpa de Morelos, 05120 Ciudad de México, CDMX, México",Restaurante, Abre a las 8a.m.,Naucalpan de Juárez (municipio de Huixquilucan)
Cachava,cachava.com.mx,None Found,+52 55 9154 3921,"P.º de los Tamarindos 90, Bosques de las Lomas, Cuajimalpa de Morelos, 05120 Ciudad de México, CDMX, México",Restaurante, Abre a las 8a.m.,Naucalpan de Juárez (municipio de Huixquilucan)
El Pizzero,,None Found,+52 55 4733 5599,"Parque 6, S. Bartolo, 53000 Naucalpan de Juárez, Méx., México",Pizzería, Abre a las 11a.m.,Naucalpan de Juárez (municipio de Huixquilucan)
Yembé,facebook.com,None Found,+52 55 5373 4221,"Av. Dr. Gustavo Baz 35-Planta Alta, Naucalpan Centro, 53000 Naucalpan de Juárez, Méx., México",Bar, Abre a las 7p.m. del vie,Naucalpan de Juárez (municipio de Huixquilucan)
Guadiana Satélite,guadiana.com.mx,Recetas mexicanas del mar y tierra en un restaurant bar de aire cosmopolita con terraza y arte moderno.,+52 55 5562 4023,"Cto. Novelistas 6, Cd. Satélite, 53100 Naucalpan de Juárez, Méx., México",Restaurante mexicano, Abre a la 1:30p.m.,Naucalpan de Juárez (municipio de Huixquilucan)
Break & Bistro Venados,,None Found,+52 55 3101 9672,"Miguel Laurent 1114, Letran Valle, Benito Juárez, 03650 Ciudad de México, CDMX, México",Restaurante, Abre a las 9a.m.,Naucalpan de Juárez (municipio de Huixquilucan)
Comida CHINA,,None Found,,"Acambay 5, El Conde, 53500 Naucalpan de Juárez, Méx., México",Restaurante chino, Cierra a las 6p.m.,Naucalpan de Juárez (municipio de Huixquilucan)
Comida CHINA,,None Found,,"Acambay 5, El Conde, 53500 Naucalpan de Juárez, Méx., México",Restaurante chino, Cierra a las 6p.m.,Naucalpan de Juárez (municipio de Huixquilucan)
Carmela y Sal,carmelaysal.mx,Restobar cosmopolita especializado en cócteles creativos y cocina tradicional refinada.,+52 55 2077 7107,"Torre Virreyes, Pedregal 24, Lomas - Virreyes, Molino del Rey, Miguel Hidalgo, 11040 Ciudad de México, CDMX, México",Restaurante mexicano, Abre a la 1p.m.,Naucalpan de Juárez (municipio de Huixquilucan)
Chilatoños Huixquilucan,,None Found,+52 55 6787 8977,"16 de Septiembre 8, San Miguel, 52760 Huixquilucan de Degollado, Méx., México",Restaurante, Abre a las 8:30a.m. del lun,Naucalpan de Juárez (municipio de Huixquilucan)
Mariscos El Pescador,,None Found,,"Av. José María Morelos loc.622, Naucalpan Centro, 53000 Naucalpan de Juárez, Méx., México",Marisquería, Abre a las 9:30a.m.,Naucalpan de Juárez (municipio de Huixquilucan)
Mariscos El Pescador,,None Found,,"Av. José María Morelos loc.622, Naucalpan Centro, 53000 Naucalpan de Juárez, Méx., México",Marisquería, Abre a las 9:30a.m.,Naucalpan de Juárez (municipio de Huixquilucan)
Taqueria Las Matracas,,None Found,,"53000, Av. José María Morelos 14, Naucalpan Centro, Ciudad de México, Méx., México",Taquería, Abre a las 9a.m.,Naucalpan de Juárez (municipio de Huixquilucan)
Taqueria Las Matracas,,None Found,,"53000, Av. José María Morelos 14, Naucalpan Centro, Ciudad de México, Méx., México",Taquería, Abre a las 9a.m.,Naucalpan de Juárez (municipio de Huixquilucan)
Bull Ramen,bullramen.com,None Found,+52 55 3697 7122,"Valle de México 8-Local 3, El Mirador, 53050 Naucalpan de Juárez, Méx., México",Restaurante especializado en ramen, Abre a la 1p.m.,Naucalpan de Juárez (municipio de Huixquilucan)
Las Pizzas del Abuelo Naucalpan,,None Found,+52 55 5363 0957,"Av. México 7, Las Americas, 53040 Naucalpan de Juárez, Méx., México",Pizzería, Abre a las 12:30p.m.,Naucalpan de Juárez (municipio de Huixquilucan)
Sonora Prime Masaryk,casaprime.mx,"Parrilladas, recetas internacionales y vino en un sitio con diseño cosmopolita y decoraciones en madera.",+52 55 9990 5862,"A. Musset 3, Polanco, Polanco III Secc, Miguel Hidalgo, 11560 Ciudad de México, CDMX, México",Restaurante, Abre a las 12p.m.,Naucalpan de Juárez (municipio de Huixquilucan)
Back In Black Grill,instagram.com,None Found,+52 55 2276 5143,"Ozumba 13, El Conde, 53500 Naucalpan de Juárez, Méx., México",Hamburguesería, Abre a la 1p.m. del lun,Naucalpan de Juárez (municipio de Huixquilucan)
Back In Black Grill,instagram.com,None Found,+52 55 2276 5143,"Ozumba 13, El Conde, 53500 Naucalpan de Juárez, Méx., México",Hamburguesería, Abre a la 1p.m. del lun,Naucalpan de Juárez (municipio de Huixquilucan)
Nobu Arcos Bosques,nobu.mx,None Found,+52 55 9135 0062,"Cuajimalpa, P.º de los Tamarindos 90-Local 21A, Bosques de las Lomas, Cuajimalpa de Morelos, 05120 Ciudad de México, CDMX, México",Restaurante, Abre a la 1p.m.,Naucalpan de Juárez (municipio de Huixquilucan)
Pizza Maestra Naucalpan,pizzamaesra.com,None Found,+52 55 5206 9018,"Av. 16 de Septiembre 12, Naucalpan Centro, 53000 Estado de México, Méx., México",Pizzería, Abre a las 11:30a.m.,Naucalpan de Juárez (municipio de Huixquilucan)
Desayunos y comidas las comadres,,None Found,+52 55 4022 8769,"Calz. de los Remedios 9, Adolfo Lopez Mateos, 53070 Naucalpan de Juárez, Méx., México",Restaurante mexicano, Abre a las 9a.m.,Naucalpan de Juárez (municipio de Huixquilucan)
El venado Tuerto,,None Found,,"Parque 4, Naucalpan Centro, 53000 Naucalpan de Juárez, Méx., México",Restaurante mexicano,,Naucalpan de Juárez (municipio de Huixquilucan)
Takos y Kekas El Sazón De Amalia,,None Found,+52 55 6058 6893,"Av. México 42, Las Americas, 53040 Naucalpan de Juárez, Méx., México",Restaurante mexicano, Abre a las 10a.m. del mar,Naucalpan de Juárez (municipio de Huixquilucan)
Takos y Kekas El Sazón De Amalia,,None Found,+52 55 6058 6893,"Av. México 42, Las Americas, 53040 Naucalpan de Juárez, Méx., México",Restaurante mexicano, Abre a las 10a.m. del mar,Naucalpan de Juárez (municipio de Huixquilucan)
El Galán,,None Found,,"Valle de México 43, El Mirador, 53050 Naucalpan de Juárez, Méx., México",Restaurante de comida rápida, Abre a las 12p.m.,Naucalpan de Juárez (municipio de Huixquilucan)
Guadiana Satélite,guadiana.com.mx,Recetas mexicanas del mar y tierra en un restaurant bar de aire cosmopolita con terraza y arte moderno.,+52 55 5562 4023,"Cto. Novelistas 6, Cd. Satélite, 53100 Naucalpan de Juárez, Méx., México",Restaurante mexicano, Abre a la 1:30p.m.,Naucalpan de Juárez (municipio de Huixquilucan)
Break & Bistro Venados,,None Found,+52 55 3101 9672,"Miguel Laurent 1114, Letran Valle, Benito Juárez, 03650 Ciudad de México, CDMX, México",Restaurante, Abre a las 9a.m.,Naucalpan de Juárez (municipio de Huixquilucan)
Pozol33,linktr.ee,None Found,+52 55 7457 6450,"Chalco 33, El Conde, 53500 Naucalpan de Juárez, Méx., México",, Abre a las 12p.m. del jue,Naucalpan de Juárez (municipio de Huixquilucan)
Pozol33,linktr.ee,None Found,+52 55 7457 6450,"Chalco 33, El Conde, 53500 Naucalpan de Juárez, Méx., México",, Abre a las 12p.m. del jue,Naucalpan de Juárez (municipio de Huixquilucan)
Cochinita Pibil Mosa,,None Found,+52 55 1469 3904,"Avenida, Valle de México 14, El Mirador, 53050 Naucalpan de Juárez, Méx., México",Restaurante, Abre a las 8:30a.m. del lun,Naucalpan de Juárez (municipio de Huixquilucan)
Hamburgesa mi adelita y alitas torta buritos tacos Paquete s,,None Found,+52 56 2686 9886,"Hidalgo 10, Naucalpan Centro, 53000 Naucalpan de Juárez, Méx., México",Hamburguesería,,Naucalpan de Juárez (municipio de Huixquilucan)
La BTK Forum Naucalpan,labtk.com.mx,None Found,+52 55 9002 0851,"Av. Primero de Mayo 120, San Andres Atoto, 53500 Naucalpan de Juárez, Méx., México",Restaurante de alas de pollo, Abre a las 11a.m. del lun,Naucalpan de Juárez (municipio de Huixquilucan)
Sylvestre,sylvestre.mx,None Found,+52 55 9688 5549,"Vía Santa Fe, Local 1807 Av. 3800, 05109, Vasco de Quiroga 3800, Cuajimalpa de Morelos, 05109 Ciudad de México, CDMX, México",Restaurante, Abre a la 1p.m.,Naucalpan de Juárez (municipio de Huixquilucan)
Sylvestre,sylvestre.mx,None Found,+52 55 9688 5549,"Vía Santa Fe, Local 1807 Av. 3800, 05109, Vasco de Quiroga 3800, Cuajimalpa de Morelos, 05109 Ciudad de México, CDMX, México",Restaurante, Abre a la 1p.m.,Naucalpan de Juárez (municipio de Huixquilucan)
Carolo Santa Fe,carolo.com.mx,None Found,+52 55 1664 6069,"Juan Salvador Agraz 44, Lomas de Santa Fe, Contadero, Cuajimalpa de Morelos, 01219 Ciudad de México, CDMX, México",Restaurante, Abre a las 8a.m.,Naucalpan de Juárez (municipio de Huixquilucan)
Alitas Maestras Naucalpan,alitasmaestras.com,None Found,+52 55 5206 9018,"Av. 16 de Septiembre 12, Naucalpan Centro, 53000 Naucalpan de Juárez, Méx., México",Restaurante de alas de pollo, Abre a las 11:30a.m.,Naucalpan de Juárez (municipio de Huixquilucan)
Ugui Pollos,,None Found,+52 55 4802 4458,"Av. José María Morelos 14, Naucalpan Centro, 53000 Naucalpan de Juárez, Méx., México",Restaurante mexicano, Abre a las 9a.m.,Naucalpan de Juárez (municipio de Huixquilucan)
CrepiLogos,,None Found,+52 477 917 4820,"Acambay 4-1, El Conde, 53500 Naucalpan de Juárez, Méx., México",Crepería, Abre a las 3p.m.,Naucalpan de Juárez (municipio de Huixquilucan)
"Caldos de Gallina ""Don Pepe""",,None Found,,"Avenida 16 de Septiembre#5, Calz. San Bartolo Naucalpan, 53000 Naucalpan de Juárez, Méx., México",Restaurante de sopas, Abre a las 6a.m.,Naucalpan de Juárez (municipio de Huixquilucan)
Los Canarios Centro Comercial Santa Fe,loscanarios.com.mx,None Found,+52 55 2167 8041,"Vasco de Quiroga 3850-Local 1733, Lomas de Santa Fe, Contadero, Cuajimalpa de Morelos, 05348 Ciudad de México, CDMX, México",Restaurante de cocina española, Abre a las 9a.m.,Naucalpan de Juárez (municipio de Huixquilucan)
Los Canarios Centro Comercial Santa Fe,loscanarios.com.mx,None Found,+52 55 2167 8041,"Vasco de Quiroga 3850-Local 1733, Lomas de Santa Fe, Contadero, Cuajimalpa de Morelos, 05348 Ciudad de México, CDMX, México",Restaurante de cocina española, Abre a las 9a.m.,Naucalpan de Juárez (municipio de Huixquilucan)
Kuut Garden Club,,None Found,+52 55 5247 2781,"Av. Jesús del Monte 41-Loc 0116, Jesus del Monte, 52764 Jesús del Monte, Méx., México",Restaurante,,Naucalpan de Juárez (municipio de Huixquilucan)
Ostería del Becco,,"Restaurante refinado, con plantas, donde se sirven pizzas, pastas y platos crudos, además de cocteles y vinos.",+52 55 7572 0437,"Goldsmith 103, Polanco, Polanco III Secc, Miguel Hidalgo, 11540 Ciudad de México, CDMX, México",Restaurante italiano, Abre a la 1p.m.,Naucalpan de Juárez (municipio de Huixquilucan)
Bellaria Mexico,bellaria.mx,"Sitio cosmopolita con paredes de vidrio, pisos de madera y plantas naturales que ofrece alta cocina italiana.",+52 55 2591 0521,"Edificio Escape, Juan Salvador Agraz 37-Planta Baja, Santa Fe, Contadero, Cuajimalpa de Morelos, 05348 Ciudad de México, CDMX, México",Restaurante italiano, Abre a la 1:30p.m.,Naucalpan de Juárez (municipio de Huixquilucan)
Bellaria Mexico,bellaria.mx,"Sitio cosmopolita con paredes de vidrio, pisos de madera y plantas naturales que ofrece alta cocina italiana.",+52 55 2591 0521,"Edificio Escape, Juan Salvador Agraz 37-Planta Baja, Santa Fe, Contadero, Cuajimalpa de Morelos, 05348 Ciudad de México, CDMX, México",Restaurante italiano, Abre a la 1:30p.m.,Naucalpan de Juárez (municipio de Huixquilucan)
Shu Santa Fe,,Lugar luminosoy elegante con terraza y estilo moderno que ofrece platos de fusión japonesa internacional.,+52 55 5292 4834,"C. 3 #55, Santa Fe, Colonia La Fe, Álvaro Obregón, 01020 Ciudad de México, CDMX, México",Restaurante japonés, Abre a la 1p.m.,Naucalpan de Juárez (municipio de Huixquilucan)
King Fish,kingfish.mx,Mariscos con sabor internacional en un moderno restaurant con ventanales y terraza adornada con un muro verde.,+52 55 5292 7063,"Local L, Juan Salvador Agraz 97, Santa Fe, 05300 Ciudad de México, CDMX, México",Marisquería, Abre a la 1p.m.,Naucalpan de Juárez (municipio de Huixquilucan)
