Names,Website,Introduction,Phone Number,Address,Type,Opens At,Municipio
Restaurant El Rancho,,"Espacio con decoración colorida, desayuno tipo tenedor libre, platos familiares y música mariachi.",+52 867 714 8018,"Avenida Vicente Guerrero Norte 2134, Juárez, 88209 Nuevo Laredo, Tamps., México",Restaurante mexicano, 12a.m. ,Nuevo Laredo
Tomatillos,tomatillos.com.mx,"Grill destacado por sus carnes, pastas y mariscos en un local decorado con madera rústica y ladrillo expuesto.",+52 867 715 1030,"Av. Reforma 5038, Burócratas, 88280 Nuevo Laredo, Tamps., México",Restaurante italiano, 12a.m. ,Nuevo Laredo
La Terraza Asador & Bar,,None Found,+52 867 714 4092,"C/ Nuevo León 2916, Juárez, 88209 Nuevo Laredo, Tamps., México",Bar restaurante, 11:30p.m. ,Nuevo Laredo
Carnes Asadas La Fajita... el jugoso sabor familiar!,lafajita.com,None Found,+52 867 719 3075,"Av. Vicente Guerrero 2703, Guerrero, 88240 Nuevo Laredo, Tamps., México",Restaurante,,Nuevo Laredo
El Padrino,m.facebook.com,None Found,+52 867 712 1129,"C. Maclovio Herrera 2911, Juárez, 88000 Nuevo Laredo, Tamps., México",Cafetería, 12a.m. ,Nuevo Laredo
Restaurant Los Ajos,restaurantlosajos.com,None Found,+52 867 714 8886,"Av Álvaro Obregón 3401, Jardín, 88260 Nuevo Laredo, Tamps., México",Restaurante mexicano, Abre a las 8a.m. del dom,Nuevo Laredo
Morena Linda,,None Found,+52 867 714 0723,"Av. Ocampo 3454, Madero, 88270 Nuevo Laredo, Tamps., México",Restaurante, Abre a las 7a.m. del dom,Nuevo Laredo
El Papalote Taco & Grill Nuevo Laredo,elpapalote.com,None Found,+52 867 715 0031,"Av. Reforma 3102, Juárez, 88260 Nuevo Laredo, Tamps., México",Restaurante, 11:50p.m. ,Nuevo Laredo
EL Guaje Restaurant & Cantina,,None Found,+52 867 409 4920,"C. Belden 3300, Sector Centro, 88000 Nuevo Laredo, Tamps., México",Restaurante mexicano, Abre a las 8:30a.m. del dom,Nuevo Laredo
Malta Negra,,None Found,+52 867 714 1707,"P.º Colón 1446, Madero, 88270 Nuevo Laredo, Tamps., México",Restaurante, Cierra a la 1a.m.,Nuevo Laredo
Restaurante Solana Nuevo Laredo,,None Found,+52 867 137 1342,"P.º Colón 2222, Madero, 88270 Nuevo Laredo, Tamps., México",Restaurante, Cierra a las 2a.m.,Nuevo Laredo
Triskel restaurante gourmet,,None Found,+52 867 711 9333,"Av César López de Lara 3446, Anáhuac, 88260 Nuevo Laredo, Tamps., México",Restaurante, Abre a las 7a.m. del dom,Nuevo Laredo
Restaurante Mar-La,facebook.com,None Found,+52 867 719 4953,"Av. Tecnológico 100, Infonavit Fundadores, 88275 Nuevo Laredo, Tamps., México",Restaurante de desayunos, Abre a las 6:30a.m. del dom,Nuevo Laredo
Al dahabi Restaurant,,None Found,+52 867 739 2524,"Av. Vicente Guerrero 1729, Ferrocarril, 88000 Nuevo Laredo, Tamps., México",Restaurante, 12a.m. ,Nuevo Laredo
PLAZA DE HIERRO,plazadehierro.com,None Found,+52 867 217 8366,"Simon Bolívar 3102, Juárez, 88209 Nuevo Laredo, Tamps., México",Restaurante, 12a.m. ,Nuevo Laredo
Applebee's Nuevo Laredo,applebeesmx.com,Cadena de bar y parrilla de servicio completo con sustanciosos platos estadounidenses en un ambiente informal.,+52 867 719 2870,"Av. Reforma 4400, México, 88280 Nuevo Laredo, Tamps., México",Restaurante americano, 12a.m. ,Nuevo Laredo
HACER HUMO BBQ,,None Found,+52 867 196 0283,"Av. Jesús Carranza 2501, Guerrero, 88240 Nuevo Laredo, Tamps., México",Restaurante especializado en filetes, Abre a la 1p.m. del dom,Nuevo Laredo
Restaurante-Bar Diligencias,,None Found,+52 867 714 2230,"C. Campeche 2104, Madero, 88240 Nuevo Laredo, Tamps., México",Bar restaurante, Abre a las 12p.m. del dom,Nuevo Laredo
Nogal Restaurant,facebook.com,None Found,+52 867 230 6074,"Av. Vicente Guerrero 2206-Local #1, Juárez, 88209 Nuevo Laredo, Tamps., México",Restaurante familiar, 12a.m. ,Nuevo Laredo
Costa Grill,facebook.com,None Found,+52 867 714 4785,"C. Leandro Valle 3147, Madero, 88240 Nuevo Laredo, Tamps., México",Marisquería, Abre a las 11a.m. del dom,Nuevo Laredo
Koto Sushi Bar,koto.mx,None Found,+52 867 714 4446,"Av. Reforma 3934, México, 88280 Nuevo Laredo, Tamps., México",Restaurante de sushi, Abre a las 11a.m. del dom,Nuevo Laredo
Doroteo's,,None Found,,"C. Campeche 2001, Madero, 88270 Nuevo Laredo, Tamps., México",Restaurante, 12a.m. ,Nuevo Laredo
Wing Daddy's,wingdaddys.com,"Alegre restaurante y bar con pantallas que ofrece alitas, costillas y hamburguesas acompañadas de cerveza.",+52 867 715 7473,"Av. Reforma 4400, México, 88280 Nuevo Laredo, Tamps., México",Restaurante de alas de pollo, Abre a las 11a.m. del dom,Nuevo Laredo
Alcachofa Restaurant,facebook.com,None Found,+52 867 231 9501,"C. Sta. Gertrudis 2812, Madero, 88270 Nuevo Laredo, Tamps., México",Restaurante mexicano, 12a.m. ,Nuevo Laredo
Restaurante la Palma,,None Found,+52 867 719 5215,"C. Campeche No. 2311, Madero, 88270 Nuevo Laredo, Tamps., México",Restaurante mexicano, 12a.m. ,Nuevo Laredo
La Paisana,,None Found,+52 867 712 7440,"Camargo 1106, Sector Centro, 88000 Nuevo Laredo, Tamps., México",Restaurante mexicano, Abre a las 12p.m. del dom,Nuevo Laredo
La Fogata,facebook.com,None Found,+52 867 409 0742,"C. Maclovio Herrera 2103, Fraccionamiento Ojo Caliente, 88040 Nuevo Laredo, Tamps., México",Restaurante mexicano, Abre a las 8a.m. del dom,Nuevo Laredo
Las Espuelas Restaurant,,None Found,+52 867 714 0970,"Av. José María Morelos 1911, Juárez, 88209 Nuevo Laredo, Tamps., México",Restaurante de desayunos, Abre a las 7:30a.m. del dom,Nuevo Laredo
El Cafe De La Cuadra,,None Found,+52 867 712 2535,"C. Arteaga 3853, Sector Centro, 88000 Nuevo Laredo, Tamps., México",Restaurante, Abre a las 8a.m. del dom,Nuevo Laredo
Estacion 23,,None Found,+52 867 254 2472,"Avenida Emiliano Zapata, Concordia, 88298 Nuevo Laredo, Tamps., México",Restaurante, 12a.m. ,Nuevo Laredo
Giardino Fast Italian,facebook.com,None Found,+52 867 688 1364,"5 de Mayo 2503-Local 1, Campestre, 88278 Nuevo Laredo, Tamps., México",Restaurante, Abre a las 12p.m. del dom,Nuevo Laredo
La Cabaña,,None Found,+52 867 714 4416,"P.º Colón 3838, Jardín, 88260 Nuevo Laredo, Tamps., México",Restaurante,,Nuevo Laredo
Sabor A Cielo,m.facebook.com,None Found,+52 867 719 0642,"Av. Benito Juárez 1609, Morelos, 88205 Nuevo Laredo, Tamps., México",Cafetería, Abre a las 8a.m. del dom,Nuevo Laredo
Laredo's Parrillita,,"Un espacio casual que ofrece carnes asadas, especialidades de México y algunas opciones internacionales.",+52 867 710 8609,"C. Venezuela 5814, Matamoros, 88210 Nuevo Laredo, Tamps., México",Restaurante mexicano, 12a.m. ,Nuevo Laredo
Chema y Lupe,,None Found,+52 18672051688,"Av Álvaro Obregón 3636, Jardín, 88260 Nuevo Laredo, Tamps., México",Restaurante mexicano, Abre a las 8a.m. del dom,Nuevo Laredo
Taqueria Arandas,,"Puesto sencillo de una cadena tex-mex famosa, especializada en tacos de food truck.",+52 867 101 6955,"Prol Av Monterrey 5130, Los Encinos, 88290 Nuevo Laredo, Tamps., México",Taquería, Cierra a la 1a.m.,Nuevo Laredo
Patio de San Miguel. Restaurante-Café,patiodesanmiguel.com,None Found,+52 867 254 0282,"Av. Santos Degollado 2414, Guerrero, 88240 Nuevo Laredo, Tamps., México",Restaurante, Abre a las 8a.m. del dom,Nuevo Laredo
Maleno's Cantina & Grill,,None Found,+52 867 254 6412,"C. Campeche 1504, Madero, 88270 Nuevo Laredo, Tamps., México",Parrilla, Abre a la 1p.m. del dom,Nuevo Laredo
Laredo's Parrillita,,None Found,+52 867 719 4326,"C. 15 de Septiembre 135, Jardín, 88260 Nuevo Laredo, Tamps., México",Restaurante mexicano, 12a.m. ,Nuevo Laredo
Amaranto's restaurant bar,,None Found,+52 867 715 2210,"Av. Vicente Guerrero 1812, Juárez, 88209 Nuevo Laredo, Tamps., México",Restaurante, Abre a las 8a.m. del dom,Nuevo Laredo
El Marinero Restaurant-Bar,facebook.com,None Found,+52 867 714 9043,"Abraham Lincoln 2916, Juárez, 88209 Nuevo Laredo, Tamps., México",Marisquería, Abre a las 12p.m. del dom,Nuevo Laredo
Restaurante El Sazon Del Tanteo,,None Found,+52 867 136 0394,"Bugambilia 112-1, Granjas Economicas, 88295 Nuevo Laredo, Tamps., México",Marisquería, Abre a las 10a.m. del dom,Nuevo Laredo
El Milagrito Restaurante,,None Found,+52 867 714 2039,"C. Tamaulipas 2309-A, Guerrero, 88240 Nuevo Laredo, Tamps., México",Restaurante mexicano, Abre a las 7:30a.m. del dom,Nuevo Laredo
La Laguna,lalagunanld.com.mx,None Found,+52 867 714 1204,"C. Héroe de Nacataz 1717, Zaragoza, 88060 Nuevo Laredo, Tamps., México",Marisquería, Abre a las 12p.m. del dom,Nuevo Laredo
Carnitas El Cochy,,None Found,+52 867 158 0508,"C. Monterrey 3402, Mirador, 88290 Nuevo Laredo, Tamps., México",Restaurante, Abre a las 8a.m. del dom,Nuevo Laredo
Pescados Y Mariscos Beto's,,None Found,+52 867 714 5367,"C. América 2202, San Rafael, 88200 Nuevo Laredo, Tamps., México",Marisquería, Abre a las 10a.m. del dom,Nuevo Laredo
Romero Restaurante,diremex.mx,None Found,+52 867 137 5167,"Esquina con, Allende, P.º Colón 3428, 88000 Nuevo Laredo, Tamps., México",Restaurante, Cierra a la 1a.m.,Nuevo Laredo
El Nuevo Sol,,None Found,+52 867 715 5275,"C. Perú 2502, Guerrero, 88240 Nuevo Laredo, Tamps., México",Restaurante vegetariano, Abre a las 7a.m. del dom,Nuevo Laredo
Chinita De Mis Amores Restaurante,facebook.com,None Found,+52 867 113 0423,"C. González 4505, Hidalgo, 88160 Nuevo Laredo, Tamps., México",Restaurante mexicano, Abre a las 9a.m. del dom,Nuevo Laredo
Rio cocina Restaurante de Mariscos nuevo laredo,bit.ly,None Found,+52 867 137 5345,"C. Lago de Chapala 6157, Villas de La Concordia, 88298 Nuevo Laredo, Tamps., México",Restaurante, Abre a las 12p.m. del dom,Nuevo Laredo
La cabaña de el pescador,,None Found,+52 867 244 8277,"C. Canales 6839, Buena Vista, 88120 Nuevo Laredo, Tamps., México",Marisquería, Abre a la 1p.m. del dom,Nuevo Laredo
Laredo´s Parrillita,,None Found,+52 867 712 3235,"Av. Vicente Guerrero 305, Centro, 88000 Nuevo Laredo, Tamps., México",Restaurante, Abre a las 7a.m. del dom,Nuevo Laredo
Santa Elena Restaurant bar,facebook.com,None Found,+52 867 196 0390,"Mariano Matamoros 520, Sector Centro, 88000 Nuevo Laredo, Tamps., México",Restaurante mexicano, 12a.m. ,Nuevo Laredo
Dorita Mia,facebook.com,None Found,+52 867 718 6138,"Blvd. Municipio Libre 4706, Los Encinos, 88290 Nuevo Laredo, Tamps., México",Restaurante italiano, 12a.m. ,Nuevo Laredo
Mariscos My Nacho,,None Found,+52 867 719 4751,"Av Álvaro Obregón 2644, Morelos, 88209 Nuevo Laredo, Tamps., México",Marisquería, Abre a las 12p.m. del dom,Nuevo Laredo
The Broken Tart,,None Found,+52 867 137 2110,"Av. Vicente Guerrero 2013, Guerrero, 88209 Nuevo Laredo, Tamps., México",Restaurante, Abre a las 9a.m. del dom,Nuevo Laredo
El Nuevo Sol,,None Found,+52 867 712 3920,"Av Álvaro Obregón 1416, Sector Centro, 88000 Nuevo Laredo, Tamps., México",Restaurante vegetariano, Abre a las 7a.m. del dom,Nuevo Laredo
Mar- la,,None Found,+52 867 724 0185,"Gral. Fco. Munguía 2495, Hipódromo, 88170 Nuevo Laredo, Tamps., México",Restaurante, Abre a las 7a.m. del dom,Nuevo Laredo
Los Molcajetes.,losmolcajetes.ola.click,None Found,,"Av Sta Patricia 316, Villas de San Miguel, 88283 Nuevo Laredo, Tamps., México",Restaurante, 11:30p.m. ,Nuevo Laredo
Las Salsitas,m.facebook.com,None Found,+52 867 715 1915,"Av. Reforma 3934, México, 88280 Nuevo Laredo, Tamps., México",Restaurante, Abre a la 1p.m. del dom,Nuevo Laredo
Taquería Salomon,facebook.com,None Found,+52 867 717 3192,"C. P.º Loma Real 45B, Infonavit Benito Juárez, 88274 Nuevo Laredo, Tamps., México",Taquería, Cierra a la 1a.m.,Nuevo Laredo
Taqueria Arandas,,"Puesto sencillo de una cadena tex-mex famosa, especializada en tacos de food truck.",+52 867 710 1030,"Calle Dr. Mier 7327, Buena Vista, 88120 Nuevo Laredo, Tamps., México",Taquería, Cierra a la 1a.m.,Nuevo Laredo
San Pascual,facebook.com,None Found,+52 867 162 2915,"Av César López de Lara 2611, Morelos, 88200 Nuevo Laredo, Tamps., México",Restaurante, Abre a las 8a.m. del dom,Nuevo Laredo
Taquería la Siberia de Nuevo Laredo,,None Found,,"C. Canales 2807, Sector Centro, 88000 Nuevo Laredo, Tamps., México",Taquería, Abre a las 9:30a.m. del dom,Nuevo Laredo
Revolution Wings,facebook.com,None Found,+52 867 710 1676,"C. Eva Samano 425, Buena Vista, 88120 Nuevo Laredo, Tamps., México",Restaurante de alas de pollo, Abre a las 10a.m. del dom,Nuevo Laredo
Patio de Memo,facebook.com,None Found,+52 867 129 9570,"Blvrd Constituyentes 4003, ISSSTE, 88274 Nuevo Laredo, Tamps., México",Marisquería, Abre a la 1p.m. del dom,Nuevo Laredo
La Vaca Frita (Suc. Obregón),,None Found,+52 867 714 5105,"esq. Venezuela, Av Álvaro Obregón 2652, Juárez, 88209 Nuevo Laredo, Tamps., México",Taquería, 12a.m. ,Nuevo Laredo
La Cabaña,,None Found,+52 867 254 3850,"Gral Reynaldo Garza 2061, Hipódromo, 88170 Nuevo Laredo, Tamps., México",Hamburguesería, 11:30p.m. ,Nuevo Laredo
Lonches y Burritos El Chamito,,None Found,,"Calle Dr. Mier 8909, La Sandía, 88179 Nuevo Laredo, Tamps., México",Restaurante de comida rápida, Cierra a la 1a.m.,Nuevo Laredo
TACOS DE LA MADERO,,None Found,+52 867 163 0316,"88000, Francisco I. Madero 1850, Sector Centro, 88240 Nuevo Laredo, Tamps., México",Taquería, 12a.m. ,Nuevo Laredo
Merendero La Fe,,None Found,+52 867 192 6737,"88350 Nuevo Laredo, Tamps., México",Marisquería, Abre a las 11a.m. del lun,Nuevo Laredo
Wingstop Nuevo Laredo,wingstop.com.mx,Cadena informal de servicio en caja que ofrece una variedad de alitas de pollo y acompañamientos.,+52 867 714 1598,"P.º Colón 2202, Madero, 88270 Nuevo Laredo, Tamps., México",Restaurante de alas de pollo, 12a.m. ,Nuevo Laredo
Taqueria Los Piratas #1,facebook.com,None Found,+52 867 265 0001,"Maclovio Herrera 8021, 20 de Noviembre, 88134 Nuevo Laredo, Tamps., México",Taquería, 12a.m. ,Nuevo Laredo
"Restaurante ""El Canutillo""",,None Found,,"C. Magnolia, Granjas Economicas, 88295 Nuevo Laredo, Tamps., México",Restaurante,,Nuevo Laredo
Restaurant De Mariscos El Titanic,,None Found,+52 867 715 5324,"Calle Venustiano Carranza, Reynosa &, Guerrero, 88240 Nuevo Laredo, Tamps., México",Marisquería, Abre a las 11a.m. del dom,Nuevo Laredo
Antojitos Y Refresqueria El Paraiso,,None Found,+52 867 193 8570,"Av. José María Morelos 3002, Jardín, 88260 Nuevo Laredo, Tamps., México",Restaurante, Abre a las 10a.m. del dom,Nuevo Laredo
Di Casso Restaurante Italiano,facebook.com,None Found,+52 867 719 5238,"C. Campeche 2050, Madero, 88240 Nuevo Laredo, Tamps., México",Restaurante, Abre a las 12p.m. del dom,Nuevo Laredo
Tacos el Venado,,None Found,+52 867 252 2648,"C. González #5917, Hidalgo, 88160 Nuevo Laredo, Tamps., México",Taquería, 12a.m. ,Nuevo Laredo
Mariscos Ahuehuetes,,None Found,,"Carr. a Anáhuac 9313, 88126 Nuevo Laredo, Tamps., México",Marisquería, Abre a las 9a.m. del dom,Nuevo Laredo
Doña Rica,,None Found,+52 867 724 0713,"Venustiano Carranza 6201-6223, Hipódromo, 88170 Nuevo Laredo, Tamps., México",Restaurante, Abre a las 6a.m. del dom,Nuevo Laredo
Los 7 Mares,,None Found,+52 867 745 8948,"C. Guanajuato 5115, Unión, 88194 Nuevo Laredo, Tamps., México",Marisquería, Abre a las 10a.m. del dom,Nuevo Laredo
Laredo's Parrillita IV,laparrillita.com.mx,None Found,+52 867 715 1055,"Av César López de Lara 2303, Juárez, 88209 Nuevo Laredo, Tamps., México",Restaurante mexicano, Abre a las 8a.m. del dom,Nuevo Laredo
Restaurant Rico Max Pollo,,None Found,+52 867 710 8115,"C. Perú 5906, Palacios, 88220 Nuevo Laredo, Tamps., México",Restaurante especializado en pollo, Abre a las 11a.m. del dom,Nuevo Laredo
El Rey del Comal RESTAURANTE,,None Found,+52 867 729 2443,"Artículo 16 709, Constitucional, 88177 Nuevo Laredo, Tamps., México",Restaurante, Abre a las 8a.m. del dom,Nuevo Laredo
TAQUERIA ''LOS PIRATAS 2'',facebook.com,None Found,+52 867 139 0131,"Gutierrez 8227, Buena Vista, 88120 Nuevo Laredo, Tamps., México",Restaurante, Cierra a la 1a.m.,Nuevo Laredo
Mariscos Toma Todo,,None Found,+52 867 749 0188,"Calle Plutarco Elías Calles, C. Washington &, Palacios, 88220 Nuevo Laredo, Tamps., México",Marisquería, Abre a las 11a.m. del dom,Nuevo Laredo
"Hamburguesas ""Las Cabañas""",,None Found,+52 867 726 6095,"C. P.º Tula 723, La Fe, 88187 Nuevo Laredo, Tamps., México",Hamburguesería, Cierra a la 1a.m.,Nuevo Laredo
Taquitos RAVI Restaurant,,None Found,+52 867 149 8019,"Av. Vicente Guerrero 2052, Juárez, 88209 Nuevo Laredo, Tamps., México",Taquería, 12a.m. ,Nuevo Laredo
Charros Bar and Grill,,None Found,+52 7135075,"Juárez, 88209 Nuevo Laredo, Tamps., México",Bar restaurante, Abre a las 12:30p.m. del dom,Nuevo Laredo
LIRA'S Barbacoa & Menudo Cocina Mexicana,,None Found,+52 867 712 6882,"Calle Dr. Mier 5505, Hidalgo, 88160 Nuevo Laredo, Tamps., México",Restaurante mexicano, Abre a las 7a.m. del dom,Nuevo Laredo
Como En Casa,,None Found,+52 867 254 1467,"Anona 5501-local C, Los Encinos, 88290 Nuevo Laredo, Tamps., México",Restaurante, Abre a las 8a.m. del dom,Nuevo Laredo
"La Bodega, Gorditas y Mas",,None Found,+52 867 231 7226,"Av Álvaro Obregón 1428, Centro, 88000 Nuevo Laredo, Tamps., México",Restaurante, Abre a las 9a.m. del lun,Nuevo Laredo
Marins Restaurant Bar,facebook.com,None Found,+52 867 409 0714,"C. Campeche 2505, Madero, 88270 Nuevo Laredo, Tamps., México",Restaurante mexicano, 12a.m. ,Nuevo Laredo
"Restaurante ""El Quinto Patio""",,None Found,+52 867 712 1306,"Av. Ocampo 610, Sector Centro, 88000 Nuevo Laredo, Tamps., México",Restaurante, Abre a las 9a.m. del dom,Nuevo Laredo
Taqueria Los Corrales,facebook.com,None Found,+52 867 749 2045,"Gral Reynaldo Garza 813, Hidalgo, 88160 Nuevo Laredo, Tamps., México",Taquería, 12a.m. ,Nuevo Laredo
Restaurant bar 24 top floor,,None Found,+52 867 241 7861,"Av. Santos Degollado 2408, Guerrero, 88240 Nuevo Laredo, Tamps., México",Restaurante, 12a.m. ,Nuevo Laredo
Quesadillas Oaxaca,,None Found,+52 867 713 1258,"C. Independencia 5803, Hidalgo, 88160 Nuevo Laredo, Tamps., México",Restaurante mexicano, 12a.m. ,Nuevo Laredo
Mariscos El Delfín,,None Found,+52 867 254 0106,"Esquina Con, Carretera aeropuerto, Iglesias Calderón 915, Francisco Villa, 88284 Nuevo Laredo, Tamps., México",Marisquería, Abre a las 10:30a.m. del lun,Nuevo Laredo
Tostadería La Fe,tostaderialafe.mx,None Found,+52 867 713 0061,"Francisco I. Madero 6105-A, Pena Benavides, 88140 Nuevo Laredo, Tamps., México",Restaurante mexicano, Abre a las 9a.m. del lun,Nuevo Laredo
ROUX Cocinamos por ti,,None Found,+52 867 409 4576,"C. Campeche 3410, Jardín, 88260 Nuevo Laredo, Tamps., México",Restaurante familiar, Abre a las 8a.m. del lun,Nuevo Laredo
El Sabor de Ozuluama,,None Found,+52 867 243 3604,"Av. Santos Degollado 3401, Madero, 88270 Nuevo Laredo, Tamps., México",Restaurante mexicano, Abre a las 8a.m. del dom,Nuevo Laredo
Mariscos el oasis,,None Found,+52 867 265 6955,"C. Jesús Guajardo 2000, Colonia Américo Villarreal Guerra, 88135 Nuevo Laredo, Tamps., México",Marisquería, Cierra a las 2a.m.,Nuevo Laredo
Deli cosas,,None Found,+52 867 726 3130,"Iglesias Calderón 143, Francisco Villa, 88284 Nuevo Laredo, Tamps., México",Pizzería,,Nuevo Laredo
"Carnitas Michoacanas ""El Patron""",,None Found,+52 867 198 2998,"6939, Buena Vista, 88130 Nuevo Laredo, Tamps., México",Restaurante de comida rápida, Abre a las 8a.m. del dom,Nuevo Laredo
Tacos y Tortas Los Tres Reyes,,None Found,+52 867 710 5428,"Av. Josefa Ortiz De Domínguez 3354, La Esperanza, 88190 Nuevo Laredo, Tamps., México",Restaurante, 12a.m. ,Nuevo Laredo
Sushi Rox Laredo,facebook.com,Local casual y minimalista que ofrece cocina japonesa con especialidad en rollos de sushi y teppanyaki.,+52 867 719 1910,"C. Coahuila 2925-L2, Juárez, 88209 Nuevo Laredo, Tamps., México",Restaurante de sushi, Abre a las 12:30p.m. del dom,Nuevo Laredo
Sushi Rox Laredo,facebook.com,Local casual y minimalista que ofrece cocina japonesa con especialidad en rollos de sushi y teppanyaki.,+52 867 719 1910,"C. Coahuila 2925-L2, Juárez, 88209 Nuevo Laredo, Tamps., México",Restaurante de sushi, Abre a las 12:30p.m. del dom,Nuevo Laredo
Mariscos La Piraña,facebook.com,None Found,+52 867 102 9481,"Carretera, Nuevo Laredo - Monterrey KM 10.5, Hacienda L. Longoria, 88000 Nuevo Laredo, Tamps., México",Marisquería, Abre a las 10:30a.m. del dom,Nuevo Laredo
BULL WINGS NUEVO LAREDO,facebook.com,None Found,+52 867 555 5675,"Calle Francisco Javier Mina 7354, Buena Vista, 88120 Nuevo Laredo, Tamps., México",Restaurante americano, Abre a las 2p.m. del dom,Nuevo Laredo
Doña Rica restaurant,,None Found,+52 867 724 0713,"Av. Santos Degollado 1705, Ferrocarril, 88040 Nuevo Laredo, Tamps., México",Restaurante, 12a.m. ,Nuevo Laredo
Mexicocina,,None Found,+52 867 267 0897,"Las Torres, 88184 Nuevo Laredo, Tamps., México",Restaurante, Abre a las 7:30a.m. del lun,Nuevo Laredo
Mexicocina,,None Found,+52 867 267 0897,"Las Torres, 88184 Nuevo Laredo, Tamps., México",Restaurante, Abre a las 7:30a.m. del lun,Nuevo Laredo
SANTIAGO'S PIZZERIA,,None Found,+52 867 712 5411,"C. González 5610, Hidalgo, 88160 Nuevo Laredo, Tamps., México",Pizzería,,Nuevo Laredo
Tacos Cruz Azul,,None Found,+52 867 183 5697,"Hipódromo, 88170 Nuevo Laredo, Tamps., México",Taquería, Abre a las 5p.m. del dom,Nuevo Laredo
Santo Sushi,,None Found,+52 867 297 6727,"Calle Rio de Janeiro 101, Buena Vista, 88120 Nuevo Laredo, Tamps., México",Restaurante de sushi, Abre a la 1p.m. del dom,Nuevo Laredo
Church's Chicken,churchs.com.mx,"Cadena de comida rápida que ofrece pollo frito, sándwiches, alitas y acompañamientos estilo sureño.",+52 867 715 7978,"C. González 5430, Hidalgo, 88160 Nuevo Laredo, Tamps., México",Restaurante de comida rápida, Abre a las 10a.m. del dom,Nuevo Laredo
Los Chepos,,None Found,,"C. Eva Samano 420, Solidaridad 1, 88143 Nuevo Laredo, Tamps., México",Restaurante, Cierra a las 3a.m.,Nuevo Laredo
Tasty Wings,,None Found,+52 867 740 9952,"Gutierrez 5951, Hidalgo, 88160 Nuevo Laredo, Tamps., México",Restaurante de alas de pollo, Abre a las 2p.m. del dom,Nuevo Laredo
Tacos El Guero,,None Found,+52 867 193 7563,"Av. Ocampo 4346, Campestre, 88278 Nuevo Laredo, Tamps., México",Taquería, Abre a las 8a.m. del dom,Nuevo Laredo
Ranger Chicken Monterrey,,None Found,+52 867 739 2579,"Tam, Av. Monterrey y Blvd. Municipio Libre, Los Encinos, 88290 Nuevo Laredo, Tamps., México",Restaurante especializado en pollo, Abre a las 12p.m. del dom,Nuevo Laredo
