Names,Website,Introduction,Phone Number,Address,Type,Opens At,Municipio
Restaurante Catedral,restaurantecatedral.com.mx,"Restaurante r√∫stico con un patio interior, m√∫sica de piano en vivo y platos mexicanos cl√°sicos y oaxaque√±os.",+52 951 516 3285,"C. de Manuel Garc√≠a Vigil 105, RUTA INDEPENDENCIA, Centro, 68000 Oaxaca de Ju√°rez, Oax., M√©xico",Restaurante mexicano, Abre a las 8a.m.,Oaxaca de Ju√°rez
Las Quince Letras Restaurante,lasquinceletras.mx,"Restaurante con terraza donde se sirven desayunos mexicanos, platos oaxaque√±os y cocteles con mezcal.",+52 951 514 3769,"C. de Mariano Abasolo 300, RUTA INDEPENDENCIA, Centro, 68000 Oaxaca de Ju√°rez, Oax., M√©xico",, Abre a las 8a.m.,Oaxaca de Ju√°rez
Los Danzantes Oaxaca,losdanzantesoaxaca.com.mx,"Restaurante cubierto con jard√≠n al aire libre donde se ofrecen mezcales caseros, cocteles y platos de Oaxaca.",+52 951 501 1184,"C. Macedonio Alcal√° 403-interior 4, RUTA INDEPENDENCIA, Centro, 68000 Oaxaca de Ju√°rez, Oax., M√©xico",Restaurante de alta cocina, Abre a la 1p.m.,Oaxaca de Ju√°rez
Casa Oaxaca el Restaurante,casaoaxacaelrestaurante.com,Platos oaxaque√±os modernos hechos con vegetales org√°nicos y carnes de libre pastoreo que se sirven en un patio lujoso.,+52 951 516 8889,"Constituci√≥n 104-A, RUTA INDEPENDENCIA, Centro, 68000 Oaxaca de Ju√°rez, Oax., M√©xico",Restaurante mexicano, Abre a la 1p.m.,Oaxaca de Ju√°rez
Restaurante Pitiona. Cocina de autor,pitiona.com,Elegante gastrobar mexicano-europeo con brunch y cocteles en la azotea y vista a los campanarios.,+52 951 514 0690,"Ignacio Allende 114, RUTA INDEPENDENCIA, Centro, 68000 Oaxaca de Ju√°rez, Oax., M√©xico",Restaurante, Abre a la 1p.m.,Oaxaca de Ju√°rez
La Azotea,azotea360.com.mx,None Found,+52 951 514 2453,"C. Macedonio Alcal√° 401-c, RUTA INDEPENDENCIA, Centro, 68000 Oaxaca de Ju√°rez, Oax., M√©xico",Parrilla, Abre a las 8a.m.,Oaxaca de Ju√°rez
Origen,origenoaxaca.com,Espacio discreto con cielorraso de madera y gastronom√≠a internacional creativa enfocada en productos regionales.,+52 951 471 3432,"Av Benito Ju√°rez 308, RUTA INDEPENDENCIA, Centro, 68000 Oaxaca de Ju√°rez, Oax., M√©xico",Restaurante mexicano, Abre a las 2p.m. del lun,Oaxaca de Ju√°rez
Expendio Tradici√≥n,expendiotradicion.com.mx,"Local moderno de platos mexicanos tradicionales y novedosos, y cocteles de mezcal creativos.",+52 951 501 1460,"Reforma, Murgu√≠a &, Centro, 68000 Oaxaca de Ju√°rez, Oax., M√©xico",Restaurante, 1a.m. ,Oaxaca de Ju√°rez
Tierra del Sol Cultura Gastron√≥mica,tierradelsol.mx,None Found,+52 951 235 6835,"Reforma 411, RUTA INDEPENDENCIA, Centro, 68000 Oaxaca de Ju√°rez, Oax., M√©xico",Restaurante, Abre a las 8a.m.,Oaxaca de Ju√°rez
Criollo,criollo.mx,"Restaurante informal con platos locales, ingredientes del √°rea y asientos al aire libre.",+52 951 320 0709,"Francisco I. Madero 129, Santa Mar√≠a del Marquesado, Centro, 68000 Oaxaca de Ju√°rez, Oax., M√©xico",Restaurante mexicano,,Oaxaca de Ju√°rez
Casa Oaxaca Reforma,casaoaxacareforma.com,"Terraza r√∫stica cubierta donde se sirven cerdo al horno, pulpo asado y salsa verde, adem√°s de desayuno y cocteles.",+52 951 502 6017,"C. Jazmines 518, Reforma, 68050 Oaxaca de Ju√°rez, Oax., M√©xico",Restaurante mexicano, Abre a las 10a.m.,Oaxaca de Ju√°rez
Tlayudas El Negro,facebook.com,Comidas de estilo casero en restaurante sencillo con m√∫sica en vivo y entretenimiento.,+52 951 227 1700,"Vicente Guerrero 1029, Obrera, 68080 Oaxaca de Ju√°rez, Oax., M√©xico",, Abre a las 12p.m.,Oaxaca de Ju√°rez
Gozobi Restaurante Bar,facebook.com,Restaurante en terraza en la azotea con vista a la ciudad y las monta√±as; se sirve comida mexicana y mezcal.,+52 951 516 2938,"C. de Manuel Garc√≠a Vigil 504, RUTA INDEPENDENCIA, Centro, 68000 Oaxaca de Ju√°rez, Oax., M√©xico",Restaurante mexicano, Abre a las 8a.m.,Oaxaca de Ju√°rez
Gozobi Restaurante Bar,facebook.com,Restaurante en terraza en la azotea con vista a la ciudad y las monta√±as; se sirve comida mexicana y mezcal.,+52 951 516 2938,"C. de Manuel Garc√≠a Vigil 504, RUTA INDEPENDENCIA, Centro, 68000 Oaxaca de Ju√°rez, Oax., M√©xico",Restaurante mexicano, Abre a las 8a.m.,Oaxaca de Ju√°rez
Tr3s 3istro Restaurant & Oyster Bar,tr3s3istro.com,None Found,+52 951 501 0407,"Portal Las Flores 3, OAX_RE_BENITO JUAREZ, Centro, 68000 Centro, Oax., M√©xico",Restaurante mexicano, Abre a las 9a.m.,Oaxaca de Ju√°rez
Cafe Bistrot Epicuro - Restaurante italiano y pizzeria-,epicuro.info,"Sal√≥n luminoso y terraza en la azotea; se sirven pizzas hechas en horno de le√±a, pasta y carne asada.",+52 951 514 9750,"Vicente Guerrero 319, Oaxaca, Centro, 68000 Oaxaca de Ju√°rez, Oax., M√©xico",Restaurante italiano,,Oaxaca de Ju√°rez
El Escapulario,facebook.com,"Cafeter√≠a mexicana peque√±a y sencilla con platos tradicionales y vegetarianos, horario extendido y comida para llevar.",,"C. de Manuel Garc√≠a Vigil 617, RUTA INDEPENDENCIA, Centro, 68000 Oaxaca de Ju√°rez, Oax., M√©xico",Restaurante, Abre a las 12p.m.,Oaxaca de Ju√°rez
Mexita,facebook.com,None Found,+52 951 520 2180,"Federico Ortiz Armegol 105, Reforma, 68050 Oaxaca de Ju√°rez, Oax., M√©xico",Restaurante italiano, Abre a las 2p.m.,Oaxaca de Ju√°rez
Zandunga Sabor Istme√±o,zandungasabor.com,Establecimiento moderno que sirve cl√°sicos locales hechos con ingredientes de la zona y cocteles de mezcal.,+52 951 516 2265,"C. de Manuel Garc√≠a Vigil 512-E, RUTA INDEPENDENCIA, Centro, 68000 Oaxaca de Ju√°rez, Oax., M√©xico",Restaurante mexicano, Abre a las 12p.m.,Oaxaca de Ju√°rez
La Olla,laolla.com.mx,"Cantina art√≠stica con terraza en la azotea, enchiladas, cocteles de mezcal y desayunos de fin de semana.",+52 951 516 6668,"Reforma 402, RUTA INDEPENDENCIA, Centro, 68000 Oaxaca de Ju√°rez, Oax., M√©xico",Restaurante mexicano, Abre a las 12p.m.,Oaxaca de Ju√°rez
La Casa del T√≠o G√ºero,,None Found,+52 951 516 9584,"C. de Manuel Garc√≠a Vigil 715, RUTA INDEPENDENCIA, Centro, 68000 Oaxaca de Ju√°rez, Oax., M√©xico",Restaurante mexicano, Abre a las 7:30a.m. del lun,Oaxaca de Ju√°rez
El Biche Pobre,linktr.ee,Pintoresco comedor familiar con estilo folcl√≥rico en el que se ofrecen botanas y especialidades oaxaque√±as.,+52 951 513 4636,"Calz. de la Rep√∫blica 600, Barrio de Jalatlaco, 68000 Oaxaca de Ju√°rez, Oax., M√©xico",Restaurante mexicano, Abre a las 8a.m.,Oaxaca de Ju√°rez
Los Chavales de la Barriada.,loschavales.com.mx,"Elegante comedor r√∫stico con inspiraci√≥n argentina que sirve filetes, pizza y platos de desayuno con huevo.",+52 951 513 0688,"Netzahualc√≥yotl No.300, Reforma, 68050 Oaxaca de Ju√°rez, Oax., M√©xico",Restaurante argentino, Abre a las 8a.m.,Oaxaca de Ju√°rez
Ancestral Cocina Tradicional,ancestralcocinatradicional.com,"Restaurante informal con mesas al aire libre de platos de carne y pescado novedosos, postres y mezcal.",+52 951 468 8960,"C. Jos√© L√≥pez Alavez 1347, Barrio de Xochimilco, 68040 Oaxaca de Ju√°rez, Oax., M√©xico",Restaurante mexicano, Abre a las 8:30a.m.,Oaxaca de Ju√°rez
Grano de Mostaza,facebook.com,"Cafeter√≠a alegre en la que se sirven dulces junto con hamburguesas, pizza y comida liviana para desayunar y almorzar.",+52 951 144 7460,"Huerto Limonares 209, Universidad, Trinidad de las Huertas, 68120 Oaxaca de Ju√°rez, Oax., M√©xico",Restaurante de fusi√≥n, Abre a las 8a.m. del lun,Oaxaca de Ju√°rez
Restaurante Casa Palmeras,,"Destino relajado con terraza cubierta, platos sustanciosos y desayuno.",+52 951 513 7823,"68050, Emiliano Zapata 105, Reforma, Oaxaca de Ju√°rez, Oax., M√©xico",Restaurante mexicano, Abre a las 8a.m.,Oaxaca de Ju√°rez
Levadura de Olla Restaurante,levaduradeolla.mx,None Found,,"C. de Manuel Garc√≠a Vigil 304, RUTA INDEPENDENCIA, Centro, 68000 Oaxaca de Ju√°rez, Oax., M√©xico",Restaurante mexicano, Abre a la 1p.m. del mar,Oaxaca de Ju√°rez
Restaurante Colibr√≠,,None Found,+52 951 513 3760,"Calz. Heroes de Chapultepec 903, Reforma, 68050 Oaxaca de Ju√°rez, Oax., M√©xico",Restaurante mexicano, Abre a las 8a.m.,Oaxaca de Ju√°rez
Ocote cocina,m.facebook.com,Restaurante alegre y discreto de platos tradicionales con un giro creativo.,+52 951 292 9554,"5 de Mayo 107, RUTA INDEPENDENCIA, Centro, 68000 Oaxaca de Ju√°rez, Oax., M√©xico",Restaurante, Abre a las 5:30p.m.,Oaxaca de Ju√°rez
Ocote cocina,m.facebook.com,Restaurante alegre y discreto de platos tradicionales con un giro creativo.,+52 951 292 9554,"5 de Mayo 107, RUTA INDEPENDENCIA, Centro, 68000 Oaxaca de Ju√°rez, Oax., M√©xico",Restaurante, Abre a las 5:30p.m.,Oaxaca de Ju√°rez
El Asador Vasco,asadorvasco.com,"Hist√≥rica casa colonial con cocina oaxaque√±a, vasca e internacional ofrecida en un refinado sal√≥n y terraza.",+52 19515144755,"Portal Las Flores 10-A, OAX_RE_BENITO JUAREZ, Centro, 68000 Oaxaca de Ju√°rez, Oax., M√©xico",Restaurante de cocina europea, Abre a la 1:30p.m.,Oaxaca de Ju√°rez
Boulenc,boulenc.mx,"Caf√©-panader√≠a luminoso con mesas en un patio cubierto. Tiene panes artesanales, boller√≠a y platos de brunch.",+52 951 351 3648,"C. Porfirio D√≠az 207, RUTA INDEPENDENCIA, Centro, 68000 Oaxaca de Ju√°rez, Oax., M√©xico",Restaurante, Abre a las 8:30a.m.,Oaxaca de Ju√°rez
El Mirador,,None Found,+52 951 516 5150,"Carretera Federal 190, Cerro del Fort√≠n Km. 3, Faldas del Fortin, 68030 Oaxaca de Ju√°rez, Oax., M√©xico",Restaurante mexicano, Abre a las 9a.m.,Oaxaca de Ju√°rez
Dassani Restaurante,,None Found,+52 951 239 4975,"Miguel Hidalgo 1413, Centro, 68000 Oaxaca de Ju√°rez, Oax., M√©xico",Restaurante italiano, Abre a las 2p.m.,Oaxaca de Ju√°rez
El Quinque,m.facebook.com,None Found,+52 951 502 6702,"Miguel Hidalgo 218-A, Zona Lunes Feb 09, Centro, 68000 Oaxaca de Ju√°rez, Oax., M√©xico",Restaurante mexicano, Abre a la 1p.m. del lun,Oaxaca de Ju√°rez
Terranova,,"Restaurante amplio y animado con mesas al aire libre, donde se sirven comida cl√°sica mexicana y desayuno tipo buffet.",+52 951 516 4747,"Portal, Av Benito Ju√°rez 116, OAX_RE_BENITO JUAREZ, Centro Hist√≥rico, 68000 Oaxaca de Ju√°rez, Oax., M√©xico",Restaurante mexicano, Abre a las 8a.m.,Oaxaca de Ju√°rez
Che Gaucho,chegaucho.com.mx,Cortes a la parrilla son la especialidad en este restaurant bar con est√©tica neorr√∫stica y soleada terraza.,+52 951 157 0709,"Esquina con, Calle las Rosas, C. Alamos 700, Reforma, 68050 Oaxaca de Ju√°rez, Oax., M√©xico",Restaurante argentino, Abre a las 8:30a.m.,Oaxaca de Ju√°rez
Asador Bacanora Oaxaca,asadorbacanoraoaxaca.com,None Found,+52 951 217 3796,"5 de Mayo 614, Barrio de Jalatlaco, 68080 Oaxaca de Ju√°rez, Oax., M√©xico",Restaurante mexicano,,Oaxaca de Ju√°rez
Los Pacos,lospacosoaxaca.com,None Found,+52 951 789 8108,"Av Belisario Dom√≠nguez 108, Reforma, 68050 Oaxaca de Ju√°rez, Oax., M√©xico",Restaurante mexicano, Abre a las 9a.m.,Oaxaca de Ju√°rez
La Toscana,restaurante.covermanager.com,None Found,+52 951 283 8865,"5 de Mayo 206, entre curtidur√≠as y ni√±os heroes, Centro, 68080 Oaxaca de Ju√°rez, Oax., M√©xico",Restaurante, Abre a las 8a.m.,Oaxaca de Ju√°rez
La Rueca Restaurante,canva.com,None Found,+52 951 651 3916,"5 de Mayo #413, RUTA INDEPENDENCIA, Centro, 68000 Oaxaca de Ju√°rez, Oax., M√©xico",Restaurante franc√©s, 1a.m. ,Oaxaca de Ju√°rez
La Rueca Restaurante,canva.com,None Found,+52 951 651 3916,"5 de Mayo #413, RUTA INDEPENDENCIA, Centro, 68000 Oaxaca de Ju√°rez, Oax., M√©xico",Restaurante franc√©s, 1a.m. ,Oaxaca de Ju√°rez
"LA TRIBU-Natural Bistro, Oaxaca.",,None Found,+52 951 108 2724,"R√≠o Bravo 1516, La Cascada, 68040 Oaxaca de Ju√°rez, Oax., M√©xico",Restaurante, Abre a las 8a.m.,Oaxaca de Ju√°rez
Terraza Istmo,facebook.com,None Found,+52 951 511 9890,"Av. Jos√© Mar√≠a Morelos 400, RUTA INDEPENDENCIA, Centro, 68000 Oaxaca de Ju√°rez, Oax., M√©xico",Restaurante mexicano,,Oaxaca de Ju√°rez
El Olivo Gastrobar,voraz.xyz,None Found,+52 951 156 8513,"C/ de la Constituci√≥n 207, RUTA INDEPENDENCIA, Centro, 68000 Oaxaca de Ju√°rez, Oax., M√©xico",Restaurante de cocina espa√±ola, Abre a la 1p.m.,Oaxaca de Ju√°rez
Marco Polo Seafood Restaurant,,"Local con patio arbolado, que sirve desayuno y platos de camar√≥n y pescado hechos en horno de ladrillos.",+52 951 513 4308,"Calle de Jos√© Mar√≠a Pino Su√°rez 806, RUTA INDEPENDENCIA, Centro, 68000 Oaxaca de Ju√°rez, Oax., M√©xico",Marisquer√≠a, Abre a las 8a.m.,Oaxaca de Ju√°rez
Oaxaca te amo,,None Found,+52 951 459 0457,"C. de Manuel Garc√≠a Vigil 509, RUTA INDEPENDENCIA, Centro, 68000 Oaxaca de Ju√°rez, Oax., M√©xico",Restaurante mexicano, Abre a las 5p.m.,Oaxaca de Ju√°rez
ALAMBIQUE-Tradicional Restobar,alambiquepub.com.mx,None Found,+52 951 108 3193,"C. Macedonio Alcal√° 401, RUTA INDEPENDENCIA, Centro, 68000 Oaxaca de Ju√°rez, Oax., M√©xico",Bar restaurante, 1:30a.m. ,Oaxaca de Ju√°rez
Restaurante Coronita,restaurantecoronita.com,None Found,+52 951 205 8907,"# 68000, D√≠az Ordaz 208, Centro, 68000 Oaxaca de Ju√°rez, Oax., M√©xico",Restaurante mexicano,,Oaxaca de Ju√°rez
Restaurante El Andariego Cocina Tradicional,,None Found,+52 951 198 9150,"Av. de la Independencia 503, CENTRO, Centro, 68000 Oaxaca de Ju√°rez, Oax., M√©xico",Bar, Abre a las 7:30a.m.,Oaxaca de Ju√°rez
Adam√°,adamaoax.com,None Found,+52 951 429 8646,"Aldama 101, RUTA INDEPENDENCIA, Barrio de Xochimilco, 68040 Oaxaca de Ju√°rez, Oax., M√©xico",Restaurante de cocina de Oriente Medio, Abre a las 2p.m.,Oaxaca de Ju√°rez
Humar,facebook.com,None Found,+52 951 265 7384,"Mariano Matamoros 501, Centro, 68000 Oaxaca de Ju√°rez, Oax., M√©xico",Marisquer√≠a, Abre a la 1p.m.,Oaxaca de Ju√°rez
Humar,facebook.com,None Found,+52 951 265 7384,"Mariano Matamoros 501, Centro, 68000 Oaxaca de Ju√°rez, Oax., M√©xico",Marisquer√≠a, Abre a la 1p.m.,Oaxaca de Ju√°rez
El Tendaj√≥n,m.facebook.com,None Found,+52 951 427 7270,"Calle de Jos√© Mar√≠a Pino Su√°rez 409, RUTA INDEPENDENCIA, Centro, 68000 Oaxaca de Ju√°rez, Oax., M√©xico",Restaurante, Abre a las 8:30a.m.,Oaxaca de Ju√°rez
El Tendaj√≥n,m.facebook.com,None Found,+52 951 427 7270,"Calle de Jos√© Mar√≠a Pino Su√°rez 409, RUTA INDEPENDENCIA, Centro, 68000 Oaxaca de Ju√°rez, Oax., M√©xico",Restaurante, Abre a las 8:30a.m.,Oaxaca de Ju√°rez
La Popular,facebook.com,None Found,+52 951 206 2751,"Jes√∫s Carranza 110, RUTA INDEPENDENCIA, Centro, 68000 Oaxaca de Ju√°rez, Oax., M√©xico",, Abre a la 1p.m.,Oaxaca de Ju√°rez
El Chapul√≠n Restaurant Oax,facebook.com,None Found,+52 951 657 3748,"Miguel Hidalgo 507-B, Zona Lunes Feb 09, Centro, 68000 Oaxaca de Ju√°rez, Oax., M√©xico",Restaurante mexicano, Abre a la 1p.m.,Oaxaca de Ju√°rez
La Casona de la Abuela,,None Found,+52 951 132 5493,"C. Palmeras 716, Reforma, 68050 Oaxaca de Ju√°rez, Oax., M√©xico",Restaurante mexicano, Abre a las 8:30a.m.,Oaxaca de Ju√°rez
Red Indian Chilli,,"Local informal con decoraci√≥n discreta donde se sirve curri indio cl√°sico, con opciones vegetarianas.",+52 55 3550 2809,"Colonia, Vicente Guerrero N¬∞ 105 Plaza Comercial Guerrero Plants Baja Centro, 68000 Oaxaca de Ju√°rez, Oax., M√©xico",Restaurante indio, Abre a las 3p.m. del mar,Oaxaca de Ju√°rez
Restaurante Casa Hidalgo,hotelcasahidalgo.com,None Found,+52 951 167 1435,"Miguel Hidalgo 417-B, Zona Lunes Feb 09, Centro, 68000 Oaxaca de Ju√°rez, Oax., M√©xico",Restaurante, Abre a las 7:15a.m.,Oaxaca de Ju√°rez
El Museo de la Botana Y RESTAURANTE LOS GERANIOS (hotel oaxaca inn reforma),,None Found,+52 951 513 3285,"C. Amapolas 511-A, Reforma, 68050 Oaxaca de Ju√°rez, Oax., M√©xico",Bar restaurante,,Oaxaca de Ju√°rez
Br√≠o Cocina Local,briooaxaca.com,None Found,+52 951 569 2497,"Calle de Armenta y L√≥pez 300, OAX_RE_BENITO JUAREZ, Centro, 68000 Oaxaca de Ju√°rez, Oax., M√©xico",Restaurante, Abre a la 1p.m.,Oaxaca de Ju√°rez
Br√≠o Cocina Local,briooaxaca.com,None Found,+52 951 569 2497,"Calle de Armenta y L√≥pez 300, OAX_RE_BENITO JUAREZ, Centro, 68000 Oaxaca de Ju√°rez, Oax., M√©xico",Restaurante, Abre a la 1p.m.,Oaxaca de Ju√°rez
Casa Mayordomo,casamayordomo.com.mx,"Cantina oaxaque√±a luminosa que ofrece chocolate caliente especiado, limonada fresca y tacos de pollo.",+52 951 514 4363,"C. Macedonio Alcal√° 302, RUTA INDEPENDENCIA, Ejidal, 68000 Oaxaca de Ju√°rez, Oax., M√©xico",Restaurante de desayunos, Abre a las 8a.m.,Oaxaca de Ju√°rez
CRUDO,,None Found,+52 951 462 2482,"Av Benito Ju√°rez #309, RUTA INDEPENDENCIA, Centro, 68000 Oaxaca de Ju√°rez, Oax., M√©xico",, Abre a las 3p.m.,Oaxaca de Ju√°rez
Sabor Antiguo,facebook.com,None Found,+52 951 128 3760,"C. De Manuel Doblado 724-A, Centro, 68083 Oaxaca de Ju√°rez, Oax., M√©xico",Restaurante mexicano, Abre a las 8a.m. del lun,Oaxaca de Ju√°rez
El Gran Gourmet Oaxaque√±o,elgrangourmet.com,None Found,+52 951 516 7822,"Av. de la Independencia 1104, Centro, 68000 Oaxaca de Ju√°rez, Oax., M√©xico",Restaurante mexicano,,Oaxaca de Ju√°rez
La Casa De La Chef,,None Found,+52 951 440 2349,"Calz. de la Rep√∫blica 304, Centro, 68000 Oaxaca de Ju√°rez, Oax., M√©xico",Restaurante mexicano, Abre a las 8a.m.,Oaxaca de Ju√°rez
Cabuche,,None Found,+52 951 514 1672,"Miguel Hidalgo 1017, Centro, 68000 Oaxaca de Ju√°rez, Oax., M√©xico",Restaurante mexicano, Abre a las 10a.m. del lun,Oaxaca de Ju√°rez
Cabuche,,None Found,+52 951 514 1672,"Miguel Hidalgo 1017, Centro, 68000 Oaxaca de Ju√°rez, Oax., M√©xico",Restaurante mexicano, Abre a las 10a.m. del lun,Oaxaca de Ju√°rez
Santo Sabor Restaurante,facebook.com,None Found,+52 951 205 1231,"Murgu√≠a 510, RUTA INDEPENDENCIA, Centro, 68000 Oaxaca de Ju√°rez, Oax., M√©xico",Restaurante mexicano, Abre a las 9:30a.m. del lun,Oaxaca de Ju√°rez
La Terraza del Copal,,None Found,+52 951 427 4496,"Ni√±os Heroes 312, Centro, 68080 Oaxaca de Ju√°rez, Oax., M√©xico",Restaurante, Abre a las 9a.m.,Oaxaca de Ju√°rez
El Mes√≥n Oaxaque√±o,,None Found,+52 951 516 2729,"Miguel Hidalgo #805, Centro, 68000 Oaxaca de Ju√°rez, Oax., M√©xico",Restaurante mexicano, Abre a las 8a.m.,Oaxaca de Ju√°rez
Casa Celia Restaurante,,None Found,+52 951 713 0283,"Calle Quintana Roo 217, RUTA INDEPENDENCIA, Centro, 68000 Oaxaca de Ju√°rez, Oax., M√©xico",Restaurante de cocina espa√±ola,,Oaxaca de Ju√°rez
Itanon√≠,,"Cantina luminosa y colorida especializada en platos regionales de tortillas con ma√≠z, guayaba y chocolate.",+52 951 205 2282,"Av Belisario Dom√≠nguez 513, Reforma, 68050 Oaxaca de Ju√°rez, Oax., M√©xico",Restaurante mexicano, Abre a las 7a.m.,Oaxaca de Ju√°rez
Santa Hierba Jalatlaco,santahierbamx.com,None Found,+52 951 228 8790,"5 de Mayo 505, Barrio de Jalatlaco, 68080 Oaxaca de Ju√°rez, Oax., M√©xico",Restaurante,,Oaxaca de Ju√°rez
La Teca,,None Found,+52 951 515 0563,"C. Violetas 200, Reforma, 68050 Oaxaca de Ju√°rez, Oax., M√©xico",Restaurante mexicano, Abre a la 1p.m.,Oaxaca de Ju√°rez
Humito Cocina y Foro 8 Temblor,facebook.com,None Found,+52 951 525 6768,"Panor√°mica del Fort√≠n 412, Faldas del Fortin, 68075 Oaxaca de Ju√°rez, Oax., M√©xico",Restaurante, Abre a la 1p.m. del lun,Oaxaca de Ju√°rez
Humito Cocina y Foro 8 Temblor,facebook.com,None Found,+52 951 525 6768,"Panor√°mica del Fort√≠n 412, Faldas del Fortin, 68075 Oaxaca de Ju√°rez, Oax., M√©xico",Restaurante, Abre a la 1p.m. del lun,Oaxaca de Ju√°rez
Comedor T√≠pico La Abuelita,,None Found,+52 951 516 0702,"20 De Noviembre, 20 de Noviembre, OAX_RE_BENITO JUAREZ, Centro, 68000 Oaxaca de Ju√°rez, Oax., M√©xico",Restaurante mexicano, Abre a las 7a.m.,Oaxaca de Ju√°rez
Aguacate Oaxaca | Veggie Bar,linktr.ee,None Found,+52 951 604 6228,"Reforma 703, RUTA INDEPENDENCIA, Centro, 68000 Oaxaca de Ju√°rez, Oax., M√©xico",Restaurante vegetariano, Abre a las 11a.m.,Oaxaca de Ju√°rez
Pan:am Abasolo,facebook.com,Panader√≠a y cafeter√≠a en una casa cl√°sica oaxaque√±a con paredes coloridas y patio.,+52 951 514 0132,"C. de Mariano Abasolo 103 B, RUTA INDEPENDENCIA, Centro, 68000 Oaxaca de Ju√°rez, Oax., M√©xico",Restaurante de brunch, Abre a las 8a.m.,Oaxaca de Ju√°rez
Tlayudas La Chinita,facebook.com,"Restaurante de comida para llevar que ofrece tlayudas con varios aderezos, como carne asada y salchichas.",,"Esquina, nu√±o del mercado y 20 de noviembre, C. de Nu√±o del Mercado 209, OAX_RE_BENITO JUAREZ, Centro, 68000 Oaxaca de Ju√°rez, Oax., M√©xico",Restaurante mexicano, Abre a las 8p.m. del lun,Oaxaca de Ju√°rez
Pan:am Reforma,facebook.com,Masas y panes artesanales caseros en una cafeter√≠a tranquila con una terraza cubierta.,+52 951 515 7858,"Av Belisario Dom√≠nguez 809, Reforma, 68050 Oaxaca de Ju√°rez, Oax., M√©xico",Restaurante de brunch,,Oaxaca de Ju√°rez
Restaurante Mayordomo,chocolatemayordomo.com.mx,None Found,,"68000, Miguel Hidalgo 616, Centro, 68000 Oaxaca de Ju√°rez, Oax., M√©xico",Restaurante mexicano, Abre a las 7a.m.,Oaxaca de Ju√°rez
Makaria Restaurante,,None Found,+52 951 172 3270,"De Naranjos 201, Esquina Las Rosas, Reforma, 68050 Oaxaca de Ju√°rez, Oax., M√©xico",Restaurante mexicano, Abre a las 8:30a.m. del lun,Oaxaca de Ju√°rez
Makaria Restaurante,,None Found,+52 951 172 3270,"De Naranjos 201, Esquina Las Rosas, Reforma, 68050 Oaxaca de Ju√°rez, Oax., M√©xico",Restaurante mexicano, Abre a las 8:30a.m. del lun,Oaxaca de Ju√°rez
Los Adobes,facebook.com,"Restaurante simple con toques r√∫sticos, en el que se sirve comida casera como quesadillas y chilaquiles.",+52 951 511 2385,"De Rayon 103, FERROCARRIL, Agencia de Policia de Cinco Se√±ores, 68120 Oaxaca de Ju√°rez, Oax., M√©xico",Restaurante mexicano, Abre a las 8a.m.,Oaxaca de Ju√°rez
Casablanca Restaurant,,None Found,+52 951 612 2383,"De Circuito Sur 113, La Cascada, 68050 Oaxaca de Ju√°rez, Oax., M√©xico",Restaurante chino, Abre a la 1p.m.,Oaxaca de Ju√°rez
Vips Oaxaca Centro,vips.com.mx,None Found,+52 15025328,"Av Benito Ju√°rez 809, RUTA INDEPENDENCIA, Centro, 68000 Oaxaca de Ju√°rez, Oax., M√©xico",Restaurante mexicano, Abre a las 7a.m.,Oaxaca de Ju√°rez
Vips Oaxaca Centro,vips.com.mx,None Found,+52 15025328,"Av Benito Ju√°rez 809, RUTA INDEPENDENCIA, Centro, 68000 Oaxaca de Ju√°rez, Oax., M√©xico",Restaurante mexicano, Abre a las 7a.m.,Oaxaca de Ju√°rez
Sirilo | Cocina Folk,facebook.com,None Found,+52 951 446 5950,"Esquina con, Calle Amapolas, C. Almendros 400, Reforma, 68050 Oaxaca de Ju√°rez, Oax., M√©xico",Marisquer√≠a, Abre a la 1p.m.,Oaxaca de Ju√°rez
Coquina Hua Xha,facebook.com,None Found,+52 951 578 4876,"C. Macedonio Alcal√° 902-C, RUTA INDEPENDENCIA, Centro, 68000 Oaxaca de Ju√°rez, Oax., M√©xico",Restaurante mexicano, Abre a las 9a.m.,Oaxaca de Ju√°rez
Italianni's Oaxaca,italiannis.com.mx,None Found,+52 951 143 3434,"Heroica Escuela Naval Militar 118, Reforma, 68050 Oaxaca de Ju√°rez, Oax., M√©xico",Restaurante italiano, Abre a las 8a.m.,Oaxaca de Ju√°rez
Restaurante La Terraza De Tita,oaxacareal.com,None Found,+52 951 205 8866,"C. de Manuel Garc√≠a Vigil 306, RUTA INDEPENDENCIA, Centro, 68000 Oaxaca de Ju√°rez, Oax., M√©xico",Restaurante, Abre a las 7a.m.,Oaxaca de Ju√°rez
Restaurante Barrio de Jalatlaco,,None Found,+52 951 192 8981,"Miguel Hidalgo 111-Planta Alta, Barrio de Jalatlaco, 68080 Oaxaca de Ju√°rez, Oax., M√©xico",Restaurante mexicano, Abre a las 8a.m.,Oaxaca de Ju√°rez
Restaurante Barrio de Jalatlaco,,None Found,+52 951 192 8981,"Miguel Hidalgo 111-Planta Alta, Barrio de Jalatlaco, 68080 Oaxaca de Ju√°rez, Oax., M√©xico",Restaurante mexicano, Abre a las 8a.m.,Oaxaca de Ju√°rez
Chirundo Cocina de Humo,,None Found,+52 951 557 3986,"Ignacio Allende 207, RUTA INDEPENDENCIA, Centro, 68000 Oaxaca de Ju√°rez, Oax., M√©xico",Restaurante, Abre a la 1p.m.,Oaxaca de Ju√°rez
Hierba Dulce,hierba-dulce.com,"Especialidades creativas a base de plantas, en un espacio relajado con atm√≥sfera hogare√±a.",+52 951 516 5374,"Cda. de Agust√≠n Melgar 103, Vicente Suarez, 68033 Oaxaca de Ju√°rez, Oax., M√©xico",Restaurante vegano,,Oaxaca de Ju√°rez
El T√≠pico,,None Found,+52 951 518 6557,"Z√°rate 207, RUTA INDEPENDENCIA, Centro, 68000 Oaxaca de Ju√°rez, Oax., M√©xico",Bar, Abre a las 8a.m.,Oaxaca de Ju√°rez
Casa Hidalgo Hotel Boutique Oaxaca,hotelcasahidalgo.com,None Found,+52 951 167 1435,"Miguel Hidalgo 417, Zona Lunes Feb 09, Centro, 68000 Oaxaca de Ju√°rez, Oax., M√©xico",,,Oaxaca de Ju√°rez
Casa Hidalgo Hotel Boutique Oaxaca,hotelcasahidalgo.com,None Found,+52 951 167 1435,"Miguel Hidalgo 417, Zona Lunes Feb 09, Centro, 68000 Oaxaca de Ju√°rez, Oax., M√©xico",,,Oaxaca de Ju√°rez
Moogo√±√© - Cocina de √©poca,moogone.mx,None Found,+52 951 117 2498,"Av. de la Independencia 105 A, CALZADA MADERO, Centro, 68000 Oaxaca de Ju√°rez, Oax., M√©xico",Restaurante,,Oaxaca de Ju√°rez
El Asador Vasco,reforma.asadorvasco.com,None Found,+52 951 358 5854,"Calz. Porfirio D√≠az 258-2do. Piso, Reforma, 68050 Oaxaca de Ju√°rez, Oax., M√©xico",Parrilla, Abre a las 8a.m.,Oaxaca de Ju√°rez
Restaurante Los Cuerudos,facebook.com,None Found,+52 951 746 6240,"Calle las Rosas 210, Reforma, 68050 Oaxaca de Ju√°rez, Oax., M√©xico",Restaurante, Abre a las 8:30a.m. del lun,Oaxaca de Ju√°rez
Citronella Barra Natural,citronellabarranat.wixsite.com,None Found,+52 951 115 7424,"Mariano Matamoros 203-Interior 5, RUTA INDEPENDENCIA, Centro, 68000 Oaxaca de Ju√°rez, Oax., M√©xico",Restaurante vegano, Abre a las 8:30a.m.,Oaxaca de Ju√°rez
Mixt√∫ üêà,casadearte.mx,None Found,+52 951 143 3028,"Calz. Porfirio D√≠az 221, Reforma, 68050 Oaxaca de Ju√°rez, Oax., M√©xico",Restaurante, Abre a las 9a.m.,Oaxaca de Ju√°rez
Mixt√∫ üêà,casadearte.mx,None Found,+52 951 143 3028,"Calz. Porfirio D√≠az 221, Reforma, 68050 Oaxaca de Ju√°rez, Oax., M√©xico",Restaurante, Abre a las 9a.m.,Oaxaca de Ju√°rez
Comala restaurant,m.facebook.com,None Found,+52 951 351 7838,"68000, Calle de Jos√© Mar√≠a Pino Su√°rez 300A, Centro, 68000 Oaxaca de Ju√°rez, Oax., M√©xico",Restaurante mexicano, Abre a la 1p.m. del lun,Oaxaca de Ju√°rez
Okasa lovely food,,None Found,+52 19511018293,"Calle De La c, Reforma 905, Centro, 68000 Oaxaca de Ju√°rez, Oax., M√©xico",Restaurante, Abre a las 8a.m. del lun,Oaxaca de Ju√°rez
Goji Oaxaca,,None Found,+52 951 207 3681,"C. de Los Libres 603, RUTA INDEPENDENCIA, Centro, 68000 Oaxaca de Ju√°rez, Oax., M√©xico",Restaurante, Abre a las 8a.m.,Oaxaca de Ju√°rez
Las Tlayudas de Mina y Bustamante,facebook.com,None Found,+52 951 441 1704,"C. de Carlos Mar√≠a Bustamante 322, OAX_RE_BENITO JUAREZ, Centro, 68000 Ejido del Centro, Oax., M√©xico",Restaurante mexicano, Abre a las 5p.m.,Oaxaca de Ju√°rez
Senor NAAN,menu.fu.do,None Found,+52 951 283 6150,"Dr. Gilberto Bola√±os Cacho 113, Barrio de Xochimilco, 68040 Oaxaca de Ju√°rez, Oax., M√©xico",Restaurante indio,,Oaxaca de Ju√°rez
Senor NAAN,menu.fu.do,None Found,+52 951 283 6150,"Dr. Gilberto Bola√±os Cacho 113, Barrio de Xochimilco, 68040 Oaxaca de Ju√°rez, Oax., M√©xico",Restaurante indio,,Oaxaca de Ju√°rez
Restaurant Bar Del Jard√≠n,,None Found,+52 951 132 4046,"Calz. Porfirio D√≠az 258, Reforma, 68050 Oaxaca de Ju√°rez, Oax., M√©xico",Restaurante mexicano, Abre a las 8a.m.,Oaxaca de Ju√°rez
Restaurant Regio de Oaxaca,m.facebook.com,"Carnes asadas, platillos mexicanos y cocteler√≠a en un comedor amplio con ambiente casual pero cl√°sico.",+52 951 515 1996,"C. Palmeras 306, Reforma, 68050 Oaxaca de Ju√°rez, Oax., M√©xico",Restaurante mexicano, Abre a las 12p.m.,Oaxaca de Ju√°rez
Los Anzuelos Restaurante,,None Found,+52 951 408 1418,"Curtidur√≠as 321, Barrio de Jalatlaco, 68080 Oaxaca de Ju√°rez, Oax., M√©xico",Marisquer√≠a, Abre a las 9a.m.,Oaxaca de Ju√°rez
Los Anzuelos Restaurante,,None Found,+52 951 408 1418,"Curtidur√≠as 321, Barrio de Jalatlaco, 68080 Oaxaca de Ju√°rez, Oax., M√©xico",Marisquer√≠a, Abre a las 9a.m.,Oaxaca de Ju√°rez
Herb√≠vora - Vegan Tacos,,None Found,+52 55 4094 7941,"Calle de Tinoco y Palacios 202, RUTA INDEPENDENCIA, Centro, 68000 Oaxaca de Ju√°rez, Oax., M√©xico",Restaurante vegano, Abre a las 2p.m. del lun,Oaxaca de Ju√°rez
Cobarde Oaxaca,cobarde.mx,None Found,+52 951 165 6913,"C. Macedonio Alcal√° 505, RUTA INDEPENDENCIA, Centro, 68000 Oaxaca de Ju√°rez, Oax., M√©xico",Restaurante, Abre a la 1:30p.m.,Oaxaca de Ju√°rez
Restaurante Mar√≠a Bonita,mariabonitaoaxaca.com,None Found,+52 951 424 1001,"Calle Macedonio Alcal√° & Cosijop√≠, RUTA INDEPENDENCIA, Centro, 68000 Oaxaca de Ju√°rez, Oax., M√©xico",Restaurante, Abre a las 11:30a.m.,Oaxaca de Ju√°rez
Restaurante El Molino,restauranteelmolino.com.mx,"Local r√∫stico con terraza y plantas naturales que ofrece cortes, sabores mexicanos y pizzas al horno de le√±a.",+52 951 514 2907,"Yagul 106, Universidad, San Jose la Noria, 68120 Oaxaca de Ju√°rez, Oax., M√©xico",Restaurante, Abre a la 1:30p.m. del lun,Oaxaca de Ju√°rez
