Names,Website,Introduction,Phone Number,Address,Type,Opens At,Municipio
Restaurante La Blanca,,None Found,+52 771 172 4341,"Calle Mariano Matamoros 201, Centro, 42000 Pachuca de Soto, Hgo., México",Restaurante mexicano, Abre a las 8a.m.,Pachuca de Soto
La 3a Ronda Pachuca,la3aronda.com,None Found,+52 771 353 6200,"Vía Dorada, Av. Ferrocarril Central #121 1er piso Col, Zona Plateada, 42088 Pachuca de Soto, Hgo., México",Restaurante mexicano, Cierra a las 3a.m. ,Pachuca de Soto
Madero Restaurante - San Javier,maderorestaurante.mx,None Found,+52 55 1454 0455,"Blvd. Valle de San Javier 109, Fracc, Valle de San Javier, 42086 Pachuca de Soto, Hgo., México",Restaurante mexicano, Abre a las 7a.m.,Pachuca de Soto
Rata Roja,m.facebook.com,None Found,+52 771 125 8536,"Camino Real de La Plata, Zona Plateada, 42084 Pachuca de Soto, Hgo., México",Bar restaurante, Cierra a las 3a.m.,Pachuca de Soto
En Un Rincón Del Alma,,None Found,+52 771 719 2425,"Valle de San Javier, 42086 Pachuca de Soto, Hgo., México",Buffet libre, Abre a las 8:30a.m.,Pachuca de Soto
EL CANIBAL (Pachuca),elcanibalmx.com,"Pub de ladrillos a la vista en el que se sirven hamburguesas, alitas, papas fritas, batidos y cervezas.",+52 771 153 0308,"Calle Gral. Felipe Angeles 604, Periodistas, 42060 Pachuca de Soto, Hgo., México",Hamburguesería, Abre a la 1p.m.,Pachuca de Soto
Restaurante Las Acamayas,,"Restaurante tipo buffet familiar que ofrece una gran variedad de mariscos, ensaladas, pizza y mucho más.",+52 771 715 9345,"C. José Maria Pino Suárez 300-A, Real de Minas, 42090 Pachuca de Soto, Hgo., México",Marisquería, Abre a las 11a.m.,Pachuca de Soto
Sotero Cocina de Oficio,,"Restaurante informal en el que se sirven platillos caseros originales para compartir, además de postres y cocteles.",+52 771 719 4770,"Dr. Manuel del Corral 101, Real de Minas, 42090 Pachuca de Soto, Hgo., México",Restaurante,,Pachuca de Soto
El Estufón de la Abuela,elestufondelaabuela.com.mx,None Found,+52 771 711 4032,"CARRT, Autopista México - Pachuca KM 85.5, Club de Golf, 42080 Pachuca de Soto, Hgo., México",Restaurante mexicano, Abre a las 9a.m.,Pachuca de Soto
Madero Restaurante - Villas,maderorestaurante.mx,None Found,+52 55 1454 0455,"Blvrd Nuevo Hidalgo #33, Villas de Pachuca, 42083 Pachuca de Soto, Hgo., México",Restaurante mexicano, Abre a las 7a.m.,Pachuca de Soto
El Lugar del Bife,elbife.com.mx,Restaurante con oferta extensa de carnes asadas y platillos argentinos y mexicanos en un ambiente familiar.,+52 771 719 7777,"Blvd. Valle de San Javier, Ex-hacienda de Coscotitlán, Ex Hacienda de Coscotitlán, 42080 Pachuca de Soto, Hgo., México",Restaurante argentino, Abre a la 1p.m.,Pachuca de Soto
Restaurante Los Portales Pachuca,,None Found,+52 771 373 8562,"Pl. Benito Juárez 118, Centro, 42000 Pachuca de Soto, Hgo., México",Restaurante mexicano, Abre a las 9:30a.m.,Pachuca de Soto
Toks Pachuca Colosio,toks.com.mx,None Found,+52 771 715 9735,"Av, Blvrd Luis Donaldo Colosio No. 1501, Venta Prieta, 42084 Pachuca de Soto, Hgo., México",Restaurante mexicano, Abre a las 7a.m.,Pachuca de Soto
Restaurante El Patio,facebook.com,None Found,,"De Maestranza 11, Maestranza, 42060 Pachuca de Soto, Hgo., México",Restaurante,,Pachuca de Soto
Molino Restaurante,,None Found,+52 771 714 6710,"42000, Av Benito Juárez 807, Centro, Pachuca de Soto, Hgo., México",Restaurante mexicano, Abre a las 8a.m.,Pachuca de Soto
Tu Lunch,,None Found,+52 771 473 2591,"Carr. Federal Pachuca - Mexico Km. 83-Local 1 y 2, San Antonio, 42083 Pachuca de Soto, Hgo., México",Restaurante, Abre a las 8a.m.,Pachuca de Soto
Restaurante Colonial Pachuca,hotel-colonial.com.mx,None Found,+52 771 387 4458,"Calle Ignacio Allende 711, Centro, 42000 Pachuca de Soto, Hgo., México",Restaurante mexicano, Abre a las 8a.m.,Pachuca de Soto
Restaurante Lavalleja,facebook.com,None Found,+52 771 688 7847,"Blvrd Luis Donaldo Colosio 532, Arboledas de Santa Elena, 42086 Pachuca de Soto, Hgo., México",Restaurante, Abre a las 8a.m.,Pachuca de Soto
Terrassa de Mirage,terrassademirage.com.mx,None Found,+52 771 719 6373,"Plaza Gran Patio, Boulevard Luis Donaldo Colosio 2009, Ex-hacienda de Coscotitlán, 42064 Pachuca de Soto, Hgo., México",Restaurante, Abre a las 8a.m.,Pachuca de Soto
La Quinta - restaurante y eventos,facebook.com,None Found,+52 771 285 8563,"Blvrd Felipe Angeles 1932, Amp Sta Julia, 42080 Pachuca de Soto, Hgo., México",Restaurante, Abre a las 8:30a.m.,Pachuca de Soto
Toks Pachuca Centro,toks.com.mx,None Found,+52 771 714 7534,"Av Benito Juárez 20, Centro, 42000 Pachuca de Soto, Hgo., México",Restaurante, Abre a las 7a.m.,Pachuca de Soto
El Manzanillo Restaurante,,None Found,+52 771 624 1013,"Calle Vicente Guerrero 504, Centro, 42000 Pachuca de Soto, Hgo., México",Restaurante familiar, Abre a las 9a.m.,Pachuca de Soto
Antigua Hacienda,facebook.com,None Found,+52 771 359 5214,"Av. Ferrocarril Hidalgo 12, San Antonio el Desmonte, 42083 Pachuca de Soto, Hgo., México",Restaurante mexicano, Abre a las 10a.m.,Pachuca de Soto
Vips Pachuca,vips.com.mx,None Found,+52 17187189,"Av Revolución 1307, Periodistas, 42064 Pachuca de Soto, Hgo., México",Restaurante mexicano, Abre a las 7a.m.,Pachuca de Soto
Singular Cocina de Brasa,facebook.com,None Found,+52 771 425 7175,"Camino Real de La Plata 112, Zona Plateada, 42083 Pachuca de Soto, Hgo., México",Restaurante, Abre a la 1p.m.,Pachuca de Soto
El Cesar,,None Found,+52 771 711 2783,"Francisco Sarabia, C. Fuerza Aérea esq, Carlos Rovirosa, 42082 Pachuca de Soto, Hgo., México",Restaurante, Abre a las 10a.m.,Pachuca de Soto
Chili's Pachuca,chilis.com.mx,Cadena apta para familias que ofrece alimentos estadounidenses y tex-mex en un ambiente sureño.,+52 771 718 0818,"Blvrd Everardo Márquez 1100, Periodistas, 42060 Pachuca de Soto, Hgo., México",Restaurante americano, Abre a las 11a.m.,Pachuca de Soto
Texas Ribs,texasribs.com.mx,None Found,+52 771 710 3464,"Galerías Pachuca Av, Camino Real de La Plata 100, Zona Plateada, 42000 Pachuca de Soto, Hgo., México",Bar restaurante, Abre a las 12p.m.,Pachuca de Soto
Rincón do Brasil,facebook.com,None Found,+52 771 719 7721,"Blvd. Valle de San Javier 802, Valle de San Javier, 42086 Pachuca de Soto, Hgo., México",Restaurante especializado en filetes, Abre a las 12:30p.m.,Pachuca de Soto
Asados Don Abel,,None Found,+52 771 101 5590,"Blvd. Valle de San Javier 200, Valle de San Javier, 42086 Pachuca de Soto, Hgo., México",Parrilla, Abre a las 9a.m.,Pachuca de Soto
El Parador de San Javier,,"Amplio restaurant familiar estilo español rústico, con variado menú internacional, salones privados, y jardín.",+52 771 718 2808,"San Javier 717, Valle de San Javier, 42086 Pachuca de Soto, Hgo., México",Restaurante de cocina española, Abre a las 9a.m.,Pachuca de Soto
Carbosanto Asador,facebook.com,None Found,+52 771 441 0024,"Camino Real de La Plata 328, Zona Plateada, 42084 Pachuca de Soto, Hgo., México",Restaurante mexicano, Abre a la 1:30p.m.,Pachuca de Soto
Los Mochomos Grill Urbano,,None Found,+52 55 4386 4707,"Blvd. Revolución de 1910 S/N, Los Jales, 42080 Pachuca de Soto, Hgo., México",Restaurante mexicano, Abre a las 10:30a.m. del lun,Pachuca de Soto
Entre Fuegos Pachuca,entrefuegos.com,None Found,+52 771 489 9801,"Av Ferrocarril Central #121-1er piso, Zona Plateada, 42088 Pachuca de Soto, Hgo., México",Restaurante, Abre a las 12p.m.,Pachuca de Soto
Restaurante Café Madero (Suc. Av. Madero),maderorestaurante.mx,None Found,+52 55 1454 0455,"Av Francisco I. Madero 403, Nueva Francisco I Madero, Francisco I. Madero, 42070 Pachuca de Soto, Hgo., México",Restaurante mexicano, Abre a las 7a.m.,Pachuca de Soto
Taquería los Molcajetes de PER,losmolcajetesdeper.com,None Found,+52 771 773 7881,"Av Benito Juárez No. 1507, Ex Hacienda de Coscotitlán, 42080 Pachuca de Soto, Hgo., México",Taquería, Cierra a las 4a.m. ,Pachuca de Soto
Puerto Del Bife,puertodelbife.com,None Found,+52 771 138 3006,"Camino Real de la Plata, Lte. 15, Zona Plateada, 42083 Pachuca de Soto, Hgo., México",Bar restaurante, Abre a la 1:30p.m.,Pachuca de Soto
Italianni's Pachuca,italiannis.com.mx,None Found,+52 771 716 7180,"Blvrd Luis Donaldo Colosio 212, Arboledas de San Javier, 42084 Pachuca de Soto, Hgo., México",Restaurante italiano, Abre a las 10a.m.,Pachuca de Soto
La Choperia,,None Found,+52 771 369 0971,"Plaza, Blvrd Nuevo Hidalgo La, Puerta de Hierro, 42086 Pachuca de Soto, Hgo., México",Bar restaurante, 1a.m. ,Pachuca de Soto
Asados Don Abel Colosio,bit.ly,None Found,+52 771 202 1974,"Blvrd Luis Donaldo Colosio s/n-Lt 5, El Palmar, El Palmar II, 42088 Pachuca de Soto, Hgo., México",Taquería, Abre a las 9a.m.,Pachuca de Soto
La Número Uno,,None Found,+52 771 210 4575,"Blvrd Everardo Márquez 198, Ex Hacienda de Coscotitlán, 42080 Pachuca de Soto, Hgo., México",Restaurante, Cierra a las 2a.m. ,Pachuca de Soto
Taquería La Guelaguetza,jdm.jdsuite.mx,None Found,+52 771 189 7618,"Camino Real de La Plata 431, Zona Plateada, 42084 Pachuca de Soto, Hgo., México",Taquería, Cierra a las 4a.m. ,Pachuca de Soto
Restaurante Liverpool,liverpool.com.mx,None Found,+52 771 161 7746,"Camino Real de La Plata 100, Zona Plateada, 42080 Pachuca de Soto, Hgo., México",Restaurante, Abre a las 9a.m.,Pachuca de Soto
Picantería,,None Found,+52 771 710 3766,"Blvrd Nuevo Hidalgo 203-A, Puerta de Hierro, 42080 Pachuca de Soto, Hgo., México",Marisquería, Abre a las 10a.m.,Pachuca de Soto
Picantería,,None Found,+52 771 710 3766,"Blvrd Nuevo Hidalgo 203-A, Puerta de Hierro, 42080 Pachuca de Soto, Hgo., México",Marisquería, Abre a las 10a.m.,Pachuca de Soto
La Casa del Pibe,facebook.com,None Found,+52 771 713 7017,"Av Francisco I. Madero 210, Periodistas, 42000 Pachuca de Soto, Hgo., México",Restaurante argentino, Abre a la 1p.m.,Pachuca de Soto
Alimentari,facebook.com,None Found,+52 771 718 2700,"Blvd. Valle de San Javier 500, Valle de San Javier, 42086 Pachuca de Soto, Hgo., México",Restaurante italiano, Abre a las 2p.m.,Pachuca de Soto
El Serranillo,,None Found,+52 771 153 0817,"Boulevard 322, Valle de San Javier, 42086 Pachuca de Soto, Hgo., México",Restaurante mexicano, Abre a las 7:30a.m.,Pachuca de Soto
Alex Steak,,"Comedor con decoración sencilla y ambiente relajado en donde se sirven platos mexicanos, cortes y pastas.",+52 771 713 0056,"Glorieta Revolucion 102, Centro, 42000 Pachuca de Soto, Hgo., México",Bar restaurante, Abre a la 1p.m.,Pachuca de Soto
La Braza Arracheras,labrazaarracheras.mx,Desenfadado restaurante con muros de ladrillo especialista en cortes acompañados de pastas y ensaladas.,+52 771 791 5049,"Plaza Vía Madeira's, Blvrd Nuevo Hidalgo 207, Los Jales, 42083 Pachuca de Soto, Hgo., México",Buffet libre, Abre a la 1p.m.,Pachuca de Soto
Mirage (Suc. Perisur),terrassademirage.com.mx,"Sitio popular con servicio al bar que se especializa en cortes y platillos mexicanos, italianos y americanos.",+52 771 711 4068,"Plaza Perisur Pachuca, Carretera Federal Pachuca - Mexico Kilómetro 87.5, Venta Prieta, 42080 Pachuca de Soto, Hgo., México",Restaurante, Abre a las 7a.m.,Pachuca de Soto
El Rincón Huasteco,,None Found,+52 771 143 6141,"C. San Martin de Porres 6, Canutillo, 42075 Pachuca de Soto, Hgo., México",Restaurante mexicano, Abre a las 9a.m.,Pachuca de Soto
"Restaurante Los Asados A La Parrilla ""DON TABLAJERO""",,None Found,+52 771 121 5363,"Av Constituyentes 100, Constitución, 42080 Pachuca de Soto, Hgo., México",Restaurante mexicano, Abre a las 12p.m.,Pachuca de Soto
Mahis,facebook.com,None Found,+52 771 172 0934,"5 de Mayo 104, Santa Julia, Sta Julia, 42080 Pachuca de Soto, Hgo., México",Restaurante, Abre a las 9a.m. del lun,Pachuca de Soto
Buffet Espíritu Santo,buffetespiritusanto.com.mx,None Found,+52 771 123 9393,"Lomas del Sol 1713, Lomas Residencial Pachuca, 42094 Pachuca de Soto, Hgo., México",Buffet libre, Abre a las 7:30a.m.,Pachuca de Soto
Vips Plaza Pachuca II,vips.com.mx,None Found,+52 771 719 7449,"Blvrd Luis Donaldo Colosio 2009, Los Jales, Col. Ex hacienda de Coscotitlán, 42064 Pachuca de Soto, Hgo., México",Restaurante mexicano, Abre a las 7a.m.,Pachuca de Soto
Restaurante Reforma,,None Found,,"C. Pl. de la Independencia 111, Centro, 42000 Pachuca de Soto, Hgo., México",Bar restaurante, Abre a las 9a.m.,Pachuca de Soto
CARBONARO PACHUCA RESTAURANTE,,None Found,+52 771 369 7931,"Parque Hidalgo 168, Col. Centro, Ex Hacienda de Guadalupe, 42000 Pachuca de Soto, Hgo., México",Restaurante latinoamericano, Abre a las 2p.m.,Pachuca de Soto
Buffet Espíritu Santo,buffetespiritusanto.com.mx,None Found,+52 771 688 6037,"Zona Plateada, 42084 Pachuca de Soto, Hgo., México",Buffet libre, Abre a las 8a.m.,Pachuca de Soto
Alikante 22,,None Found,+52 771 150 9098,"Moctezuma 402, Morelos, 42040 Pachuca de Soto, Hgo., México",Restaurante de cocina española, Abre a la 1p.m.,Pachuca de Soto
Parrilla Danesa Pachuca,parrilladanesa.com.mx,None Found,+52 771 688 5033,"Blvrd Luis Donaldo Colosio 2003, Ex Hacienda de Coscotitlán, 42080 Pachuca de Soto, Hgo., México",Parrilla, Abre a las 9a.m.,Pachuca de Soto
Holy Cheese!,holycheese.com.mx,None Found,+52 771 532 2342,"Av Revolución 805, Periodistas, 42060 Pachuca de Soto, Hgo., México",Restaurante, Abre a las 3p.m.,Pachuca de Soto
BRERA Kitchen,,None Found,+52 771 376 0717,"Av Benito Juárez 1405, Ex Hacienda de Coscotitlán, 42064 Pachuca de Soto, Hgo., México",Restaurante, Cierra a las 11a.m. ,Pachuca de Soto
Pescadito Camarón Pachuca,,None Found,+52 771 605 6387,"5 de Mayo 203, Santa Julia, Sta Julia, 42080 Pachuca de Soto, Hgo., México",Marisquería, Abre a las 10a.m.,Pachuca de Soto
Marisquería en Pachuca La Crustacería | Restaurante de Mariscos en Pachuca,,None Found,+52 771 489 6018,"Blvd. Revolución de 1910 S/N, Los Jales, 42080 Pachuca de Soto, Hgo., México",Marisquería, Abre a las 12p.m.,Pachuca de Soto
"""MAN PAU""",facebook.com,None Found,+52 771 711 3066,"Blvd. Felipe Ángeles 117, Venta Prieta, 42083 Pachuca de Soto, Hgo., México",Comida china para llevar, Abre a la 1p.m.,Pachuca de Soto
BIFE SPORTS GRILL AND BAR,bifesportsbar.com,None Found,+52 771 266 2306,"Blvrd Felipe Angeles S/N, Los Jales, Sta Julia, 42064 Pachuca de Soto, Hgo., México",Bar restaurante, Abre a la 1:30p.m.,Pachuca de Soto
Chili's Galerías Pachuca,chilis.com.mx,Cadena apta para familias que ofrece alimentos estadounidenses y tex-mex en un ambiente sureño.,+52 771 688 5710,"Camino Real de La Plata 102, Zona Plateada, 42084 Pachuca de Soto, Hgo., México",Restaurante americano, Abre a las 11a.m.,Pachuca de Soto
Restaurante Italiano - BIANCO,facebook.com,"Restaurante italiano informal de moda donde se sirven pasta y pan caseros, pizza al horno de piedra y cocteles.",+52 771 153 0603,"Lomas Residencial 412, Lomas Residencial Pachuca, 42094 Pachuca de Soto, Hgo., México",Restaurante italiano, Abre a la 1:30p.m.,Pachuca de Soto
Restaurante D’ Plateros,facebook.com,None Found,+52 55 4785 7740,"Blvrd Everardo Márquez 817, Ex-hacienda de Coscotitlán, Coscotitlán, 42064 Pachuca de Soto, Hgo., México",Restaurante mexicano, Abre a las 9a.m.,Pachuca de Soto
Mi Antiguo Café,,None Found,+52 771 107 1837,"Av Revolución 700, Periodistas, 42060 Pachuca de Soto, Hgo., México",Cafetería, Abre a las 9a.m.,Pachuca de Soto
Rio Restaurante,riorestaurante.mx,None Found,+52 771 364 3159,"Boulevard Valle de San Javier estacionamiento posterior 301 Interior San Javier Plaza las Americas, 42086 Pachuca de Soto, Hgo., México",Restaurante, Abre a las 9a.m.,Pachuca de Soto
Pachuca Tacos De Jabali,,None Found,,"42086, Valle de Los 9 104, Valle de San Javier, Pachuca de Soto, Hgo., México",Taquería, Abre a las 9a.m.,Pachuca de Soto
Dolina Restaurante,casabasalto.mx,None Found,+52 771 719 0070,"Camino Real de La Plata 206, Zona Plateada, 42084 Pachuca de Soto, Hgo., México",Restaurante, Abre a las 8a.m.,Pachuca de Soto
Effigies Restaurante Bar,,None Found,+52 771 404 0472,"Blvrd Everardo Márquez 706, Ex-hacienda de Coscotitlán, San Martín, 42090 Pachuca de Soto, Hgo., México",Bar restaurante, Cierra a las 3a.m.,Pachuca de Soto
Restaurante La Perfección,,None Found,,"Calle Vicente Guerrero 400, Centro, 42000 Pachuca de Soto, Hgo., México",Restaurante mexicano, Abre a las 10a.m.,Pachuca de Soto
Elena´s Restaurante,elenasrestaurante.com,None Found,+52 771 557 3186,"Rio de las Avenidas, 42083 Pachuca de Soto, Hgo., México",Restaurante, Abre a las 8a.m.,Pachuca de Soto
Bendito Restaurante,,None Found,+52 56 1181 5541,"Av Del Canal 107, San Cayetano el Bordo, 42084 Pachuca de Soto, Hgo., México",Restaurante, Abre a las 9a.m.,Pachuca de Soto
Maria Macaria,plazadelasamericas.mx,None Found,+52 771 718 4919,"Blvd. Valle de San Javier S/n, Valle de San Javier, 42086 Pachuca de Soto, Hgo., México",Restaurante, Abre a las 8a.m.,Pachuca de Soto
Shibuya District Restaurante Japonés,facebook.com,None Found,+52 771 160 5192,"Alfonso Cravioto 103, Constitución, 42080 Pachuca de Soto, Hgo., México",Restaurante japonés auténtico, Abre a la 1p.m. del mar,Pachuca de Soto
Restaurante Che Taco,chetaco.com.mx,None Found,+52 771 715 6752,"Blvrd Luis Donaldo Colosio 1207, El Palmar, Colosio, 42088 Pachuca de Soto, Hgo., México",Restaurante argentino, Abre a la 1:30p.m.,Pachuca de Soto
Cake House Viaducto,cakehousepachuca.com,"Restaurante tranquilo con un amplio menú de platos populares, incluidas opciones infantiles.",+52 771 605 5147,"Viad. Javier Rojo Gómez No. 1101, Cubitos, 42064 Pachuca de Soto, Hgo., México",Restaurante, Abre a las 8a.m.,Pachuca de Soto
Mi Gusto Es,migustoes.com.mx,None Found,+52 771 688 5717,"Camino Real de La Plata 102-local 511, Zona Plateada, 42083 Pachuca de Soto, Hgo., México",Marisquería, Abre a las 12p.m.,Pachuca de Soto
Rincón de las Ahogadas,,None Found,+52 771 199 1066,"Avenida Nuevo Pachuca. 112 Local 19 Juan C Doria, Plaza, Santa María, 42083 Pachuca de Soto, Hgo., México",Mexican torta restaurant, Abre a las 10a.m.,Pachuca de Soto
Restaurant Hayes,,None Found,+52 771 714 8434,"Blvrd Everardo Márquez 202A, Ex Hacienda de Coscotitlán, 42080 Pachuca de Soto, Hgo., México",Restaurante libanés, Abre a las 2p.m.,Pachuca de Soto
La tertulia,,None Found,+52 771 219 8808,"Puerta de Hierro, 42083 Pachuca de Soto, Hgo., México",Restaurante,,Pachuca de Soto
Local antojeria,wwww.facebook.com,None Found,+52 771 778 2366,"Av. del Palmar 105, Santa Julia, Sta Julia, 42030 Pachuca de Soto, Hgo., México",Restaurante, Abre a las 8:30a.m.,Pachuca de Soto
Restaurante Bar El Campeón 1,restaurantebarelcampeon1.com,None Found,+52 771 713 2442,"Blvrd Everardo Márquez, Ex Hacienda de Coscotitlán, 42094 Pachuca de Soto, Hgo., México",Restaurante, Abre a la 1p.m.,Pachuca de Soto
1828 Brasa y Carbón,1828brasaycarbon.mx,None Found,+52 771 556 4857,"Camino Real De La Plata #114 Nivel 1 Zona Plateada Edificio Ribara 114, 42084 Pachuca de Soto, Hgo., México",Restaurante, Cierra a las 2a.m. ,Pachuca de Soto
Casino Argentino,sites.google.com,None Found,+52 771 414 5898,"Camino Real de La Plata 209, Zona Plateada, 42084 Pachuca de Soto, Hgo., México",Restaurante argentino, Abre a la 1p.m.,Pachuca de Soto
Columba Restaurante,facebook.com,None Found,+52 771 169 0063,"dentro de Altea Luxury and Living, Blvd. Profesor, Blvrd Ramón G. Bonfil #1800, El Palmar, 42084 Pachuca de Soto, Hgo., México",Restaurante familiar, Abre a las 8:30a.m.,Pachuca de Soto
Sukoi,sukoi.mx,None Found,+52 771 473 6229,"Blvd. Valle de San Javier No. 202, Plaza Plathea Fracc, Valle de San Javier, 42086 Pachuca de Soto, Hgo., México",Restaurante japonés, Abre a las 2p.m.,Pachuca de Soto
Lisu Delicioso & Saludable,facebook.com,None Found,+52 771 714 7873,"Dr. Manuel del Corral 203-A, Real de Minas, 42090 Pachuca de Soto, Hgo., México",Restaurante vegetariano, Abre a las 9a.m. del lun,Pachuca de Soto
Aldamary Sucursal San Javier,,None Found,+52 771 145 5555,"San Javier 707, Valle de San Javier, 42086 Pachuca de Soto, Hgo., México",Marisquería, Abre a las 11a.m.,Pachuca de Soto
La Cactacea,,None Found,,"Zona Plateada, 42084 Pachuca de Soto, Hgo., México",Restaurante, Abre a las 2:15p.m.,Pachuca de Soto
Restaurante Mirage,,Comedor familiar con aire relajado en donde se ofrece menú del día de comida internacional con toque mexicano.,+52 771 107 0347,"Carretera, Pachuca-Tulancingo #1000, Carboneras, 42181 Hgo., México",Restaurante, Abre a las 9a.m.,Pachuca de Soto
Los Sabores de Hidalgo,,None Found,+52 771 713 5963,"Dr. Manuel del Corral 102, Real de Minas, 42090 Pachuca de Soto, Hgo., México",Restaurante mexicano, Abre a las 8a.m.,Pachuca de Soto
SOY DE MAR,facebook.com,None Found,+52 771 273 1739,"Valle de San Javier #114, Valle de San Javier, 42064 Pachuca de Soto, Hgo., México",Pub restaurante, Abre a las 2p.m. del lun,Pachuca de Soto
Restaurante Valentina Comedor,valentinacomedor4.wixsite.com,None Found,+52 771 714 5892,"Blvrd Everardo Márquez 2007, Adolfo López Mateos, 42094 Pachuca de Soto, Hgo., México",Restaurante,,Pachuca de Soto
Dulxe restaurante de postres,fb.me,None Found,+52 771 363 8097,"Adrian Guerrero Díaz 107 A, Periodistas, 42060 Pachuca de Soto, Hgo., México",Restaurante de postres, Abre a las 9a.m.,Pachuca de Soto
Dulxe restaurante de postres,fb.me,None Found,+52 771 363 8097,"Adrian Guerrero Díaz 107 A, Periodistas, 42060 Pachuca de Soto, Hgo., México",Restaurante de postres, Abre a las 9a.m.,Pachuca de Soto
Ronny Cafe Restaurant,,None Found,+52 771 713 9481,"Blvrd Felipe Angeles 1870, Sta Julia, 42080 Pachuca de Soto, Hgo., México",Restaurante familiar, Abre a las 9a.m.,Pachuca de Soto
La Tartine Boulangerie - Zona Plateada,latartine.mx,None Found,+52 771 688 6133,"42084, Zona Plateada, 42084 Pachuca de Soto, Hgo., México",Restaurante, Abre a las 8a.m.,Pachuca de Soto
Homero Ranchero Pachuca,,None Found,+52 771 675 7527,"Cl. Miguel Hidalgo 305, Centro, 42000 Pachuca de Soto, Hgo., México",Restaurante, 1a.m. ,Pachuca de Soto
Restaurante Ojo de Agua Pachuca,grupoojodeagua.com.mx,None Found,+52 771 489 1061,"Camino Real de La Plata Manzana 3-lote 15, Zona Plateada, 42083 Pachuca de Soto, Hgo., México",Restaurante, Abre a las 8:30a.m.,Pachuca de Soto
Porco Rosso BBQ Explanada Pachuca,porcorossobbq.mx,None Found,+52 771 489 2614,"Autopista México Pachuca 6201, Local E-14, San Antonio el Desmonte, 42111 Pachuca de Soto, Hgo., México",Restaurante especializado en barbacoa, Abre a la 1p.m.,Pachuca de Soto
Domino's Galerías Pachuca,dominosmx.app.link,"Centro comercial amplio de 2 pisos con tiendas por departamentos, boutiques, servicios y restaurantes.",+52 771 133 0076,"Camino Real de La Plata 100, Zona Plateada, 42083 Pachuca de Soto, Hgo., México",Pizzería, Abre a las 11a.m.,Pachuca de Soto
Sakura Roll San Javier,sakuraroll.mx,None Found,+52 771 710 3669,"Blvd. Valle de San Javier 112, Valle de San Javier, 42086 Pachuca de Soto, Hgo., México",Restaurante japonés, Abre a la 1p.m.,Pachuca de Soto
Sakura Roll San Javier,sakuraroll.mx,None Found,+52 771 710 3669,"Blvd. Valle de San Javier 112, Valle de San Javier, 42086 Pachuca de Soto, Hgo., México",Restaurante japonés, Abre a la 1p.m.,Pachuca de Soto
Enchiladas Huastecas La Finca de San Francisco,facebook.com,None Found,+52 771 243 0088,"Calle Prol. Narciso Mendoza 1027, Morelos, 42040 Pachuca de Soto, Hgo., México",Restaurante mexicano, Abre a las 10a.m.,Pachuca de Soto
Mis Amores Cocina Mexicana,,None Found,+52 771 778 3336,"Av Del Venado 102, Issste, 42083 Pachuca de Soto, Hgo., México",Restaurante, Abre a las 8a.m. del lun,Pachuca de Soto
ALVENTO Restaurante,,None Found,+52 771 138 3026,"Camino Real de La Plata 106-LOCAL 3, Zona Plateada, 42084 Pachuca de Soto, Hgo., México",Restaurante, Abre a las 2p.m. del lun,Pachuca de Soto
Cachito Lindo y Querido,cachitolindoyquerido.com.mx,None Found,+52 771 260 6300,"Viad. Javier Rojo Gómez 607, Cubitos, 42090 Pachuca de Soto, Hgo., México",Restaurante mexicano, Abre a las 8a.m.,Pachuca de Soto
La Doña San Javier,,None Found,+52 771 101 4571,"Blvd. Valle de San Javier 214, Valle de San Javier, 42086 Pachuca de Soto, Hgo., México",Restaurante, Abre a las 8:30a.m. del lun,Pachuca de Soto
Ronny Café,,None Found,+52 771 107 3547,"Blvrd Luis Donaldo Colosio 2009, Ex-hacienda de Coscotitlán, 42064 Pachuca de Soto, Hgo., México",Restaurante, Abre a las 9a.m.,Pachuca de Soto
Italianni’s,italiannis.com.mx,None Found,+52 771 688 5639,"Camino Real de La Plata 100, Zona Plateada, 42083 Pachuca de Soto, Hgo., México",Restaurante, Abre a las 11a.m.,Pachuca de Soto
Fika café & bar,facebook.com,None Found,+52 771 778 3436,"Gral. Daniel Cerecedo Estrada 105, Revolución, 42060 Pachuca de Soto, Hgo., México",Cafetería, Abre a las 9a.m.,Pachuca de Soto
Luna Park Vía Madeira’s,facebook.com,None Found,+52 771 582 0174,"Blvrd Nuevo Hidalgo 210, Los Jales, 42083 Pachuca de Soto, Hgo., México",Restaurante de brunch, Abre a las 9a.m.,Pachuca de Soto
Machin Pizza & Bistro,,None Found,+52 771 346 9006,"Parque Hidalgo 130, Centro, 42000 Pachuca de Soto, Hgo., México",Pizzería, Abre a la 1p.m.,Pachuca de Soto
Antiguo café San Javier,,None Found,+52 771 688 3878,"Blvd. Valle de San Javier 219, Valle de San Javier, 42086 Pachuca de Soto, Hgo., México",Restaurante, Abre a las 8a.m.,Pachuca de Soto
