Names,Website,Introduction,Phone Number,Address,Type,Opens At,Municipio
El Fogón,,None Found,+52 844 488 1888,"Carretera Monterrey- Saltillo km 9.5, Capellanía, Ramos Arizpe, Coah., México",Restaurante, Abre a las 9a.m.,Ramos Arizpe
Laguna De Alvarado,facebook.com,"Platillos caseros con pescados, langostinos y almejas, en un lugar informal con mural artístico.",+52 844 488 0224,"Luís Gutiérrez 279, Blanca Esthela, 25904 Ramos Arizpe, Coah., México",Marisquería, Abre a las 11:30a.m.,Ramos Arizpe
La Estación Ramos Arizpe,facebook.com,None Found,+52 844 787 9835,"Blvrd Plan de Guadalupe 625, Eulalio Gutiérrez, 25903 Ramos Arizpe, Coah., México",Restaurante, Abre a la 1p.m.,Ramos Arizpe
LA CASITA DEL ANTOJO RAMOS ARIZPE,,None Found,+52 844 315 9006,"Blvrd Manuel Acuña 113, Zona Centro, 25900 Ramos Arizpe, Coah., México",Restaurante, Abre a las 8a.m. del lun,Ramos Arizpe
Restaurante Las Palmas,,None Found,+52 844 488 0263,"México 40, Sin Nombre de Col 4, 25903 Ramos Arizpe, Coah., México",Restaurante mexicano, Cierra a las 10a.m.,Ramos Arizpe
Rooka Restaurant Bar,,None Found,,"C. de la Fuente 148, Zona Centro, 25900 Ramos Arizpe, Coah., México",Bar restaurante,,Ramos Arizpe
Mariscos El Capitán,,None Found,+52 844 497 1194,"Blvrd Plan de Guadalupe 116, Eulalio Gutiérrez, 25903 Ramos Arizpe, Coah., México",Marisquería, Abre a las 12p.m.,Ramos Arizpe
Kaori Ramen,,None Found,+52 844 236 3781,"Lic. Gustavo Díaz Ordaz 1740, Col del Valle I, 25903 Ramos Arizpe, Coah., México",Restaurante japonés, Abre a las 2p.m.,Ramos Arizpe
Kazoku grill,facebook.com,None Found,+52 81 8175 5083,"Calle Blvd. Jaime Benavides Pompa 400, Sin Nombre de Col 4, 25903 Ramos Arizpe, Coah., México",Restaurante de sushi,,Ramos Arizpe
Picanha y carvão Ramos Arizpe,,None Found,+52 844 488 1009,"Carr. Monterrey - Saltillo Km 10, Centro, 25904 Ramos Arizpe, Coah., México",Restaurante, Abre a las 12p.m.,Ramos Arizpe
Tacos Los Pioneros,lospionerosdesaltillo.com,None Found,+52 844 488 1623,"Lic. Gustavo Díaz Ordaz 1265, Sin Nombre de Col 1, 25904 Ramos Arizpe, Coah., México",Taquería, Abre a las 7a.m.,Ramos Arizpe
Las Trancas,,None Found,+52 844 141 7079,"Calle Valentín Gómez Farías, Zona Centro, 25900 Ramos Arizpe, Coah., México",Bar restaurante, Abre a las 11:30a.m.,Ramos Arizpe
Takitos Rossy,,None Found,,"Blvrd Plan de Guadalupe 152, Zona Centro, 25900 Ramos Arizpe, Coah., México",Taquería, Cierra a las 3p.m.,Ramos Arizpe
Playa Norteña,facebook.com,None Found,+52 844 352 8751,"Calle Blvd. Jaime Benavides Pompa, Sin Nombre de Col 4, 25903 Ramos Arizpe, Coah., México",Marisquería, Abre a las 12p.m.,Ramos Arizpe
Comida Mexicana Las Cazuelas,,None Found,+52 844 696 9859,"Mercado Mario Gómez local 38, Niños Heroes, San Antonio, 25903 Ramos Arizpe, Coah., México",Restaurante mexicano, Abre a las 8a.m.,Ramos Arizpe
Dolce Vita Comida Casera,,None Found,+52 844 163 2927,"Blvrd Manuel Acuña 114, Zona Centro, 25900 Ramos Arizpe, Coah., México",Restaurante, Abre a las 8a.m. del lun,Ramos Arizpe
La Toluqueña,m.facebook.com,None Found,+52 844 488 2813,"Calle Prol. Blvd. del Valle LB, Col del Valle I, 25904 Ramos Arizpe, Coah., México",Taquería, Abre a las 9a.m.,Ramos Arizpe
El Caramelo,instagram.com,None Found,+52 844 225 8009,"Alberto Castro 950-1, Guanajuato de Abajo, 25904 Ramos Arizpe, Coah., México",Restaurante de desayunos, Abre a las 8a.m.,Ramos Arizpe
Copelos,,None Found,+52 844 488 3923,"Cerro La Ventura 326, Col del Valle I, 25904 Ramos Arizpe, Coah., México",Restaurante, Abre a las 7a.m.,Ramos Arizpe
LA TEQUILERA. Cocina y Bar,,None Found,,"Blvrd Plan de Guadalupe, Zona Centro, 25900 Ramos Arizpe, Coah., México",Restaurante,,Ramos Arizpe
All i Oli Su Cocina,,None Found,+52 4881715,"25900, Blvrd Plan de Guadalupe 700, Eulalio Gutiérrez, Ramos Arizpe, Coah., México",Restaurante, Abre a las 8a.m. del lun,Ramos Arizpe
Carl's Jr. Ramos Arizpe,,None Found,,"Carr. Monterrey - Saltillo 6219, Sin Nombre de Col 4, 25903 Ramos Arizpe, Coah., México",Hamburguesería, Abre a las 8a.m.,Ramos Arizpe
"Astro Burger, Ramos Arizpe - 43 Años de experiencia",instagram.com,None Found,+52 844 149 6671,"Lic. Gustavo Díaz Ordaz 1740, Col del Valle I, 25904 Ramos Arizpe, Coah., México",Hamburguesería, Abre a las 12p.m.,Ramos Arizpe
El Rincón del Vaquero,,None Found,+52 844 488 0331,"S. Nicolás de La Capellanía 110, Centro, 25903 Ramos Arizpe, Coah., México",Restaurante mexicano, Abre a las 8:30a.m. del lun,Ramos Arizpe
El Húngaro,,None Found,+52 844 728 3710,"Calle Melchor Ocampo, Zona Centro, 25900 Ramos Arizpe, Coah., México",Restaurante, Abre a las 8a.m.,Ramos Arizpe
LOS CEDROS RESTAURANT,,None Found,+52 844 594 7275,"259003, 25900 Ramos Arizpe, Coah., México",Restaurante, Abre a las 8a.m. del lun,Ramos Arizpe
Guajillos Grill,,None Found,+52 844 488 6907,"Santuario 300, Capellanía, 25903 Ramos Arizpe, Coah., México",Taquería, Abre a las 11a.m.,Ramos Arizpe
Mariscos Periquin,,None Found,+52 844 180 9900,"25900, Carr. Monterrey - Saltillo 7, Eulalio Gutiérrez, Ramos Arizpe, Coah., México",Marisquería, Abre a las 11a.m.,Ramos Arizpe
Restaurant cielito lindo,,None Found,+52 844 163 8101,"Los Pinos, Sin Nombre de Col 6, 25900 Ramos Arizpe, Coah., México",Restaurante mexicano, Abre a las 7a.m. del lun,Ramos Arizpe
Quesadillas México La fé,,None Found,+52 844 343 9850,"C. Benito Juárez 154, Zona Centro, 25900 Ramos Arizpe, Coah., México",Restaurante mexicano, Abre a las 9a.m.,Ramos Arizpe
El plato del buen comer,,None Found,,"Chihuahua 827, 25903 Ramos Arizpe, Coah., México",Restaurante, Abre a las 8a.m. del lun,Ramos Arizpe
Nikkori,nikkori.mx,None Found,+52 844 488 4422,"Carretera Saltillo - Monterrey Km 11.8 S/N, Eulalio Gutiérrez, 25903 Ramos Arizpe, Coah., México",Restaurante japonés, Abre a las 12p.m.,Ramos Arizpe
"Las Enchiladas, Antojitos Veracruzanos.",,None Found,+52 844 407 0211,"Cerro de Los Robles 1200, La Hacienda, 25903 Ramos Arizpe, Coah., México",Restaurante, Abre a las 10a.m.,Ramos Arizpe
El Timonel,,None Found,+52 844 454 9803,"Melchor Ocampo 308, Centro, 25900 Ramos Arizpe, Coah., México",Marisquería, Abre a las 10a.m.,Ramos Arizpe
Los Güeros,,None Found,+52 844 488 4141,"Calle Blvd. Jaime Benavides Pompa 607, Del Valle, 25904 Ramos Arizpe, Coah., México",Restaurante, Abre a las 5:30p.m.,Ramos Arizpe
Bon House (Boneless y Alitas),,None Found,+52 844 212 5725,"Jaime Benavides Pompa, Calle Prol. Blvd. del Valle 473 Col, 25903 Ramos Arizpe, Coah., México",Restaurante de comida rápida, Abre a las 7p.m. del mié,Ramos Arizpe
Los Caporales Steakhouse Restaurant Buffet,,None Found,,"José María Morelos 253, Zona Centro, 25900 Ramos Arizpe, Coah., México",Restaurante,,Ramos Arizpe
Puerto Anáhuac,facebook.com,None Found,+52 844 112 7918,"Blvrd Manuel Acuña 105, Capellanía, 25903 Ramos Arizpe, Coah., México",Marisquería, Abre a las 10a.m.,Ramos Arizpe
Restaurant Don Pit II,,None Found,+52 844 495 2082,"Miguel Ramos Arizpe Capellanía, 25903 Ramos Arizpe, Coah., México",Restaurante mexicano, Abre a las 8a.m. del lun,Ramos Arizpe
Parador Santa María,facebook.com,None Found,+52 844 288 6575,"Carretera Saltillo Monterrey Km. 17.722 Int. 2, Parque Industrial Santa María, 25903 Ramos Arizpe, México",Restaurante mexicano, Abre a las 9a.m.,Ramos Arizpe
La Gordería Ramos Arizpe,facebook.com,None Found,+52 844 228 0594,"Blvd. Arnoldo Saucedo Ayala 2651-Interior 4, Sin Nombre de Col 1, 25904 Ramos Arizpe, Coah., México",Restaurante mexicano, Abre a las 8a.m.,Ramos Arizpe
Taqueria Copacabana,,None Found,+52 844 488 1769,"Blvrd Plan de Guadalupe 251, Zona Centro, 25900 Ramos Arizpe, Coah., México",Taquería, Abre a las 9a.m.,Ramos Arizpe
La Playita de Ramos,,None Found,+52 844 488 2800,"José María Morelos 833, Zona Centro, 25900 Ramos Arizpe, Coah., México",Marisquería, Abre a las 9a.m.,Ramos Arizpe
La Playita de Ramos,,None Found,+52 844 488 2800,"José María Morelos 833, Zona Centro, 25900 Ramos Arizpe, Coah., México",Marisquería, Abre a las 9a.m.,Ramos Arizpe
Norteño Wings,,None Found,+52 844 490 2259,"Blvrd Manuel Acuña 100, Capellanía, 25903 Ramos Arizpe, Coah., México",Restaurante de alas de pollo, Abre a la 1p.m.,Ramos Arizpe
Las Cazuelas De Tutis,,None Found,+52 844 315 8641,"25900, Emilio Carranza 106, Zona Centro, 25900 Ramos Arizpe, Coah., México",Restaurante, Abre a las 2p.m.,Ramos Arizpe
El Casinito,,None Found,+52 844 488 1700,"Lic. Juan Antonio de La Fuente Ote. 279, Centro, 25900 Ramos Arizpe, Coah., México",Bar, Abre a las 12p.m. del lun,Ramos Arizpe
Súper Doggy’s Ramos Arizpe,,None Found,+52 844 129 1013,"25900, Calle Blvd. Gustavo Díaz Ordaz, Del Valle 1269, 25904 Coah., México",Hamburguesería, Abre a las 6:30p.m.,Ramos Arizpe
Macarmen Comida Mexicana,,None Found,,"C. de las Haciendas 348-A, La Hacienda II, 25903 Ramos Arizpe, Coah., México",Restaurante mexicano, Abre a las 9a.m.,Ramos Arizpe
Don Diablo Burgers Suc Ramos arizpe,facebook.com,None Found,+52 844 870 5832,"Elsa Hernandez 2396-3 esq, Blvrd. del Valle, Lomas del Valle, 25903 Ramos Arizpe, Coah., México",Hamburguesería, Abre a las 6p.m.,Ramos Arizpe
Tacos Raúl,,None Found,+52 844 495 0142,"Blvrd Plan de Guadalupe 168, Zona Centro, 25400 Ramos Arizpe, Coah., México",Taquería, Abre a las 5p.m.,Ramos Arizpe
Pepos Burger,facebook.com,None Found,+52 844 378 6779,"Calle Blvd. Jaime Benavides Pompa, Cañada de las rosas, 25903 Ramos Arizpe, Coah., México",Hamburguesería, Abre a las 2p.m.,Ramos Arizpe
Don Artemio,donartemio.com,"Moderna cocina mexicana de autor, mezcales y vinos regionales en un enorme restaurante de refinada decoración.",+52 844 432 5550,"Blvd. Venustiano Carranza 8550, Valle Hermoso, 25207 Saltillo, Coah., México",Restaurante mexicano, Abre a las 9a.m.,Ramos Arizpe
Gorditas Toño de Saltillo - Ramos Arizpe,,None Found,+52 844 537 3133,"Blvrd Plan de Guadalupe 1301, El Cactus, 25903 Ramos Arizpe, Coah., México",Restaurante, Abre a las 8:30a.m. del lun,Ramos Arizpe
RESTAURANT GARCIA RAMOS,restaurantgarcia.com,None Found,+52 81 8659 3276,"Carr. Monterrey - Saltillo KM 25, COL OJO CALIENTE, 25933 Ramos Arizpe, Coah., México",Restaurante mexicano, Abre a las 7a.m.,Ramos Arizpe
El Torito Food & Pisto,facebook.com,None Found,,"Juan Antonio de la Fuente 198, Centro, 25900 Ramos Arizpe, Coah., México",Bar restaurante, Abre a las 12p.m. del lun,Ramos Arizpe
Los nogales,,None Found,+52 844 488 9452,"Blvrd Plan de Guadalupe 389, Eulalio Gutiérrez, 25903 Ramos Arizpe, Coah., México",Bar restaurante, Abre a las 6p.m.,Ramos Arizpe
Church's Texas Chicken,churchs.com.mx,"Cadena de comida rápida que ofrece pollo frito, sándwiches, alitas y acompañamientos estilo sureño.",+52 844 412 8000,"Carr. Monterrey - Saltillo 6219, Zona Centro, 25900 Ramos Arizpe, Coah., México",Restaurante especializado en pollo, Abre a las 10a.m.,Ramos Arizpe
Meraki Sushi Ramos Arizpe,facebook.com,None Found,+52 844 364 9501,"Río Mixcoac 400, Manantiales del Valle, Quinta Manantiales, 25904 Ramos Arizpe, Coah., México",Restaurante de sushi, Abre a las 12p.m.,Ramos Arizpe
Gorditas Becerra´s Ranch,negocio.site,None Found,+52 844 869 6544,"Blvrd Manuel Acuña 110, Zona Centro, 25900 Ramos Arizpe, Coah., México",Restaurante mexicano, Abre a las 8:30a.m.,Ramos Arizpe
Gorditas Becerra´s Ranch,negocio.site,None Found,+52 844 869 6544,"Blvrd Manuel Acuña 110, Zona Centro, 25900 Ramos Arizpe, Coah., México",Restaurante mexicano, Abre a las 8:30a.m.,Ramos Arizpe
Sazon Del Norte,sazondelnorte.com.mx,None Found,,"Oscar Flores Tapia 115, La Esmeralda, 25902 Ramos Arizpe, Coah., México",Restaurante, Abre a las 7:30a.m. del lun,Ramos Arizpe
Little Ceasars,littlecaesars.com,"Cadena de comida para llevar que ofrece alitas de pollo, palitos de pan y pizza hecha con masa casera.",+52 694 350 6182,"Carretera Monterrey-Saltillo, Blvrd. del Valle esq, 25903 Ramos Arizpe, Coah., México",Pizzería, Abre a las 10a.m.,Ramos Arizpe
Vito,,None Found,+52 844 149 6639,"Boulevard Manuel Acuña, Capellanía 100, 25900 Ramos Arizpe, Coah., México",Restaurante italiano, Cierra a las 11a.m. ,Ramos Arizpe
Mi Pequeño Ale,,None Found,+52 844 494 6758,"C. Sindicalismo 123, Fidel Velázquez, 25903 Ramos Arizpe, Coah., México",Restaurante, Abre a las 8a.m.,Ramos Arizpe
Los molcajetes,,None Found,+52 844 681 8063,"Blvrd Plan de Guadalupe 105, Villa Magna, 25903 Ramos Arizpe, Coah., México",Restaurante mexicano, Abre a las 8a.m. del lun,Ramos Arizpe
Jalisco,,None Found,+52 844 247 2855,"Blvrd Plan de Guadalupe 256, Zona Centro, 25900 Ramos Arizpe, Coah., México",Taquería, Abre a las 4:30p.m.,Ramos Arizpe
La Cazuela de Lalos,,None Found,+52 844 488 2333,"Las Torres 1550, Molinos del Rey, 25903 Ramos Arizpe, Coah., México",Restaurante mexicano, Abre a las 8a.m. del lun,Ramos Arizpe
Sibe Ramos,,None Found,+52 844 475 5052,"Benito Juárez 129 Local 2, Centro, 25900 Ramos Arizpe, México",Restaurante de comida rápida, Abre a las 11a.m.,Ramos Arizpe
Sibe Ramos,,None Found,+52 844 475 5052,"Benito Juárez 129 Local 2, Centro, 25900 Ramos Arizpe, México",Restaurante de comida rápida, Abre a las 11a.m.,Ramos Arizpe
Las Tortugas,,None Found,+52 844 103 7058,"Cerro de Las Flores 24, Col del Valle I, 25904 Ramos Arizpe, Coah., México",, Abre a las 12p.m.,Ramos Arizpe
Taquitos Orta,,None Found,+52 844 806 4805,"Blvd. Díaz Ordaz S/N, Blanca Estela, 25904 Ramos Arizpe, Coah., México",Taquería, Abre a las 5p.m.,Ramos Arizpe
Carnitas Mi Hermoso Michoacán,,None Found,+52 844 258 6814,"Blvrd Plan de Guadalupe, Año de Juárez, 25903 Ramos Arizpe, Coah., México",Restaurante mexicano, Abre a las 8a.m.,Ramos Arizpe
Rico Pollo,,None Found,+52 844 488 4600,"Calle Melchor Ocampo 257, Zona Centro, 25900 Ramos Arizpe, Coah., México",Restaurante especializado en pollo, Abre a las 10a.m.,Ramos Arizpe
Chona Maria Almuerzos y Comidas,,None Found,,"Ignacio Allende 284, Zona Centro, 25900 Ramos Arizpe, Coah., México",Restaurante de desayunos,,Ramos Arizpe
Buffhello,facebook.com,None Found,+52 844 431 7225,"Carr. Monterrey - Saltillo 9-28 km, Eulalio Gutiérrez, 25903 Ramos Arizpe, Coah., México",Restaurante de alas de pollo, Abre a la 1p.m.,Ramos Arizpe
Taqueria El Pastor,,None Found,+52 844 112 8971,"Calle Blvd. Jaime Benavides Pompa 623, La Hacienda, 25903 Ramos Arizpe, Coah., México",Restaurante mexicano, Abre a la 1p.m.,Ramos Arizpe
El Pollo Loco,elpolloloco.com.mx,"Cadena de comida rápida local, famosa por los clásicos mexicanos preparados con pollo a la parrilla.",+52 800 999 5626,"Carr. Monterrey - Saltillo, Eulalio Gutiérrez 7, Centro, 25900 Ramos Arizpe, Coah., México",Restaurante especializado en pollo, Abre a las 10a.m.,Ramos Arizpe
Flautitas Ramos Arizpe,,None Found,+52 844 173 9413,"Calle Blvd. Jaime Benavides Pompa 375, La Hacienda, 25903 Ramos Arizpe, Coah., México",Buffet libre,,Ramos Arizpe
Pacifix Ramos Arizpe,,None Found,,"La Hacienda, 25903 Ramos Arizpe, Coah., México",Marisquería, Abre a las 10a.m.,Ramos Arizpe
Dulces Típicos SanQuez,facebook.com,None Found,+52 844 212 2368,"V Carranza 186-1 Casi esquina con, Calle Melchor Ocampo, 25900 Ramos Arizpe, Coah., México",Bufé de dulces y repostería, Abre a las 10a.m. del lun,Ramos Arizpe
La parrillita,,None Found,,"Blvrd Plan de Guadalupe 650, Zona Centro, 25903 Ramos Arizpe, Coah., México",Restaurante, Abre a la 1p.m.,Ramos Arizpe
Burritos Express Restaurante,,None Found,+52 844 505 5106,"Justo Sierra 155, Molinos del Rey, 25903 Ramos Arizpe, Coah., México",Restaurante de brunch, Cierra a las 10p.m.,Ramos Arizpe
Viridi Coffee Garden,viridicoffeegarden.com,None Found,+52 844 488 3456,"Boulevard Jaime Benavides Pompa #380 int 81, Col, La Hacienda, 25903 Ramos Arizpe, Coah., México",Cafetería, Abre a las 8:30a.m. del lun,Ramos Arizpe
Gorditas El Sabor de Mamá,,None Found,+52 844 240 2556,"Boulevard Plan de Guadalupe, Eulalio Gutiérrez, 25903 Ramos Arizpe, Coah., México",Restaurante, Abre a las 7:15a.m. del lun,Ramos Arizpe
Tacos Los 3 Garcia,,None Found,+52 844 298 5581,"C. Sindicalismo 100, Fidel Velázquez, 25903 Ramos Arizpe, Coah., México",Taquería, Abre a las 8:30a.m.,Ramos Arizpe
Fusion Asia,,None Found,+52 844 490 2272,"Blvrd Plan de Guadalupe 1200-Int. FF007, Zona Centro, 25903 Ramos Arizpe, Coah., México",Restaurante asiático, Abre a las 11:30a.m.,Ramos Arizpe
Taqueria Familiar,facebook.com,None Found,+52 844 319 0098,"Blvrd Plan de Guadalupe 112, Zona Centro, 25900 Ramos Arizpe, Coah., México",Taquería, Abre a las 6:30p.m.,Ramos Arizpe
Pollo Patron,,None Found,+52 844 488 4533,"José María Morelos 266, Zona Centro, 25900 Ramos Arizpe, Coah., México",Restaurante de comida de la Cuenca del Pacífico, Abre a las 8a.m.,Ramos Arizpe
Pa´Ti Pa´Mi Restaurante,,None Found,+52 844 443 7934,"Calle Blvd. Jaime Benavides Pompa 134, La Hacienda, 25903 Ramos Arizpe, Coah., México",Restaurante, Abre a la 1p.m.,Ramos Arizpe
Buffalo Wings,,None Found,+52 844 501 2302,"13, 25903, Calle San Miguel 1150, Eulalio Gutiérrez, 25903 Ramos Arizpe, Coah., México",Restaurante de alas de pollo,,Ramos Arizpe
Burri To Go,,None Found,+52 844 488 4808,"Blvrd. del Valle 1150, Eulalio Gutiérrez, 25903 Ramos Arizpe, Coah., México",Restaurante de comida rápida, Abre a las 9a.m.,Ramos Arizpe
Lonches laguneros Ramos Arizpe,,None Found,+52 844 469 4888,"Miguel, Capellanía, 25903 Ramos Arizpe, Coah., México",Restaurante de comida rápida, Abre a las 9a.m.,Ramos Arizpe
Super Salads Ramos Arizpe,,None Found,+52 844 585 6436,"Calle Blvd. Jaime Benavides Pompa, Sin Nombre de Col 4, 25903 Ramos Arizpe, Coah., México",Tienda de ensaladas, Abre a las 11:30a.m.,Ramos Arizpe
"Barbacoa de Borrego ""Acaxochi Junior's""",,None Found,+52 844 158 3422,"Blvd. Arnoldo Saucedo Ayala 2081, Capellanía, 25903 Ramos Arizpe, Coah., México",Asador de cordero, Abre a las 7a.m.,Ramos Arizpe
Nutritive Food,facebook.com,None Found,+52 844 198 1735,"Emilio Carranza, Zona Centro, 25900 Ramos Arizpe, Coah., México",Restaurante, Abre a las 9a.m. del lun,Ramos Arizpe
"Desayuno, Comida Y Antojitos Pati",,None Found,,"25905 Ramos Arizpe, Coah., México",Restaurante, Abre a las 8a.m. del lun,Ramos Arizpe
La Isla de la Plata,,None Found,+52 844 567 0618,"Carretera Saltillo-Monterrey Km 11.5 Int. 6, Eulalio Gutiérrez, 25903 Ramos Arizpe, México",Restaurante de cocina mandarina, Abre a las 10a.m.,Ramos Arizpe
Quesadillas el hidalguense,,None Found,+52 826 153 6243,"José María Morelos 259, Zona Centro, 25900 Ramos Arizpe, Coah., México",Restaurante mexicano,,Ramos Arizpe
Doña Gela,,None Found,,"David Martínez Soto 101, Eulalio Gutiérrez, 25903 Ramos Arizpe, Coah., México",Restaurante de comida rápida, Cierra a las 12p.m.,Ramos Arizpe
Eros Pizza,,None Found,+52 844 488 6515,"José María Morelos 820, Zona Centro, 25900 Ramos Arizpe, Coah., México",Pizzería, Abre a las 2p.m.,Ramos Arizpe
Dorita,,None Found,+52 844 488 0176,"C. Gustavo Espinoza Mireles 113, Zona Centro, 25900 Ramos Arizpe, Coah., México",Restaurante de postres, Abre a las 3p.m. del lun,Ramos Arizpe
Hong Kong City,,None Found,+52 800 377 2583,"Blvrd Plan de Guadalupe 1200, Fidel Velázquez, 25900 Ramos Arizpe, Coah., México",Restaurante de cocina mandarina, Abre a las 11a.m.,Ramos Arizpe
Mister Pizza Ramos Arizpe,misterpizza.com.mx,None Found,+52 844 488 1010,"Blvrd Plan de Guadalupe 1200, Sin Nombre de Col 8, 25903 Ramos Arizpe, Coah., México",Pizzería, Abre a las 11a.m.,Ramos Arizpe
Mister Pizza Ramos Arizpe,misterpizza.com.mx,None Found,+52 844 488 1010,"Blvrd Plan de Guadalupe 1200, Sin Nombre de Col 8, 25903 Ramos Arizpe, Coah., México",Pizzería, Abre a las 11a.m.,Ramos Arizpe
Carnitas los tres cochinitos,,None Found,+52 844 561 3765,"Diecinueve 600, Analco I, 25902 Ramos Arizpe, Coah., México",Restaurante mexicano, Abre a las 9a.m.,Ramos Arizpe
Morelos 203,,None Found,+52 844 140 1990,"José María Morelos 203, Zona Centro, 25900 Ramos Arizpe, Coah., México",Restaurante,,Ramos Arizpe
Casa de León Arratia,,None Found,+52 844 484 2565,"calle 1 de mayo esquina con articulo 5° # 450 Col. Fidel Velazquez, 25903 Ramos Arizpe, Coah., México",Comida a domicilio,,Ramos Arizpe
Pollo Feliz Capellanía,pollofelizsaltillo.com.mx,"Cadena informal que ofrece pollo estilo mexicano, además de otros platos tradicionales y aguas frescas.",+52 844 111 0373,"Miguel Ramos Arizpe, Capellanía 19, 25903 Ramos Arizpe, Coah., México",Restaurante especializado en pollo, Abre a las 10a.m.,Ramos Arizpe
La Piazza Pizza,facebook.com,None Found,+52 775 169 0466,"C. Benito Juárez 162, Zona Centro, 25900 Ramos Arizpe, Coah., México",Pizzería, Abre a las 10a.m.,Ramos Arizpe
La Chimenea,m.facebook.com,None Found,+52 844 292 3661,"Blvrd Plan de Guadalupe 650 Col, Eulalio Gutiérrez, 25904 Ramos Arizpe, Coah., México",Restaurante, Abre a las 8a.m. del lun,Ramos Arizpe
Ram's Burguer,,None Found,,"Emilio Carranza, José María Morelos 898 esquina, Zona Centro, 25900 Ramos Arizpe, Coah., México",Hamburguesería, Abre a las 7p.m.,Ramos Arizpe
De pastor para mi amor de asada para mí amada,,None Found,+52 844 278 6273,"Calle, Calle Prol. Blvd. del Valle, La Hacienda III, 25903 Ramos Arizpe, Coah., México",Restaurante mexicano, Abre a las 6p.m.,Ramos Arizpe
MOSOS Bar,facebook.com,None Found,,"Capellanía, 25900 Ramos Arizpe, Coah., México",Bar restaurante, Abre a las 12p.m.,Ramos Arizpe
La cocina de la Abuela,,None Found,,"C. Benito Juárez 168, Zona Centro, 25900 Ramos Arizpe, Coah., México",Restaurante de comida rápida,,Ramos Arizpe
Mr. Pollo Asado Al Carbon,,None Found,+52 844 488 2124,"C. Benito Juárez 135A, Zona Centro, 25900 Ramos Arizpe, Coah., México",Restaurante especializado en pollo, Abre a las 12p.m.,Ramos Arizpe
Tamales Caseros,,None Found,+52 844 488 0593,"Calle Melchor Ocampo 254, Centro, 25900 Ramos Arizpe, Coah., México",Restaurante, Abre a las 9:30a.m.,Ramos Arizpe
EL DRAGON DE LA SUERTE,,None Found,,"Zona Centro, 25900 Ramos Arizpe, Coah., México",Comida china para llevar, Abre a las 8:30a.m.,Ramos Arizpe
EL DRAGON DE LA SUERTE,,None Found,,"Zona Centro, 25900 Ramos Arizpe, Coah., México",Comida china para llevar, Abre a las 8:30a.m.,Ramos Arizpe
Antojo & Express,,None Found,+52 844 892 7463,"23457 tepiscoelhoyo, 27484 Ramos Arizpe, Coah., México",Restaurante de comida continental, Abre a las 12a.m. del lun,Ramos Arizpe
