Names,Website,Introduction,Phone Number,Address,Type,Opens At,Municipio
El Nido,el-nido-restaurante.shop,"Local con patio a la sombra y barra circular donde se sirven carnes a la parrilla de leña, venado y codorniz.",+52 661 612 1430,"Blvd. Benito Juárez 67, Fundo Legal, 22710 Playas de Rosarito, B.C., México",Bar restaurante,,Rosarito
La Estancia,laestanciarosarito.com,None Found,+52 661 613 0695,"Calle, Francisco Villa 316, Villa de Guadalupe, 22710 Playas de Rosarito, B.C., México",Bar restaurante, Abre a las 8a.m.,Rosarito
Tapanco,tapanco.mx,None Found,+52 661 100 6035,"Km 31, Escenica Ensenada - Tijuana, 22710 Playas de Rosarito, B.C., México",Restaurante mexicano, Abre a las 8a.m.,Rosarito
El Gaucho Argentino,elgauchoargentinorosarito.com,None Found,+52 661 613 0853,"Blvd. Popotla 104, Playa Encantada, 22710 Playas de Rosarito, B.C., México",Restaurante argentino, Abre a las 12:30p.m.,Rosarito
"PASTA Y BASTA Ristorante, Pizzería, Bar, Deli market",pastaybastarosarito.com,None Found,+52 661 120 0766,"Blvd. Popotla Km 29, Hermenegildo Cuenca Diaz, 22710 Playas de Rosarito, B.C., México",Restaurante de cocina del norte de Italia, Abre a las 12p.m.,Rosarito
Susanna's,susannasinrosarito.com,"Amplia casona al aire libre con estilo campestre que ofrece carnes, pescados y mariscos acompañados de vino.",+52 661 613 1187,"Pueblo Plaza zona centro Rosarito, Blvd. Benito Juárez 4356, Playas Rosarito, 22710 Playas de Rosarito, B.C., México",Restaurante, Abre a la 1p.m.,Rosarito
ROBLE DE RAIZ A LA MESA,roble.mx,None Found,+52 661 145 7037,"Gral. Guadalupe Victoria 317, Lienzo Charro, 22703 Playas de Rosarito, B.C., México",Bar restaurante, Abre a las 8a.m.,Rosarito
Máxico,,None Found,,"C. 5 de Mayo 1000, Eduardo Crosthwhite, 22710 Playas de Rosarito, B.C., México",Zona de restauración, Abre a las 8a.m.,Rosarito
Restaurante Los Arcos,restaurantlosarcos.com,None Found,+52 661 612 0491,"Blvd. Benito Juárez 29, Playas Rosarito, 22700 Playas de Rosarito, B.C., México",Restaurante mexicano, Abre a las 8a.m.,Rosarito
Tacos El Yaqui,,None Found,,"Mar del Nte. #115 12, Zona Centro, 22700 Playas de Rosarito, B.C., México",Taquería, Abre a las 9a.m.,Rosarito
La Cazuela Del Mole,,None Found,+52 661 612 2910,"Blvd. Benito Juárez, Centro, 22700 Playas de Rosarito, B.C., México",Restaurante mexicano, Abre a las 8a.m.,Rosarito
Betuccini's Pizzeria & Trattoria,facebook.com,None Found,+52 961 182 3519,"Carretera Libre Tij-Ens Km 28.5 Paraiso Ortiz No.15, 22713 Playas de Rosarito, B.C., México",Restaurante italiano, Abre a las 2p.m.,Rosarito
Splash Baja,,None Found,+52 661 688 0947,"El campito, Ensenada - Rosarito B.C B.C MX, Carretera Libre 1015-km 52.5, 22710 Primo Tapia, B.C., México",Bar restaurante, Abre a las 8a.m.,Rosarito
Rancho las Ilusiones,facebook.com,None Found,+52 661 130 1725,"Baja California #74-D, Colonia Morelos, 22707 Playas de Rosarito, B.C., México",Restaurante,,Rosarito
Restaurant de Langosta La Guerita,,None Found,+52 661 612 1019,"Blvd. Benito Juárez 204, Machado Sur, 22703 Playas de Rosarito, B.C., México",Marisquería, Abre a las 8a.m.,Rosarito
Sazón México | Restaurante,sazonmexico.com,None Found,+52 661 612 0488,"Blvd. Benito Juárez 7713, Hacienda Floresta del Mar, 22710 Playas de Rosarito, B.C., México",Restaurante mexicano, Abre a las 7:30a.m.,Rosarito
Popotla Restaurant & Bar,facebook.com,None Found,+52 661 612 1505,"Supermanzana km34, Popotla, 22710 Playas de Rosarito, B.C., México",Restaurante mexicano, Abre a las 8a.m.,Rosarito
La 1/2 Corriente Rosarito,facebook.com,None Found,+52 661 104 7213,"Km 31 Boulevard Popotla Carretera Libre, Rosarito - Ensenada, 22710 Playas de Rosarito, B.C., México",Restaurante, Abre a las 12p.m.,Rosarito
La Media Luna Restaurante,medialuna.mx,None Found,+52 661 104 0577,"Miguel Salcedo 1250, Colinas de Rosarito, 22707 Playas de Rosarito, B.C., México",Restaurante, Abre a las 8a.m.,Rosarito
Ochuna Restaurante,ochunarosarito.com,None Found,+52 661 112 2308,"Blvd. Benito Juárez 2701, Echeverria, 22703 Playas de Rosarito, B.C., México",Restaurante mediterráneo, Abre a las 2p.m.,Rosarito
Fat Cat Pancake House Rosarito,facebook.com,None Found,+52 661 104 1794,"Blvd. Benito Juárez 300-local 7, Centro Carretera, 22700 Playas de Rosarito, B.C., México",Restaurante de pancakes, Abre a las 8a.m.,Rosarito
Bistro Le Cousteau,,None Found,+52 661 612 2655,"Blvd. Benito Juárez 184, Zona Centro, 22700 Playas de Rosarito, B.C., México",Taberna, Abre a la 1p.m.,Rosarito
Ajenjo,,None Found,+52 661 120 1540,"La Jolla Real y Del Mar, 3114 Boulevard Popotla km 30 Carretera Tijuana, 22710 Playas de Rosarito, B.C., México",Bar restaurante,,Rosarito
La Cabaña Del Encino,,None Found,+52 661 120 6754,"Calle José Haros Aguilar, Parcela 39, 22707 Playas de Rosarito, B.C., México",Restaurante, Abre a las 8a.m.,Rosarito
El Encino,facebook.com,None Found,+52 661 100 6305,"22710, Blvd. Popotla 3347, Campo Alfonso, 22719 Playas de Rosarito, B.C., México",Restaurante, Abre a las 8a.m.,Rosarito
"Tito's Mariscos, Playas de Rosarito",mariscostitos.com,None Found,+52 661 120 0657,"Calle José Haros Aguilar, Parcela 39, 22707 Playas de Rosarito, B.C., México",Marisquería, Abre a las 10a.m.,Rosarito
Los Pelicanos Hotel Inn-Restaurante,,None Found,+52 661 612 0445,"Del Cedro #115, Centro, 22700 Playas de Rosarito, B.C., México",,,Rosarito
Acua Bar & Mar,acuabar.com,None Found,+52 661 112 2342,"Blvd. Benito Juárez 60, Centro, 22700 Playas de Rosarito, B.C., México",Bar, Abre a las 8a.m.,Rosarito
Ortega's Buffet,,None Found,+52 664 709 5236,"Blvd. Benito Juárez 200, Lienzo Charro, 22703 Playas de Rosarito, B.C., México",Bar restaurante, Abre a las 8a.m.,Rosarito
Patagonia 1829,,None Found,+52 661 100 2085,"Bulevar Benito Juárez 4356, Rosarito Centro, Playas, Pueblo Plaza Local 15, Centro, 22710 Playas de Rosarito, B.C., México",Restaurante argentino, Abre a la 1p.m.,Rosarito
Encanto Restaurante,restauranteencanto.com,None Found,+52 661 172 1766,"Carr. Transpeninsular 1015, 22710 Primo Tapia, B.C., México",Restaurante, Abre a las 9a.m.,Rosarito
La Casa Del Antojito,lacasadelantojito.com,None Found,+52 661 613 9065,"Calle Reforma 300, Parcelas, 22710 Playas de Rosarito, B.C., México",Restaurante familiar, Abre a las 8a.m.,Rosarito
Mariscos Los Cabos,,None Found,+52 661 593 4271,"Mártires de Pinos Altos 17, Obrera, 22703 Playas de Rosarito, B.C., México",Marisquería, Abre a las 8:30a.m.,Rosarito
Colectivo Surf Tasting Room,,None Found,+52 661 125 4144,"Kilometro 41 carretera libre Tijuana Rosarito - Ensenada, 22710 Playas de Rosarito, B.C., México",Restaurante, Abre a las 12:30p.m.,Rosarito
Make Taco Rosarito,instagram.com,None Found,+52 661 107 6573,"Calle mar del Norte #552, Centro, 22700 Playas de Rosarito, B.C., México",Taquería, Abre a las 9:30a.m.,Rosarito
La Santa Vaca Rosarito,instagram.com,None Found,+52 661 104 2781,"9WGQ+JR, Parcelas, 22704 Playas de Rosarito, B.C., México",Restaurante, Abre a las 8a.m.,Rosarito
Carnitas Los Panchos,facebook.com,None Found,+52 661 612 0009,"Carretera Libre a Rosarito Km. 21.5, Lucio Blanco, 22710 Playas de Rosarito, B.C., México",Restaurante mexicano, Abre a las 8a.m.,Rosarito
Casa Vantaggio,,None Found,+52 661 123 6664,"Ignacio Altamirano 4, Magisterial, 22703 Playas de Rosarito, B.C., México",Restaurante,,Rosarito
Carnitas la Flor de Michoacán,,None Found,+52 661 145 8965,"Blvd. Benito Juárez 291, Predios Urbanos, 22703 Playas de Rosarito, B.C., México",Restaurante mexicano, Abre a las 8a.m.,Rosarito
Carnitas la Flor de Michoacán,,None Found,+52 661 145 8965,"Blvd. Benito Juárez 291, Predios Urbanos, 22703 Playas de Rosarito, B.C., México",Restaurante mexicano, Abre a las 8a.m.,Rosarito
Giuseppis Restaurante,giuseppis.mx,None Found,+52 661 613 9320,"Plaza Pabellón Rosarito, Ensenada & Col. Leyes de Reforma 300, Tijuana, 22704 Playas de Rosarito, B.C., México",Restaurante italiano, Abre a las 12p.m.,Rosarito
Ollie's Brick Oven Pizza,olliesbrickovenpizza.com,"Cálido lugar con muros de ladrillo para probar pizzas rústicas al horno, vinos y postres italianos originales.",+52 664 231 7946,"Carretera Libre Rosarito Ensenada Km 40.5, 22740 Playas de Rosarito, B.C., México",Pizzería, Abre a las 4p.m.,Rosarito
Sunio Beach Club,suniobeachclub.com,None Found,+52 661 527 6518,"De Castillos 7, Castillos del Mar, 22713 Playas de Rosarito, B.C., México",Restaurante,,Rosarito
Casa Rey,casareyrosarito.com,None Found,,"Rio blanco, 12 de Mayo 55, 22703 Playas de Rosarito, B.C., México",Restaurante, Abre a las 8a.m.,Rosarito
Hacienda de Badú,facebook.com,None Found,+52 661 613 4011,"Km. 21.5 Carretera Libre Tijuana, Ensenada - Rosarito 1009-2, Lucio Blanco, 22710 Playas de Rosarito, B.C., México",Restaurante mexicano, Abre a las 8a.m.,Rosarito
Lola Sabor y Cafe Bistro,instagram.com,None Found,+52 661 120 0324,"Abeto 133-int 9, Centro Playas, 22710 Playas de Rosarito, B.C., México",Cafetería, Abre a las 8a.m.,Rosarito
Marea Mía,mareamia.com,None Found,+52 661 212 8425,"Blvd. Benito Juárez 41, colonia centro, 22700 Playas de Rosarito, B.C., México",Marisquería, Abre a las 8a.m.,Rosarito
Xantina Brunch & Bistro,,None Found,+52 661 133 7053,"C. Mexicali, Los Angeles, 22710 Playas de Rosarito, B.C., México",Restaurante, Abre a las 8a.m.,Rosarito
Beach Comber,,None Found,+52 661 612 6043,"Blvd. Benito Juárez km 25.5, Quinta del Mar, 22703 Playas de Rosarito, B.C., México",Marisquería, Abre a las 12p.m.,Rosarito
Marea Alta,,None Found,+52 686 243 3348,"Rosarito - Ensenada, Las Gaviotas, 22704 Playas de Rosarito, B.C., México",Marisquería, Abre a las 12p.m.,Rosarito
Itacate Bistró,m.facebook.com,None Found,+52 661 136 2537,"22703, C. Artículo Tercero 2069, Parcela 39, 22710 Playas de Rosarito, B.C., México",Restaurante, Abre a las 8a.m.,Rosarito
Tacos Baja Jr,facebook.com,"Cálido lugar con decoración náutica que sirve amplio menú de tacos, tostadas y caldos preparados con mariscos.",+52 661 119 7216,"Carretera Km. 28.8, Rosarito - Ensenada, Villas de Rosarito, 22713 Playas de Rosarito, B.C., México",Taquería, Abre a las 10a.m.,Rosarito
Tacos Baja Jr,facebook.com,"Cálido lugar con decoración náutica que sirve amplio menú de tacos, tostadas y caldos preparados con mariscos.",+52 661 119 7216,"Carretera Km. 28.8, Rosarito - Ensenada, Villas de Rosarito, 22713 Playas de Rosarito, B.C., México",Taquería, Abre a las 10a.m.,Rosarito
Pupusería El Pulgarcito En Rosarito,marlonmejia6910.wixsite.com,None Found,+52 661 612 1057,"Emiliano Zapata 23, Machado Sur, 22703 Playas de Rosarito, B.C., México",Restaurante salvadoreño, Abre a las 10a.m.,Rosarito
PANCAKE REPUBLIC,pancakerepublic.wixsite.com,None Found,+52 661 100 2047,"Blvd. Benito Juárez 31, Playas Rosarito, 22700 Playas de Rosarito, B.C., México",Restaurante de pancakes, 7a.m.,Rosarito
La Carreta,,None Found,+52 661 000 0000,"Rosarito - Ensenada, Playas Rosarito, 22710 Rosarito, B.C Centro, 22710 Playas de Rosarito, B.C., México",Bar restaurante, Abre a las 9a.m.,Rosarito
Julio's,,None Found,+52 661 617 1232,"Roble, Centro Carretera, 22700 Playas de Rosarito, B.C., México",Restaurante, Abre a las 8a.m.,Rosarito
Restaurante Mama Mia La Paloma,mamamia.com.mx,None Found,+52 661 613 1244,"Carretera Libre Ros-Ensenada KM 28.2 Int 295, La Paloma, 22713 Playas de Rosarito, B.C., México",Restaurante, Abre a las 8a.m.,Rosarito
Mariscos Marlyn,facebook.com,None Found,+52 661 114 3582,"C. Chihuahua 914, Eduardo Crosthwhite, 22710 Playas de Rosarito, B.C., México",Restaurante, Abre a las 8a.m.,Rosarito
G Shrimp Rosarito Beach,facebook.com,None Found,+52 661 145 2713,"BLVD BENITO JUAREZ 1207, ICENTRO, Playas Rosarito, 22710 Playas de Rosarito, B.C., México",Marisquería, Abre a las 11:30a.m.,Rosarito
La Casa Del Sol,facebook.com,None Found,,"Bulevard Guerrero & Zacatecas, Constitución (Ampl. Constitución), 22707 Playas de Rosarito, B.C., México",Restaurante,,Rosarito
Iggy's bbq Rosarito,facebook.com,None Found,+52 661 616 2823,"Blvd. Benito Juárez, Reforma, 22710 Playas de Rosarito, B.C., México",Restaurante,,Rosarito
Comedor Del Pueblo Los Hijos del Maiz,,None Found,,"Guerrero 503 -A, Constitución (Ampl. Constitución), 22710 Playas de Rosarito, B.C., México",Restaurante, Abre a las 8a.m.,Rosarito
Mariscos el Tiburón,,None Found,+52 664 340 9548,"Calle, Lázaro Cárdenas del Río 4, Plan Libertador, 22710 Playas de Rosarito, B.C., México",Pescadería, Abre a las 10a.m.,Rosarito
Carnitas La Flor de Michoacan,,None Found,+52 661 612 0433,"Blvd. Benito Juárez 306, Zona Centro, 22700 Playas de Rosarito, B.C., México",Restaurante mexicano, Abre a las 8a.m.,Rosarito
Xantina Brunch & Bistro,,None Found,+52 661 133 7053,"C. Mexicali, Los Angeles, 22703 Playas de Rosarito, B.C., México",Restaurante, 7a.m.,Rosarito
Zarape,,None Found,,"Hermenegildo Cuenca Diaz, 22713 Playas de Rosarito, B.C., México",Zona de restauración,,Rosarito
La Avenida Food Court | Restaurantes,facebook.com,None Found,+52 661 117 1337,"Blvd. Benito Juárez, Machado Sur, 22703 Playas de Rosarito, B.C., México",Restaurante, Abre a las 8a.m.,Rosarito
Yi He,,None Found,+52 661 613 7688,"Diego Esquivel 230-Interior C y D, Lucio Blanco, 22706 Playas de Rosarito, B.C., México",Restaurante asiático, Abre a las 10a.m.,Rosarito
RESTAURANTE LA TIA,,None Found,,"C. Del Ciprés 104, Centro Carretera, 22700 Playas de Rosarito, B.C., México",Restaurante mexicano, Abre a las 8:30a.m.,Rosarito
"GORDITAS ""EL TÍO""",,None Found,+52 661 850 1200,"Blvd. Benito Juárez 901, Anexa Obrera, 22700 Playas de Rosarito, B.C., México",Restaurante mexicano, Abre a las 8a.m.,Rosarito
Mariscos El Caiman,facebook.com,None Found,,"Ensenada - Rosarito 1360, San Fernando, 22703 Playas de Rosarito, B.C., México",Marisquería, Abre a las 9a.m.,Rosarito
El Torito Birrieria,,None Found,,"Blvd. Benito Juárez 388, Machado Nte., 22703 Playas de Rosarito, B.C., México",Restaurante mexicano, 7a.m.,Rosarito
Mi Jacalito Mariscos,,None Found,+52 661 120 0679,"Blvd. Benito Juárez 586, Centro Playas, 22700 Playas de Rosarito, B.C., México",Marisquería, Abre a las 9a.m.,Rosarito
Bombay Beach Club,bombayrosarito.com,None Found,+52 661 120 2037,"Eucalipto 10102, Playas Rosarito, 22700 Playas de Rosarito, B.C., México",Marisquería, Abre a las 9a.m.,Rosarito
Restauran encanto,,None Found,,"Lucio Blanco, 22706 Playas de Rosarito, B.C., México",Bar restaurante,,Rosarito
Applebee's Rosarito,applebees.com.mx,Cadena de bar y parrilla de servicio completo con sustanciosos platos estadounidenses en un ambiente informal.,+52 661 613 9328,"Centro Comercial Pabellón Carretera Libre Tijuana-Ensenada 300Int. Le Carr. A PE Reforma, Playas Rosarito, 80030 B.C., México",Restaurante americano, Abre a las 8a.m.,Rosarito
Palacio Royal,,None Found,+52 661 612 1412,"Blvd. Benito Juárez 984-Local 34, Obrera, 22703 Playas de Rosarito, B.C., México",Restaurante chino, Abre a las 12p.m.,Rosarito
La Perla Mariscos,,None Found,+52 661 104 0023,"Carretera Tijuana- Ensenada, Blvd. Benito Juárez 300, Santa monica, 22710 Playas de Rosarito, B.C., México",Marisquería, 7a.m.,Rosarito
Rosarito Beach Pizza Italian cuisine,rosaritopizza.com,None Found,+52 661 100 2310,"Blvd. Benito Juárez 1506-B, Zona Centro, Centro Carretera, 22700 Playas de Rosarito, B.C., México",Restaurante italiano, Abre a las 12p.m.,Rosarito
Mariscos El Torito Bar,,None Found,+52 661 145 4797,"Blvd. Benito Juárez 318, Centro Playas, 22700 Playas de Rosarito, B.C., México",Marisquería, Abre a las 8a.m.,Rosarito
Birrierias La Guadalajara,facebook.com,None Found,+52 661 104 1650,"Pabellon Rosarito, Parcelas, 22710 Playas de Rosarito, B.C., México",Restaurante mexicano,,Rosarito
Mariscos El Poder,,None Found,+52 661 612 5414,"Blvd. Benito Juárez 290, Predios Urbanos, 22710 Playas de Rosarito, B.C., México",Marisquería, Abre a las 10a.m.,Rosarito
Menuderia Guadalajara Rosarito Centro,menuderiaguadalajara.com,None Found,+52 661 104 0470,"Blvd. Benito Juárez 2400, Predios Urbanos, 22710 Playas de Rosarito, B.C., México",Restaurante, 7a.m.,Rosarito
TAMALE INN RESTAURANT,,None Found,+52 661 145 8684,"Blvd. Benito Juárez 137-Int.4, Centro Playas, 22700 Playas de Rosarito, B.C., México",Restaurante, 7a.m.,Rosarito
Sr. Clamato's,facebook.com,None Found,,"Mar del Nte. #115 973, Centro Carretera, 22700 Playas de Rosarito, B.C., México",Restaurante, Abre a las 11a.m.,Rosarito
Tacos El Cachanilla,,None Found,+52 661 123 4545,"Av Veracruz 643, Constitución (Ampl. Constitución), 22707 Playas de Rosarito, B.C., México",Taquería,,Rosarito
Esencia restaurante,,None Found,+52 661 130 2019,"Calle Mar del Norte 480, Zona Centro, 22700 Playas de Rosarito, B.C., México",Restaurante, Abre a las 9a.m.,Rosarito
Súper Costillas,,None Found,,"Blvd. Benito Juárez 1759, Parcela 39, 22703 Playas de Rosarito, B.C., México",Bar restaurante, 7a.m.,Rosarito
La Esquinita Restaurante,facebook.com,None Found,+52 661 612 7725,"Mariano Verdugo 151, 17 de Agosto, 22707 Playas de Rosarito, B.C., México",Restaurante mexicano, 7a.m.,Rosarito
Sebs BBQ rosarito,,None Found,+52 661 195 6678,"Blvd. Benito Juárez 224, Predios Urbanos, 22703 Playas de Rosarito, B.C., México",Restaurante americano, Abre a la 1:30p.m.,Rosarito
hacienda km 43,,None Found,+52 661 104 3016,"carretera libre roasarito ensenada, carretera libre tijuana - ensenada km43 juventino rosas 43000 A colonia puerto nuevo, km 43, 22716 Playas de Rosarito, B.C., México",Restaurante mexicano, Cierra a las 9p.m.,Rosarito
Antojitos Méxicanos Naty,,None Found,+52 661 612 2154,"Rosarito Centro, C. de la Palma 403, 17 de Agosto, 22700 Playas de Rosarito, B.C., México",Restaurante mexicano, Abre a las 8a.m.,Rosarito
Mariscos puerto nuevo,,None Found,+52 661 614 3039,"Anzuelo 6 puerto nuevo, 22740 Playas de Rosarito, B.C., México",Restaurante, Abre a las 9a.m.,Rosarito
D'Carlos Restaurant,dcarlosrestaurant.com,None Found,+52 661 120 2540,"Carr. Libre Tijuana-Rosarito 137, Lucio Blanco, 22706 Playas de Rosarito, B.C., México",Restaurante, Abre a las 12p.m.,Rosarito
La Tia,,None Found,,"22710 Playas de Rosarito, B.C., México",Restaurante mexicano, Abre a las 9a.m.,Rosarito
The Donkey House,,None Found,+52 661 197 1830,"#731067 Av. 5 de mayo # 731067, 22710 Playas de Rosarito, B.C., México",Restaurante, 7a.m.,Rosarito
La Torta Plaza - Pabellón Rosarito,latortaplaza.com,None Found,+52 661 613 9094,"Calle Reforma 300, Parcelas, 22704 Playas de Rosarito, B.C., México",Restaurante, Abre a las 8a.m.,Rosarito
Antojitos mexicanos Los Cuates,,None Found,+52 661 145 0772,"Ing. Marte R. Gómez 9932, Amp Mazatlan, 22707 Playas de Rosarito, B.C., México",Restaurante, Abre a las 3p.m. del lun,Rosarito
Los Portales de García,,None Found,,"Playas de Rosarito Baja California, México. Km 52 carretera libre El campito, 22710 Playas de Rosarito, B.C., México",Restaurante, Abre a las 9:30a.m.,Rosarito
El Gaucho Argentino,elgauchoargentinorosarito.com,None Found,+52 661 613 0853,"Blvd. Popotla 104, Playa Encantada, 22710 Playas de Rosarito, B.C., México",Restaurante argentino, Abre a las 12:30p.m.,Rosarito
Mi Casa Supper Club,micasasupperclub.wixsite.com,"Restaurante mediterráneo casero con vista al mar que ofrece platos de carne y pescado, tapas y ensalada.",+52 664 508 2433,"54 Estero Avenue, 22560 San Antonio del Mar, B.C., México",Restaurante, Abre a las 9a.m.,Rosarito
Oceana Grill & Café,oceanagrillandcafe.com,None Found,+52 661 612 5774,"Blvd. Benito Juárez 907-Interior 9-A, Centro Playas, 22700 Playas de Rosarito, B.C., México",Parrilla, Abre a las 8a.m.,Rosarito
Carnes y Mariscos Los Molcajetes Restaurant,,None Found,+52 661 114 4858,"Blvd. Benito Juárez 9356, Playas Rosarito, 22700 Playas de Rosarito, B.C., México",Marisquería, Abre a las 8:30a.m.,Rosarito
La Fuente,,None Found,+52 661 100 2297,"Carr. Transpeninsular 294-Loc C, Centro Carretera, 22700 Playas de Rosarito, B.C., México",Restaurante, Abre a las 8a.m.,Rosarito
La Casita del Antojo,facebook.com,None Found,+52 661 613 0530,"22703, Gral. Guadalupe Victoria 2, Lienzo Charro, Playas de Rosarito, B.C., México",Restaurante, Abre a las 3p.m. del vie,Rosarito
Menuderia El Tapatio,,None Found,+52 661 527 0814,"Blvd. Benito Juárez, Centro Carretera, 22700 Playas de Rosarito, B.C., México",Restaurante mexicano, Cierra a las 4p.m.,Rosarito
Antojitos mi ranchito,,None Found,+52 667 234 6408,"Diego Esquivel, Calle José Haros Aguilar #203, Lucio Blanco, 22710 Playas de Rosarito, B.C., México",Restaurante, Abre a las 8:30a.m.,Rosarito
Antojitos Mexicanos LA FOGATA,webnode.mx,None Found,+52 661 527 7028,"Plutarco Elías Calles 204, Amp Mazatlan, 22710 Playas de Rosarito, B.C., México",Restaurante mexicano, Abre a las 2:15p.m.,Rosarito
Monster Burger Rosarito,facebook.com,None Found,+52 661 107 5307,"Blvd. Benito Juárez 310, Zona Centro, 22710 Playas de Rosarito, B.C., México",Hamburguesería, Abre a las 2p.m.,Rosarito
Puerto Nuevo,,None Found,,"Blvd. Benito Juárez, Centro Carretera, 22700 Playas de Rosarito, B.C., México",,,Rosarito
Rosarito Beach Mariscos,,None Found,,"Plan Libertador, 22706 Playas de Rosarito, B.C., México",Marisquería, Abre a las 7a.m. del mar,Rosarito
"Tacos ""La Pasadita""",,None Found,,"Blvd. Benito Juárez 302, Machado Nte., 22710 Playas de Rosarito, B.C., México",Taquería, Abre a las 8a.m.,Rosarito
QUE PADRE Chilaquería,facebook.com,None Found,+52 661 117 5560,"Blvd. Benito Juárez 12882, Colonia Hacienda Floresta, 22703 Playas de Rosarito, B.C., México",Restaurante de desayunos, Abre a las 8a.m.,Rosarito
Sushi KO de Autor,facebook.com,None Found,+52 661 104 0612,"Blvd Benito Juarez Pabellon, Manzana A15, 22710 Playas de Rosarito, B.C., México",Restaurante japonés, Abre a las 3p.m.,Rosarito
Restaurante De la Fuente,,None Found,+52 871 363 7520,"C. Del Ciprés 2686, Centro Playas, 22700 Playas de Rosarito, B.C., México",Restaurante, Abre a las 8:30a.m.,Rosarito
Taqueria 2000,,None Found,+52 661 121 9002,"Ensenada 427, Predios Urbanos, 22703 Playas de Rosarito, B.C., México",Taquería, Abre a las 10a.m.,Rosarito
La Cocina de la Abuela,,None Found,+52 661 120 0118,"Blvd. Benito Juárez 318, Centro, 22700 Playas de Rosarito, B.C., México",Restaurante, Abre a las 8a.m.,Rosarito
La Postal Rosarito,,None Found,+52 661 120 8214,"Blvd. Benito Juárez 335-1V, Villa Turistica, 22707 Playas de Rosarito, B.C., México",Restaurante de sushi, Abre a la 1p.m.,Rosarito
El Sabroso Taco Shop,,None Found,+52 664 699 7654,"Blvd. Benito Juárez 10000, Quinta Plaza, 22703 Playas de Rosarito, B.C., México",Taquería, Abre a las 8a.m.,Rosarito
El Patio de Don Jose,,None Found,+52 661 110 9493,"22708, Blvd. Benito Juárez 334, 22708 Playas de Rosarito, B.C., México",Zona de restauración, Abre a las 8a.m.,Rosarito
