Names,Website,Introduction,Phone Number,Address,Type,Opens At,Municipio
R√≠o Caf√© Restaurante,,None Found,+52 899 934 3599,"C. Independencia 325A, R√≠o Bravo, 88959 Cdad. R√≠o Bravo, Tamps., M√©xico",Restaurante, Cierra a las 10p.m.,R√≠o Bravo
Restaurante la saute√±a,,None Found,+52 899 853 1776,"88900, Av Francisco I. Madero 906, R√≠o Bravo, Cdad. R√≠o Bravo, Tamps., M√©xico",Restaurante, Cierra a las 11p.m.,R√≠o Bravo
Restaurant El Indio,,None Found,+52 899 934 2034,"Morelos 111, Zona Centro, 88900 Cdad. R√≠o Bravo, Tamps., M√©xico",Restaurante mexicano, 7:30a.m.,R√≠o Bravo
Johnny‚Äôs Restaurant,,None Found,+52 899 300 6815,"88950, Porfirio D√≠az 610, Cuauht√©moc, 88900 Cdad. R√≠o Bravo, Tamps., M√©xico",Restaurante, Abre a las 9a.m.,R√≠o Bravo
Santa Fe Cocina Mexicana,,None Found,+52 899 934 5507,"TLAXCALA CON CHIHUAHUA centro, 88900 Cdad. R√≠o Bravo, Tamps., M√©xico",Restaurante mexicano, Cierra a las 11p.m.,R√≠o Bravo
Tommy¬¥s Restaurant,,None Found,+52 899 934 1466,"Av Sonora 717-B, R√≠o Bravo, 88910 Cdad. R√≠o Bravo, Tamps., M√©xico",Restaurante mexicano, Cierra a las 10:30p.m.,R√≠o Bravo
Restaurante La Cantera,,None Found,,"Av Francisco I. Madero 405, R√≠o Bravo, San Diego, 88910 Cdad. R√≠o Bravo, Tamps., M√©xico",Restaurante, Cierra a las 11p.m.,R√≠o Bravo
La 2egunda Ronda,,None Found,+52 899 414 1804,"Av Constituci√≥n 712, M√©xico, 88970 Cdad. R√≠o Bravo, Tamps., M√©xico",Restaurante, Abre a las 12p.m.,R√≠o Bravo
Cafe San Benito,facebook.com,None Found,+52 899 934 0407,"Av Francisco I. Madero 719, Centro, 88930 Cdad. R√≠o Bravo, Tamps., M√©xico",Cafeter√≠a, Cierra a las 10p.m.,R√≠o Bravo
Steak House,,None Found,+52 899 934 0006,"Av Constituci√≥n 215, R√≠o Bravo, 88959 Cdad. R√≠o Bravo, Tamps., M√©xico",Restaurante de brunch, Abre a las 8a.m.,R√≠o Bravo
San Jose Restaurante,,None Found,+52 899 934 1907,"Av Francisco I. Madero 202, R√≠o Bravo, 88901 Cdad. R√≠o Bravo, Tamps., M√©xico",Restaurante mexicano, 7:30a.m.,R√≠o Bravo
10-30 Caf√© & Restaurant,,None Found,+52 899 449 0105,"Tamaulipas 303, R√≠o Bravo 1, R√≠o Bravo, 88950 Cdad. R√≠o Bravo, Tamps., M√©xico",Restaurante, Cierra a las 4p.m.,R√≠o Bravo
Fit Life,instagram.com,None Found,+52 899 129 1608,"Ignacio Aldama 211, R√≠o Bravo 1, R√≠o Bravo, 88950 Cdad. R√≠o Bravo, Tamps., M√©xico",Restaurante, Abre a las 8a.m. del lun,R√≠o Bravo
Junior's Drinks & Grill,facebook.com,None Found,+52 899 853 2296,"C. Jose Ma Morelos 800, Cuauht√©moc, 88950 Cdad. R√≠o Bravo, Tamps., M√©xico",Parrilla, Abre a la 1p.m.,R√≠o Bravo
Abejas Club,abejasclub.com,None Found,+52 899 934 8536,"Av Miguel Alem√°n 309, R√≠o Bravo 2, R√≠o Bravo, 88959 Cdad. R√≠o Bravo, Tamps., M√©xico",Restaurante, Cierra a las 10p.m.,R√≠o Bravo
Mariscos El Camaron Norte√±o,,None Found,+52 899 934 5194,"Av Francisco I. Madero #1545, R√≠o Bravo 1, R√≠o Bravo, 88900 Cdad. R√≠o Bravo, Tamps., M√©xico",Marisquer√≠a, Abre a las 10:30a.m.,R√≠o Bravo
Caf√© Tatiaxca,,None Found,+52 899 934 9492,"C. Jose Ma Morelos 819, R√≠o Bravo, 88950 Cdad. R√≠o Bravo, Tamps., M√©xico",Cafeter√≠a, Abre a las 8a.m.,R√≠o Bravo
Ajijole Tacos&wings,,None Found,,"Av Francisco I. Madero 415, R√≠o Bravo, 88959 Cdad. R√≠o Bravo, Tamps., M√©xico",Restaurante, Abre a las 9:30a.m.,R√≠o Bravo
Sabor Natural,,None Found,+52 899 129 1674,"88910, Av Francisco I. Madero 214, R√≠o Bravo, 88910 Cdad. R√≠o Bravo, Tamps., M√©xico",Restaurante, Cierra a las 10p.m.,R√≠o Bravo
El Metate De La Abuela,,None Found,+52 899 934 3686,"88940, Emilio G√≥mez 400, Arnulfo Mart√≠nez, 88900 Cdad. R√≠o Bravo, Tamps., M√©xico",Restaurante, Abre a las 8a.m.,R√≠o Bravo
Mariscos La Saute√±a,,None Found,+52 899 934 3928,"88900, Ju√°rez 112, R√≠o Bravo, Cdad. R√≠o Bravo, Tamps., M√©xico",Marisquer√≠a, Abre a las 10a.m.,R√≠o Bravo
Birria el sabor original tj,,None Found,+52 899 138 9326,"5 de Febrero 408, Benito Ju√°rez, 88930 Cdad. R√≠o Bravo, Tamps., M√©xico",Restaurante de comida r√°pida, Cierra a las 2p.m.,R√≠o Bravo
La tarasca Restaurant,,None Found,+52 899 934 9412,"Allende 108, R√≠o Bravo, 88900 Cdad. R√≠o Bravo, Tamps., M√©xico",Restaurante,,R√≠o Bravo
Pescados y Mariscos Tommy‚Äôs RB,,None Found,+52 899 934 3455,"Av Francisco I. Madero #220 Ote, R√≠o Bravo 2, Ferrocarril Centro, 88900 Cdad. R√≠o Bravo, Tamps., M√©xico",Marisquer√≠a, Abre a las 10a.m.,R√≠o Bravo
Hamburguesas Mexico,,None Found,+52 899 140 5080,"Av Miguel Alem√°n 119-130, R√≠o Bravo, 88910 Cdad. R√≠o Bravo, Tamps., M√©xico",Hamburgueser√≠a, Abre a las 12p.m.,R√≠o Bravo
Taqueria Poza Rica,,None Found,+52 899 934 3319,"88910, Av Constituci√≥n 307, R√≠o Bravo, Cdad. R√≠o Bravo, Tamps., M√©xico",Taquer√≠a, Cierra a las 3p.m.,R√≠o Bravo
Caf√© Lalitos,,None Found,+52 899 934 3583,"Durango 105, R√≠o Bravo, 88910 Cdad. R√≠o Bravo, Tamps., M√©xico",Restaurante, Cierra a las 9p.m.,R√≠o Bravo
Encinos Caf√©&Bistro,,None Found,+52 899 456 4849,"Av Las Americas 197, R√≠o Bravo 2, R√≠o Bravo, 88950 Cdad. R√≠o Bravo, Tamps., M√©xico",Restaurante familiar, Cierra a las 10p.m.,R√≠o Bravo
La Terraza Wings & Ribs,,None Found,+52 899 213 5904,"C. Tlaxcala 500, R√≠o Bravo, Ferrocarril Centro, 88900 Cdad. R√≠o Bravo, Tamps., M√©xico",Restaurante de alas de pollo, Abre a la 1p.m.,R√≠o Bravo
"Restaurante ""Lalitos""",,None Found,,"Fraccionamiento 78-80, 88950 Cdad. R√≠o Bravo, Tamps., M√©xico",Restaurante,,R√≠o Bravo
Ok Pancho,,None Found,+52 899 934 5522,"Carretera a Reynosa S/N, Campestre, 88930 Tamps., M√©xico",Restaurante mexicano, Abre a las 8a.m.,R√≠o Bravo
Mariscos El Mar Suc. 1,,None Found,+52 899 853 2459,"Av Francisco I. Madero 1, R√≠o Bravo 2, R√≠o Bravo, 88950 Cdad. R√≠o Bravo, Tamps., M√©xico",Marisquer√≠a, Abre a las 10a.m.,R√≠o Bravo
Taqueria El Cu√±ao,,None Found,,"Calle V. Guerrero 301, R√≠o Bravo 2, R√≠o Bravo, 88910 Cdad. R√≠o Bravo, Tamps., M√©xico",Taquer√≠a, Abre a las 5:30p.m.,R√≠o Bravo
Mezcalitos Restaurante Terraza Bar,facebook.com,None Found,+52 899 910 1889,"Esquina con, Tabasco, Coahuila Nte 401, 88910 Cdad. R√≠o Bravo, Tamps., M√©xico",Restaurante, Abre a las 8a.m.,R√≠o Bravo
"Pescados Y Mariscos ""Los Caracoles""",,None Found,,"88950, H. Colegio Militar & Sur Uno, Cdad. R√≠o Bravo, Tamps., M√©xico",Marisquer√≠a, Abre a las 10a.m.,R√≠o Bravo
Taquer√≠a Los extraviados,,None Found,,"C. Independencia 412, R√≠o Bravo, 88950 Cdad. R√≠o Bravo, Tamps., M√©xico",Restaurante especializado en barbacoa, Cierra a las 5p.m.,R√≠o Bravo
Taqueria el primo,,None Found,,"Av Francisco I. Madero 109, R√≠o Bravo 2, R√≠o Bravo, 88959 Cdad. R√≠o Bravo, Tamps., M√©xico",Taquer√≠a,,R√≠o Bravo
Las Delicias D'Lily,,None Found,+52 899 150 5385,"Av M√©xico #715, esq, Mariano Matamoros, Morelos, 88910 Cdad. R√≠o Bravo, Tamps., M√©xico",Restaurante, Abre a las 12p.m.,R√≠o Bravo
Mariscos La Reyna,,None Found,+52 899 360 4412,"Av Francisco I. Madero, Col del Valle, 88980 Cdad. R√≠o Bravo, Tamps., M√©xico",Marisquer√≠a, Abre a las 11a.m.,R√≠o Bravo
Palacios Restaurant y Eventos,,None Found,,"Ni√±os Heroes 281, R√≠o Bravo, 88959 Cdad. R√≠o Bravo, Tamps., M√©xico",Restaurante familiar,,R√≠o Bravo
Taqueria La Fe,,None Found,,"San Diego, 88910 Cdad. R√≠o Bravo, Tamps., M√©xico",Taquer√≠a, Abre a la 1p.m.,R√≠o Bravo
Hamburguesas Mi Ranchito,,None Found,+52 899 933 7086,"16 de Septiembre 103, R√≠o Bravo, 88930 Cdad. R√≠o Bravo, Tamps., M√©xico",Hamburgueser√≠a, Abre a las 12p.m.,R√≠o Bravo
Sin Remordimientos Restaurant,,None Found,+52 899 934 6516,"88900, Jalisco 412, San Diego, Cdad. R√≠o Bravo, Tamps., M√©xico",Bar, Abre a las 7p.m.,R√≠o Bravo
El Pollo Loco,elpolloloco.com.mx,"Cadena de comida r√°pida local, famosa por los cl√°sicos mexicanos preparados con pollo a la parrilla.",+52 899 934 1442,"Av Constituci√≥n 105, R√≠o Bravo 2, M√©xico, 88900 Cdad. R√≠o Bravo, Tamps., M√©xico",Restaurante especializado en pollo, Abre a las 10a.m.,R√≠o Bravo
"Taqueria ""La FE""",,None Found,,"Col del Valle, 88980 Cdad. R√≠o Bravo, Tamps., M√©xico",Taquer√≠a, Cierra a las 5p.m.,R√≠o Bravo
Rolls Restaurant & Sushi Bar,,None Found,+52 899 933 7473,"Av. Mexico.309 Plaza Canali, Local 5, Centro, 88900 Cdad. R√≠o Bravo, Tamps., M√©xico",Restaurante de sushi, Abre a las 12p.m.,R√≠o Bravo
Mix Rolls,m.facebook.com,None Found,+52 899 299 4118,"Quintana Roo 201, R√≠o Bravo, 88900 Cdad. R√≠o Bravo, Tamps., M√©xico",Restaurante de sushi, Abre a las 12p.m.,R√≠o Bravo
Deleite,,None Found,+52 899 933 7004,"Quintana Roo, R√≠o Bravo, Morelos, 88910 Cdad. R√≠o Bravo, Tamps., M√©xico",Restaurante,,R√≠o Bravo
Takos Maggie,facebook.com,None Found,,"R√≠o Bravo 2, R√≠o Bravo, 88959 Cdad. R√≠o Bravo, Tamps., M√©xico",Taquer√≠a, Abre a las 8a.m. del lun,R√≠o Bravo
Fortanelly¬¥s Originale,,None Found,,"Av Francisco I. Madero 1214, R√≠o Bravo, 88900 Cdad. R√≠o Bravo, Tamps., M√©xico",Restaurante,,R√≠o Bravo
Mariscos El Mar (ORIGINAL),facebook.com,None Found,+52 899 960 8459,"Av Constituci√≥n 1204-1210, R√≠o Bravo, 88900 Cdad. R√≠o Bravo, Tamps., M√©xico",Marisquer√≠a, Abre a las 8a.m.,R√≠o Bravo
Little Caesars R√≠o Bravo,littlecaesar.com.mx,"Cadena de comida para llevar que ofrece alitas de pollo, palitos de pan y pizza hecha con masa casera.",+52 899 853 3437,"Av Francisco I. Madero 2201, Sin Nombre de Col 1, 88970 Cdad. R√≠o Bravo, Tamps., M√©xico",Pizzer√≠a, Abre a las 10a.m.,R√≠o Bravo
Bravos Burgers,facebook.com,None Found,+52 899 934 6406,"Av Francisco I. Madero 415-411, R√≠o Bravo, San Diego, 88900 Cdad. R√≠o Bravo, Tamps., M√©xico",Restaurante, Abre a la 1p.m.,R√≠o Bravo
"Hamburguesas ""Sr. Carb√≥n""",srcarbonriobravo.com,None Found,+52 899 327 3981,"Las Palmas 112, R√≠o Bravo 2, R√≠o Bravo, 88959 Cdad. R√≠o Bravo, Tamps., M√©xico",Hamburgueser√≠a, Abre a las 12p.m.,R√≠o Bravo
Las Alitas Del Sushi,,None Found,+52 899 933 7392,"R√≠o Bravo 2, R√≠o Bravo, 88959 Cdad. R√≠o Bravo, Tamps., M√©xico",Restaurante japon√©s,,R√≠o Bravo
Tomodachi Sushi Restaurant,,None Found,+52 899 934 9898,"C. Independencia 218, R√≠o Bravo, 88959 Cdad. R√≠o Bravo, Tamps., M√©xico",Restaurante de sushi, Abre a las 10a.m.,R√≠o Bravo
Pollo Asado MATAMOROS,,None Found,+52 899 934 1444,"C. Galeana 101, R√≠o Bravo, 88900 Cdad. R√≠o Bravo, Tamps., M√©xico",Restaurante especializado en pollo, Abre a las 10a.m.,R√≠o Bravo
El Pollo del Taco,facebook.com,None Found,,"Av Constituci√≥n 336, R√≠o Bravo, 88900 Cdad. R√≠o Bravo, Tamps., M√©xico",Restaurante mexicano, Abre a las 10a.m.,R√≠o Bravo
Taqueria La Madero,,None Found,+52 899 453 0042,"Popular, 88980 Cdad. R√≠o Bravo, Tamps., M√©xico",Taquer√≠a,,R√≠o Bravo
El Patio De La Ju√°rez,,None Found,,"Edilio Hinojosa 381, Ferrocarril Centro, 88900 Cdad. R√≠o Bravo, Tamps., M√©xico",Restaurante, Abre a la 1p.m.,R√≠o Bravo
Pescados y Mariscos EL CAMAR√ìN NORTE√ëO,,None Found,,"Av Francisco I. Madero 106, La Paz, 88990 Cdad. R√≠o Bravo, Tamps., M√©xico",Marisquer√≠a, Abre a las 9a.m.,R√≠o Bravo
Taqueria 77,,None Found,,"88950, Allende 101, R√≠o Bravo, 88959 Cdad. R√≠o Bravo, Tamps., M√©xico",Taquer√≠a, Abre a las 8a.m.,R√≠o Bravo
Aaron's BBQ,facebook.com,None Found,+52 899 163 9788,"Jalisco 32, INFONAVIT San Diego, 88970 Cdad. R√≠o Bravo, Tamps., M√©xico",Restaurante especializado en barbacoa, Abre a las 11a.m.,R√≠o Bravo
Taqueria Don Rafa,,None Found,,"Av Francisco I. Madero 1422, R√≠o Bravo 1, R√≠o Bravo, 88950 Cdad. R√≠o Bravo, Tamps., M√©xico",Taquer√≠a,,R√≠o Bravo
Rinc√≥n de Mar√≠a Botanero,facebook.com,None Found,,"Matamoros esq. constituci√≥n 506, Centro, 88950 Cdad. R√≠o Bravo, Tamps., M√©xico",Restaurante, Abre a la 1p.m.,R√≠o Bravo
Cocina Econ√≥mica La Tarasca,,None Found,+52 899 202 6517,"Mercado Fco. I. Madero, Av Francisco I. Madero 100-local 9, R√≠o Bravo, 88900 Cdad. R√≠o Bravo, Tamps., M√©xico",Restaurante mexicano, Cierra a las 5p.m.,R√≠o Bravo
Mariscos La Cascada,facebook.com,None Found,+52 899 933 7047,"Av Constituci√≥n 411, R√≠o Bravo, 88959 Cdad. R√≠o Bravo, Tamps., M√©xico",Marisquer√≠a, Abre a las 10a.m.,R√≠o Bravo
Taquer√≠a La Higi√©nica,,None Found,+52 899 961 0236,"Calle Guanajuato #210 Col. Hijos de Ejidatarios, Ferrocarril Centro, 88900 Cdad. R√≠o Bravo, Tamps., M√©xico",Taquer√≠a, Abre a las 7a.m. del lun,R√≠o Bravo
Taqueria Do√±a Lolita,,None Found,+52 899 934 6069,"88950, Ni√±os Heroes 404, Cdad. R√≠o Bravo, Tamps., M√©xico",Taquer√≠a, Abre a las 8a.m.,R√≠o Bravo
Domino's R√≠o Bravo,dominosmx.app.link,Cadena de comida a domicilio o para llevar con gran variedad de pizzas y otros platos y acompa√±amientos.,+52 899 853 3150,"Av Las Americas s/n, R√≠o Bravo 2, Centro, 88900 Cdad. R√≠o Bravo, Tamps., M√©xico",Pizzer√≠a, Abre a las 10a.m.,R√≠o Bravo
Tacos MAGGIE,,None Found,,"Pte. 3 105, R√≠o Bravo 1, R√≠o Bravo, 88950 Cdad. R√≠o Bravo, Tamps., M√©xico",Taquer√≠a, Abre a las 7:30a.m. del lun,R√≠o Bravo
Boneless House Rio Bravo,,None Found,+52 899 548 2085,"H√©roes de Nacozari 600, Ferrocarril Centro, 88950 Cdad. R√≠o Bravo, Tamps., M√©xico",Restaurante, Abre a las 12p.m.,R√≠o Bravo
El Nuevo Mariscos el Mar,,None Found,+52 899 853 1446,"Av Constituci√≥n 707, R√≠o Bravo, 88900 Cdad. R√≠o Bravo, Tamps., M√©xico",Marisquer√≠a, Abre a las 8a.m.,R√≠o Bravo
Pescados y Mariscos RB,,None Found,+52 899 155 7273,"Jalapa 1455, Nuevo Le√≥n, 88920 Cdad. R√≠o Bravo, Tamps., M√©xico",Marisquer√≠a, Abre a las 9:30a.m.,R√≠o Bravo
Crazy Taco,,None Found,,"88950, Av Francisco I. Madero 202, R√≠o Bravo, Cdad. R√≠o Bravo, Tamps., M√©xico",Taquer√≠a, Cierra a las 9p.m.,R√≠o Bravo
DepAntojitos,,None Found,,"Calle M. Abasolo 205, R√≠o Bravo, 88950 Cdad. R√≠o Bravo, Tamps., M√©xico",Restaurante familiar, Abre a las 8a.m. del lun,R√≠o Bravo
Tacos De Erasmo,,None Found,,"R√≠o Bravo, 88959 Cdad. R√≠o Bravo, Tamps., M√©xico",Taquer√≠a, Abre a las 6:30p.m.,R√≠o Bravo
Pizza De Prizza,pizzadprizza.com,None Found,+52 899 230 5122,"88900, Ju√°rez 112, R√≠o Bravo, 88930 Cdad. R√≠o Bravo, Tamps., M√©xico",Pizzer√≠a, Abre a las 10a.m.,R√≠o Bravo
La valenciana play kids,,None Found,+52 899 413 1658,"Vicente Guerrero#202, R√≠o Bravo, Ferrocarril Centro, 88900 Cdad. R√≠o Bravo, Tamps., M√©xico",Pizzer√≠a, Abre a la 1p.m.,R√≠o Bravo
El Molcajete,,None Found,+52 899 155 0629,"Guanajuato 225, Esperanza, 88920 Cdad. R√≠o Bravo, Tamps., M√©xico",Taquer√≠a, Abre a las 7a.m. del lun,R√≠o Bravo
Taqueria Flamingos,,None Found,,"88950, Av Constituci√≥n 1105, R√≠o Bravo 1, Cdad. R√≠o Bravo, Tamps., M√©xico",Taquer√≠a, Abre a las 8a.m. del lun,R√≠o Bravo
Mariscos La 12 R√≠o Bravo,,None Found,+52 899 207 1565,"88910, Morelos, 88910 Cdad. R√≠o Bravo, Tamps., M√©xico",Marisquer√≠a, Abre a las 10a.m.,R√≠o Bravo
Pescados y mariscos altamar,,None Found,+52 844 879 2019,"San Luis Potos√≠ 310, R√≠o Bravo, 88900 Cdad. R√≠o Bravo, Tamps., M√©xico",Restaurante familiar, Abre a las 8a.m.,R√≠o Bravo
Mr Elote Gourmet,,None Found,+52 899 159 5552,"Ju√°rez #202, R√≠o Bravo, 88900 Cdad. R√≠o Bravo, Tamps., M√©xico",Restaurante, Abre a la 1p.m. del lun,R√≠o Bravo
aarons_bbq,facebook.com,None Found,,"Benito Ju√°rez 3, La Paz, 88993 Cdad. R√≠o Bravo, Tamps., M√©xico",Restaurante, Abre a las 11a.m.,R√≠o Bravo
Montecarlo Restaurant & Bar,facebook.com,None Found,+52 899 831 7952,"Allende 101, R√≠o Bravo, 88959 Cdad. R√≠o Bravo, Tamps., M√©xico",Bar restaurante, Abre a las 10a.m.,R√≠o Bravo
Church's Chicken,churchs.com.mx,"Cadena de comida r√°pida que ofrece pollo frito, s√°ndwiches, alitas y acompa√±amientos estilo sure√±o.",+52 899 934 9400,"Av Francisco I. Madero 302, R√≠o Bravo 2, R√≠o Bravo, 88910 Cdad. R√≠o Bravo, Tamps., M√©xico",Restaurante de comida r√°pida, Abre a las 10a.m.,R√≠o Bravo
Taqueria Los Chulos,,None Found,,"R√≠o Bravo, 88950 Cdad. R√≠o Bravo, Tamps., M√©xico",Restaurante, Abre a las 4p.m.,R√≠o Bravo
Antojitos Mexicanos El Rinc√≥n,,None Found,+52 899 292 6643,"Avenida Constituci√≥n con calle Ju√°rez Mercado Edidal Local #20, 88930 Cdad. R√≠o Bravo, Tamps., M√©xico",Restaurante, Abre a las 8a.m. del lun,R√≠o Bravo
La Caba√±a Restaurant - Bar,,None Found,,"Francisco Mina 101, R√≠o Bravo 2, R√≠o Bravo, 88910 Cdad. R√≠o Bravo, Tamps., M√©xico",Bar restaurante,,R√≠o Bravo
Cenaduria Las Manas,facebook.com,None Found,,"Allende 101, R√≠o Bravo, 88959 Cdad. R√≠o Bravo, Tamps., M√©xico",Restaurante, Abre a las 5p.m. del mar,R√≠o Bravo
Casa Oliva,,None Found,+52 899 762 1457,"Av Sonora 112-local 9, R√≠o Bravo, 88900 Cdad. R√≠o Bravo, Tamps., M√©xico",Restaurante de brunch, Abre a las 9a.m. del lun,R√≠o Bravo
El Rancho Taqueria,,None Found,+52 899 934 7156,"Av. Mariano Matamoros 301, Cuauht√©moc, 88900 Cdad. R√≠o Bravo, Tamps., M√©xico",Restaurante, Cierra a las 10p.m.,R√≠o Bravo
El Culichi Mariscos estilo sinaloa,facebook.com,None Found,+52 899 150 8464,"esquina con rayon, Plaza comercial H4, Av. Jos√© Mar√≠a Morelos y Pav√≥n Supermanzana Frac, R√≠o Bravo 2, R√≠o Bravo, 88900 Cdad. R√≠o Bravo, Tamps., M√©xico",Restaurante, Abre a las 11a.m.,R√≠o Bravo
"Comidas ""El Hermano""",,None Found,+52 899 934 3575,"88900 Centro, 88900 Cdad. R√≠o Bravo, Tamps., M√©xico",Restaurante, Abre a las 8a.m.,R√≠o Bravo
Tacos Y Bulldogs Toro,,None Found,,"16 de Septiembre 101, R√≠o Bravo 2, R√≠o Bravo, 88959 Cdad. R√≠o Bravo, Tamps., M√©xico",Taquer√≠a, Abre a las 7p.m.,R√≠o Bravo
"Taqueria Do√±a Mary ""La tradici√≥n""",,None Found,,"Allende 506, R√≠o Bravo, 88950 Cdad. R√≠o Bravo, Tamps., M√©xico",Restaurante mexicano,,R√≠o Bravo
Chicken Country,,None Found,,"Av Francisco I. Madero, R√≠o Bravo 2, R√≠o Bravo, 88959 Cdad. R√≠o Bravo, Tamps., M√©xico",Restaurante,,R√≠o Bravo
Tacos Betin,,None Found,,"88900, Jalapa 208, San Diego, 88910 Cdad. R√≠o Bravo, Tamps., M√©xico",Taquer√≠a, Abre a las 7a.m. del lun,R√≠o Bravo
Burger Capital,,None Found,+52 899 494 9768,"Av Constituci√≥n 306, R√≠o Bravo, 88959 Cdad. R√≠o Bravo, Tamps., M√©xico",Hamburgueser√≠a, Abre a las 12p.m.,R√≠o Bravo
Campo Bravo,,None Found,+52 427 272 4445,"Panamericana Kil√≥metro 171, Centro, 76800 San Juan del R√≠o, Qro., M√©xico",Bar restaurante, Abre a la 1p.m.,R√≠o Bravo
Food Fighters R√≠o Bravo,facebook.com,None Found,+52 899 110 6522,"Cuarta 211, Hijos de Ejidatarios, 88920 Cdad. R√≠o Bravo, Tamps., M√©xico",Restaurante, Abre a las 11a.m.,R√≠o Bravo
"""El Olivo""",,None Found,,"R√≠o Bravo 2, R√≠o Bravo, 88959 Cdad. R√≠o Bravo, Tamps., M√©xico",Restaurante mexicano,,R√≠o Bravo
Taqueria Plaza # 3,,None Found,+52 899 947 7079,"Av francisco I madero con, 27 de Febrero 104A, 88940 Cdad. R√≠o Bravo, Tamps., M√©xico",Taquer√≠a, Abre a las 3p.m.,R√≠o Bravo
Carnes Selectas La Bifer√≠a R√≠o Bravo,labiferia.com.mx,None Found,+52 899 934 1110,"Av Francisco I. Madero 504A, entre Ray√≥n y Jalapa, R√≠o Bravo 2, R√≠o Bravo, 88900 Cdad. R√≠o Bravo, Tamps., M√©xico",Carnicer√≠a, Abre a las 9a.m.,R√≠o Bravo
Mundo Virtual Games Wings,,None Found,+52 899 443 0030,"88900, C. 20 de Noviembre 1911, col 1 de mayo, 88900 Cdad. R√≠o Bravo, Tamps., M√©xico",Restaurante de alas de pollo, Abre a las 10a.m.,R√≠o Bravo
Fortanelly's Originale,,None Found,+52 899 961 2400,"Reynosa 298, R√≠o Bravo, 88900 Cdad. R√≠o Bravo, Tamps., M√©xico",Restaurante familiar, Abre a las 2p.m.,R√≠o Bravo
Quesadillas del Estado de Hidalgo,,None Found,,"C. Independencia 300, R√≠o Bravo 2, R√≠o Bravo, 88959 Cdad. R√≠o Bravo, Tamps., M√©xico",Restaurante de brunch, Abre a las 8a.m.,R√≠o Bravo
Mariscos 7 mares,,None Found,,"R√≠o Bravo, 88959 Cdad. R√≠o Bravo, Tamps., M√©xico",Marisquer√≠a, Abre a las 10a.m.,R√≠o Bravo
Cafe Sanchez Restaurant,,None Found,,"Insurgentes 1110, R√≠o Bravo, 88950 Cdad. R√≠o Bravo, Tamps., M√©xico",Restaurante,,R√≠o Bravo
La Mariscada Pescados y Mariscos,,None Found,+52 899 688 4835,"Coahuila Nte 409A, R√≠o Bravo, 88910 Cdad. R√≠o Bravo, Tamps., M√©xico",Marisquer√≠a, Abre a las 10:30a.m.,R√≠o Bravo
Vaqueros Pizza,facebook.com,None Found,+52 899 156 6624,"Guanajuato 910, Fundadores, 88900 Cdad. R√≠o Bravo, Tamps., M√©xico",Pizzer√≠a, Abre a las 12p.m.,R√≠o Bravo
"Antojitos Mexicanos ""La Catrina""",,None Found,+52 899 121 5072,"Ote. 3 100, R√≠o Bravo 1, R√≠o Bravo, 88950 Cdad. R√≠o Bravo, Tamps., M√©xico",Restaurante mexicano, Abre a las 7:30a.m. del lun,R√≠o Bravo
Yogurt Natural Santa F√©,,None Found,+52 899 934 0866,"C. Tlaxcala 702, R√≠o Bravo, 88910 Cdad. R√≠o Bravo, Tamps., M√©xico",Restaurante, Cierra a las 10:30p.m.,R√≠o Bravo
Rafa's Grill,,None Found,+52 899 798 9560,"415R√≠o, Av Francisco I. Madero Supermanzana Bravo, R√≠o Bravo 2, San Diego, 88900 Cdad. R√≠o Bravo, Tamps., M√©xico",Restaurante, Abre a las 11a.m.,R√≠o Bravo
"Tacos ""El primo"" No 2",,None Found,,"88940, Emilio G√≥mez 125, Primero de Mayo, Cdad. R√≠o Bravo, Tamps., M√©xico",Taquer√≠a, Abre a las 4p.m.,R√≠o Bravo
Taqueria El Travieso,,None Found,,"88950, Allende 101, R√≠o Bravo, Cdad. R√≠o Bravo, Tamps., M√©xico",Taquer√≠a, Abre a las 7a.m. del lun,R√≠o Bravo
TORTAS Y HAMBURGUESAS ASAEL,,None Found,,"Av Constituci√≥n & H. Galeana, Ferrocarril Centro, 88900 Cdad. R√≠o Bravo, Tamps., M√©xico",Hamburgueser√≠a, Abre a las 4p.m.,R√≠o Bravo
ChatoDogsüå≠üçî,,None Found,+52 899 156 5275,"Av. Mariano Matamoros 310, Ferrocarril Centro, 88950 Cdad. R√≠o Bravo, Tamps., M√©xico",Hamburgueser√≠a, Cierra a la 1a.m.,R√≠o Bravo
Pescaderia LA SAUTE√ëA #3,,None Found,+52 899 934 3928,"Guanajuato #411, R√≠o Bravo, Morelos, 88910 Cdad. R√≠o Bravo, Tamps., M√©xico",Marisquer√≠a, Abre a las 9a.m.,R√≠o Bravo
