Names,Website,Introduction,Phone Number,Address,Type,Opens At,Municipio
El Rancho de Arriba,el-rancho-de-arriba.ola.click,None Found,+52 464 145 1976,"Lib. de Salamanca, La Luz, 36780 Salamanca, Gto., México",Restaurante familiar, Abre a la 1:30p.m.,Salamanca
El Mirador,,None Found,+52 464 649 4509,"Irapuato, 36878 Salamanca, Gto., México",Marisquería, Abre a las 10:30a.m.,Salamanca
Arrachera Salamanca El Tractorcito,,None Found,+52 464 647 5050,"Blvd. Faja de Oro 711, San Juan Chihuahua, 36747 Salamanca, Gto., México",Restaurante especializado en filetes, Abre a las 2p.m.,Salamanca
El Antiguo Restaurant,elantiguo.com.mx,None Found,+52 464 114 3674,"Av Leona Vicario 714, Tomasa Estevez, 36748 Salamanca, Gto., México",Restaurante, Abre a la 1p.m.,Salamanca
Restaurante La Salmantina,wyndhamhotels.com,None Found,+52 464 647 0359,"Blvd. Faja de Oro 1129, Los Rangeles, 36740 Salamanca, Gto., México",Restaurante, Abre a las 7a.m.,Salamanca
La Artesa,,None Found,,"Naranjos 220, Bellavista, 36730 Salamanca, Gto., México",Restaurante de brunch, Abre a las 8a.m.,Salamanca
Twenty One Resto,,None Found,+52 464 113 1114,"36744 Boulevard Faja de Oro 1030 (antes 718, San Juan Chihuahua, 36744 Salamanca, Gto., México",Restaurante, Abre a la 1:30p.m.,Salamanca
La Granja,,None Found,+52 464 648 7373,"C. Morelos 2000, Arboledas, 36740 Salamanca, Gto., México",Bar restaurante, Abre a las 8a.m.,Salamanca
El Boka,,None Found,+52 464 651 9629,"Blvd. Faja de Oro 1406, Los Rangeles, 36730 Salamanca, Gto., México",Restaurante, Abre a la 1:30p.m.,Salamanca
LA CABAÑA DE DON BIGOTES,,None Found,+52 464 690 1401,"Veracruz 376, San Juan Chihuahua, Salamanca, Gto., México",Bar restaurante, Abre a la 1p.m.,Salamanca
Las Guayuzas,,None Found,+52 464 647 0517,"Blvd. Faja de Oro 1803, El Pirul, 36740 Salamanca, Gto., México",Restaurante especializado en filetes, Abre a la 1p.m.,Salamanca
Peña Sola,peñasola.com,None Found,,"Carretera La Ordeña - Juventino Rosas Km 5, 36865 Salamanca, Gto., México",Atracción turística, Abre a las 9:30a.m.,Salamanca
Restaurante Sabores Huapango Salamanca,,None Found,+52 464 648 8093,"Blvd. Faja de Oro 1022, San Juan Chihuahua, 36744 Salamanca, Gto., México",Marisquería, Abre a las 11a.m.,Salamanca
Mate Bistro,,None Found,+52 464 640 7457,"González Castellanos 401, Villarreal, 36740 Salamanca, Gto., México",Restaurante, Abre a las 8a.m.,Salamanca
Restaurante Martins,,None Found,,"Arbol Grande 708, Bellavista, 36730 Salamanca, Gto., México",Restaurante,,Salamanca
Molcajete Grill,,None Found,+52 464 124 7878,"C. Tenixtepec 102, Bellavista, 36730 Salamanca, Gto., México",Parrilla, Abre a la 1p.m.,Salamanca
Vips Salamanca Gto.,vips.com.mx,None Found,+52 41130077,"Blvd. Faja de Oro 801, Centro, 36700 Salamanca, Gto., México",Restaurante mexicano, Abre a las 7a.m.,Salamanca
MamaLinda Salamanca,,None Found,,"Cam. a Mancera 214-interior 1061, Presidencial, Las Glorias, 36773 Salamanca, Gto., México",Restaurante italiano, Abre a las 2p.m.,Salamanca
Ivanhoe Restaurante,ivanhoerestaurante.com.mx,None Found,+52 464 113 8414,"Carretera Salamanca- La Ordeña 3 Entre Rancho Oteros y Rancho Guadalupe, 36873 Salamanca, Gto., México",Restaurante, Abre a la 1p.m.,Salamanca
El Baul,,None Found,+52 464 642 5338,"C. Tomasa Esteves 306, Centro, 36750 Salamanca, Gto., México",Restaurante, Abre a las 9a.m.,Salamanca
Carnes asadas El Asador del Rey Salamanca,facebook.com,None Found,+52 464 652 9088,"Blvrd Valle de Santiago 210, Guanajuato, 36780 Salamanca, Gto., México",Restaurante especializado en chuletas, Abre a las 11a.m.,Salamanca
Aldebarán Restaurante-Eventos,,None Found,+52 464 656 7248,"Jardines del Country 101, Jardines del Country, Soto Innes, 36764 Salamanca, Gto., México",Restaurante de cocina española, Abre a las 8a.m.,Salamanca
La Parrilla de Archi,,None Found,+52 464 640 8068,"Madero 302, Bellavista, 36730 Salamanca, Gto., México",Restaurante especializado en chuletas, Abre a las 12p.m.,Salamanca
El Chairel Mariscos,,None Found,+52 464 648 8495,"Arbol Grande 105, Bellavista, 36730 Salamanca, Gto., México",Marisquería, Abre a las 11:30a.m.,Salamanca
Las Marias Quesadillas y Huaraches,,None Found,+52 464 102 1549,"Blvd. Faja de Oro 1009, Los Rangeles, 36747 Salamanca, Gto., México",Restaurante mexicano, Abre a las 8a.m.,Salamanca
La Laguna del Chairel,,None Found,+52 464 648 1683,"Blvd. Faja de Oro 1015, Los Rangeles, 36747 Salamanca, Gto., México",Marisquería, Abre a las 11:30a.m.,Salamanca
Dos Arbolitos,,None Found,+52 464 648 4058,"Sanchez Torrado 300, Centro, 36700 Salamanca, Gto., México",Restaurante, Abre a las 8a.m. del lun,Salamanca
Italiano Ramos,facebook.com,None Found,+52 464 641 7769,"Av. Comunicación Nte. 201, Infonavit #1, El Cerrito, 36790 Salamanca, Gto., México",Restaurante italiano, Abre a las 9a.m. del lun,Salamanca
La Cevicheria Salamanca,,None Found,+52 464 181 1716,"Blvd. las Reinas 101, Las Reynas, 36730 Salamanca, Gto., México",Marisquería, Abre a las 12p.m.,Salamanca
El molino,,None Found,,"Ezequiel Ordóñez 130, Bellavista, 36730 Salamanca, Gto., México",Buffet libre, Abre a las 8a.m.,Salamanca
Restaurante La Escondida,,None Found,+52 464 653 4827,"Del Bosque 805, San Gonzalo, 36740 Salamanca, Gto., México",Restaurante mexicano, Abre a las 10a.m. del mié,Salamanca
Kermés Cenaduria,,None Found,+52 464 120 5311,"Av. Progreso # 400, colonia alvarado Alvarado, 36750 Salamanca, Gto., México",Restaurante mexicano, Abre a las 2p.m.,Salamanca
La Parroquia,facebook.com,None Found,+52 464 117 9643,"C. Vicente Suárez 103 B, El durazno, 36748 Salamanca, Gto., México",Restaurante, Abre a las 8a.m.,Salamanca
AH´RANCHERA PARRILLADA BUFFET,,None Found,,"C. Veracruz 409 B, San Juan Chihuahua, 36744 Salamanca, Gto., México",Restaurante, Abre a la 1p.m.,Salamanca
Cocina Economica Doña Cande,,None Found,+52 464 643 4002,"Av. del Trabajo, Centro, 36700 Salamanca, Gto., México",Restaurante, Abre a las 8:30a.m. del lun,Salamanca
Maria bonita,,None Found,+52 464 126 3699,"36700, Centro, 36700 Salamanca, Gto., México",Restaurante, Abre a las 8a.m.,Salamanca
Restaurant EL PLAZA,,None Found,+52 464 648 1015,"Portal Corregidora No. 218 Altos, 36700 Salamanca, Gto., México",Restaurante mexicano, Abre a las 9:30a.m.,Salamanca
Mariscos Hilda (Héroes),mariscoshilda.com,None Found,+52 464 647 5797,"Av Del Trabajo Ote 1422, Alamos, 36750 Salamanca, Gto., México",Marisquería, Abre a las 11a.m.,Salamanca
Mariscos El Guero,,None Found,+52 464 102 4051,"C. Tenixtepec 305, Bellavista, 36730 Salamanca, Gto., México",Marisquería, Abre a las 11a.m.,Salamanca
Fontana Restaurant,,None Found,,"36700, Albino García 201, Centro, Salamanca, Gto., México",Restaurante, Cierra a las 8p.m.,Salamanca
Carbón Parrilla de Barrio Salamanca,,None Found,+52 464 181 4963,"Vía Alta, 36765 Salamanca, Gto., México",Restaurante, Abre a la 1p.m.,Salamanca
El Antojo Cenaduría,,None Found,+52 464 120 1616,"Poza Rica 510, Bellavista, 36730 Salamanca, Gto., México",Restaurante, Abre a las 8:30a.m.,Salamanca
Guarawatos,,None Found,+52 464 647 4862,"Ezequiel Ordóñez 112 B, Bellavista, 36730 Salamanca, Gto., México",Bar restaurante, Abre a las 11a.m.,Salamanca
Asian Buffet,facebook.com,None Found,+52 464 690 0818,"Plaza Galerias, Blvd. Faja de Oro 1502, Los Rangeles, 36748 Salamanca, Gto., México",Buffet libre, Abre a las 12p.m.,Salamanca
Tacos La Herradura,,None Found,+52 464 225 5363,"Ignacio Zaragoza 801, Centro, 36759 Salamanca, Gto., México",Taquería, 4a.m. ,Salamanca
Mariscos Hilda (Hidalgo),,None Found,+52 464 642 3667,"C. Miguel Hidalgo 1604, San Juan de la Presa, 36770 Salamanca, Gto., México",Marisquería, Abre a las 11a.m.,Salamanca
Los Nichos de Sam,,None Found,+52 464 647 3094,"Ezequiel Ordóñez 103, Bellavista, 36730 Salamanca, Gto., México",Restaurante latinoamericano, Abre a la 1p.m.,Salamanca
El Veracruz café,,None Found,+52 464 690 2614,"Azcapotzalco 103a, Bellavista, 36740 Salamanca, Gto., México",Restaurante, Abre a las 8:30a.m.,Salamanca
La Esquina V.I.P.,,None Found,,"Naranjos 225, Bellavista, 36730 Salamanca, Gto., México",Bar restaurante, Abre a las 12p.m.,Salamanca
Carbonon,,None Found,+52 464 168 3824,"Blvd. Faja de Oro 104, Centro, 36759 Salamanca, Gto., México",Restaurante especializado en chuletas, Abre a las 10a.m.,Salamanca
La Refinera,larefi.com.mx,None Found,+52 464 123 1683,"Av Leona Vicario 107, San Juan Chihuahua, 36744 Salamanca, Gto., México",Bar restaurante, Abre a las 12p.m.,Salamanca
Mi Ciudad Querida,,None Found,+52 464 162 5609,"C. Tenixtepec 504, Bellavista, 36730 Salamanca, Gto., México",Restaurante, Abre a las 8a.m.,Salamanca
El Veracruz Café,,None Found,+52 464 641 3124,"C. Alvaro Obregón 707, Centro, 36759 Salamanca, Gto., México",Restaurante, Abre a las 8a.m.,Salamanca
Cenaduría Pio-Pio,,None Found,,"Azcapotzalco 205, Bellavista, 36730 Salamanca, Gto., México",Restaurante,,Salamanca
Puerta Cuatro,,None Found,+52 464 133 3613,"Blvd. Manuel J. Clouthier 1701, El Monte, 36720 Salamanca, Gto., México",Restaurante, Abre a la 1:30p.m.,Salamanca
Bar Agustinos,,None Found,+52 464 647 7521,"Ignacio Zaragoza 101, Centro, 36700 Salamanca, Gto., México",Bar restaurante, Abre a las 12p.m.,Salamanca
Saladetti Salamanca,facebook.com,None Found,+52 464 121 3318,"8 D, Plaza Galerías Salamanca, Guadalupe, 36747 Salamanca, Gto., México",Tienda de ensaladas, Abre a las 10a.m.,Salamanca
Gorditas y Quesadillas Juanita,,None Found,+52 464 123 7883,"Blvd. Faja de Oro 907, San Gonzalo, 36747 Salamanca, Gto., México",Restaurante mexicano, Abre a las 8:30a.m.,Salamanca
Mariscos Las Escolleras,,None Found,+52 464 641 6781,"Andrés Delgado 115, Centro, 36700 Salamanca, Gto., México",Marisquería, Abre a las 12p.m.,Salamanca
El Portoncito,,None Found,+52 464 641 5382,"Ébano 321, Bellavista, 36730 Salamanca, Gto., México",Restaurante, Abre a las 12p.m. del lun,Salamanca
El Rincón De Los Ángeles,,None Found,+52 464 205 0977,"Blvd. Faja de Oro 1502-11-D, Los Rangeles, 36747 Salamanca, Gto., México",Restaurante mexicano, Abre a las 11a.m.,Salamanca
Carnitas San Antonio,,None Found,+52 464 126 9676,"San Antonio 200, Centro, 36700 Salamanca, Gto., México",Restaurante mexicano, Cierra a las 5a.m. ,Salamanca
Curacao Pizza - Bar,,None Found,+52 464 113 0690,"Boulevard Faja de Oro 1125 Guadalupe, 36710 Salamanca, Gto., México",Restaurante familiar, Abre a las 8:30a.m.,Salamanca
Desayunos. La Martina,,None Found,+52 464 113 0158,"Av Leona Vicario 346, Villa Verde, 36744 Salamanca, Gto., México",Restaurante de desayunos, Abre a las 8a.m.,Salamanca
El Chiringuito,,None Found,,"Arbol Grande 607, Bellavista, 36730 Salamanca, Gto., México",Restaurante, Abre a las 8a.m.,Salamanca
Cenaduria Jalisco,,None Found,,"Mariano Matamoros 226, Centro, 36750 Salamanca, Gto., México",Restaurante mexicano, Abre a las 5:30p.m.,Salamanca
Japan Sushi Salamanca,,None Found,+52 464 579 9884,"González Castellanos 502, Villarreal, 36740 Salamanca, Gto., México",Restaurante japonés, Abre a la 1p.m.,Salamanca
CARBÓN Vía Alta,carbonparrilladebarrio.com,None Found,+52 464 688 5604,"Cam. a Mancera 214, Las Glorias, 36766 Salamanca, Gto., México",Restaurante argentino, Abre a la 1p.m.,Salamanca
Mariscos Las Escolleras,,None Found,+52 464 648 7404,"Arbol Grande #103-B, Bellavista, 36730 Salamanca, Gto., México",Marisquería, Abre a las 12p.m.,Salamanca
Mesa Casa Blanca,,None Found,+52 464 121 7242,"Monte Sinaí 109, Fraccionamiento del Monte, 36720 Salamanca, Gto., México",Restaurante, Abre a las 9a.m.,Salamanca
Tacos El Patron,,None Found,+52 461 191 7325,"Blvrd Valle de Santiago 2601, Sin Nombre, 36786 Salamanca, Gto., México",Taquería, Abre a las 6p.m.,Salamanca
Obelisco 145,,None Found,+52 464 186 2771,"36730, Bellavista, 36730 Salamanca, Gto., México",Restaurante, Abre a las 9a.m.,Salamanca
"Restaurant De Mariscos ""Cocina Del Mar"" Desde 1972",,None Found,,"C. 5 de Mayo 312, Centro, 36700 Salamanca, Gto., México",Marisquería, Abre a las 11a.m.,Salamanca
weloveburgers Salamanca,wlb.mx,None Found,+52 464 162 8863,"Poza Rica 901-Local 6 PB, Bellavista, 36730 Salamanca, Gto., México",Hamburguesería, Abre a la 1p.m.,Salamanca
Soma Hamburgueseria,facebook.com,None Found,+52 464 119 7731,"C. Veracruz 114, Bellavista, 36740 Salamanca, Gto., México",Hamburguesería, Abre a la 1p.m. del mar,Salamanca
Chila King,,None Found,+52 464 647 5615,"Panuco 304-A-304-A, Bellavista, 36730 Salamanca, Gto., México",Restaurante, Abre a las 8:30a.m.,Salamanca
El solecito de simon,facebook.com,None Found,+52 464 126 5198,"Neptuno 519, Progreso Industrial, 36750 Salamanca, Gto., México",Restaurante mexicano, Abre a las 6p.m.,Salamanca
MI SALAMANCA QUERIDA,,None Found,+52 464 136 2620,"Blvd. Faja de Oro No 1011, COLONIA GUADALUPE, 36700 Salamanca, Gto., México",Comida a domicilio, Abre a las 8:30a.m.,Salamanca
Flamin Wings Faja de Oro,flaminwings.com,"Sitio popular con techo alto, ventanas grandes y mesas en el exterior que sirve alitas, hamburguesas y nachos.",+52 464 113 0397,"Blvd. Faja de Oro 1119-int. 6, El Durazno, 36748 Salamanca, Gto., México",Restaurante de alas de pollo, Abre a las 2p.m.,Salamanca
Tacos El Rayo,tacoselrayo.com,None Found,+52 464 126 1782,"Blvd. Faja de Oro 506-B, Bellavista, 36730 Salamanca, Gto., México",Taquería, 4a.m. ,Salamanca
Restaurante Bar Chale,,None Found,+52 464 109 1484,"Arbol Grande 604-A, Bellavista, 36730 Salamanca, Gto., México",Bar restaurante, Abre a las 8a.m. del lun,Salamanca
Cantina Real de Don Carlos,,None Found,+52 464 688 3351,"Carretera Federal 45 Tramo Irapuato-Salamanca Km 100 + 500, 36875 Salamanca, Gto., México",Bar, Abre a las 2p.m.,Salamanca
Restaurante Tapia,,None Found,,"Lázaro Cárdenas 1120, Tamaulipas, 36759 Salamanca, Gto., México",Marisquería, Abre a las 12p.m.,Salamanca
Kid Lunch México,,None Found,+52 464 644 8111,"Hacienda 106, Campestre, 36710 Salamanca, Gto., México",Restaurante, Abre a las 7a.m. del lun,Salamanca
La Parrilla De Ramiro,,None Found,+52 464 641 5816,"Mariano Abasolo 411B, Centro, 36700 Centro, Gto., México",Taquería, Abre a las 5:30p.m.,Salamanca
Salmantina Antojería,,None Found,,"Benito Juárez 125, Centro, 36700 Salamanca, Gto., México",Restaurante mexicano,,Salamanca
Cocina el buen provecho,,None Found,,"C. Guerrero 729, Centro, 36750 Salamanca, Gto., México",Restaurante mexicano, Abre a las 12p.m. del lun,Salamanca
Bar Tony,,None Found,+52 464 647 3188,"Mariano Abasolo 601B, Centro, 36700 Centro, Gto., México",Bar, Abre a las 10a.m.,Salamanca
Di María,,None Found,+52 464 104 3380,"Portal de Los Bravos 119, Centro, 36700 Salamanca, Gto., México",Restaurante, Abre a las 4p.m. del lun,Salamanca
Cenaduria La Preferida de Celso,,None Found,+52 464 641 7477,"Francita 304, Bellavista, 36730 Salamanca, Gto., México",Restaurante, Abre a las 9a.m.,Salamanca
Dejavú Salamanca,dejavusalamanca.com,None Found,+52 464 117 9906,"Con, Calle Altamira, Tampico 201, 36703 Salamanca, Gto., México",Bar restaurante, Abre a las 2p.m.,Salamanca
Xidooquil Bellavista,,None Found,+52 464 207 1771,"Arbol Grande 705, Bellavista, 36730 Salamanca, Gto., México",Restaurante mexicano, Abre a las 8a.m.,Salamanca
Ceiba Coffee Bar & Brunch,linktr.ee,None Found,,"C. Miguel Hidalgo 219, Centro, 36750 Salamanca, Gto., México",Restaurante, Abre a las 8:15a.m.,Salamanca
Santísima Trinidad,,None Found,+52 464 647 6019,"C. 5 de Mayo 301, Centro, 36700 Salamanca, Gto., México",Restaurante mexicano, Abre a las 9a.m.,Salamanca
CARNITAS RODRIGO,es-la.facebook.com,None Found,+52 464 121 1714,"Blvd. Faja de Oro 909, San Juan Chihuahua, 36747 Salamanca, Gto., México",Restaurante, Abre a las 8a.m.,Salamanca
Cocina Economica Vicky,,None Found,,"Pipila 203, Centro, 36700 Salamanca, Gto., México",Restaurante,,Salamanca
Restaurant HUA SING,m.facebook.com,None Found,+52 464 641 3678,"Blvd. Manuel J. Clouthier 2508, Fracc Villaluz, El Monte, 36720 Salamanca, Gto., México",Restaurante, Abre a la 1p.m.,Salamanca
La 5 street food,facebook.com,None Found,+52 464 644 9402,"Altamira #104, Bellavista, 36730 Salamanca, Gto., México",Hamburguesería, Abre a las 2p.m.,Salamanca
Cenaduria Elva,,None Found,+52 464 647 6444,"C. Aldama 620, Centro, 36700 Salamanca, Gto., México",Restaurante mexicano, Abre a las 4:30p.m.,Salamanca
Cenaduria de Celso,es-la.facebook.com,None Found,+52 464 171 3016,"Victoria 103, Centro, 36700 Salamanca, Gto., México",Restaurante mexicano, Abre a las 9a.m.,Salamanca
"Buffet y almuerzos ""EL MEXICANO""",facebook.com,None Found,+52 464 155 2984,"Av. del Trabajo 208-A, Centro, 36700 Salamanca, Gto., México",Restaurante mexicano, Abre a las 8a.m.,Salamanca
Taqueria Cruz Roja,,None Found,,"36740, Tampico 313A, San Gonzalo, Salamanca, Gto., México",Taquería, Abre a las 7p.m.,Salamanca
Alitas Garcia’s,,None Found,,"Calle Felipe Angeles 121, Centro, 36700 Salamanca, Gto., México",Restaurante, Cierra a las 7p.m.,Salamanca
Jacobs,,None Found,+52 464 132 2140,"C. Miguel Hidalgo 213-A, Centro, 36700 Salamanca, Gto., México",Pizzería, Abre a las 10:30a.m.,Salamanca
"Menuderia ""La Güera""",,None Found,,"Av. del Trabajo 226, Centro, 36750 Salamanca, Gto., México",Alimentación y bebida, Abre a las 7a.m.,Salamanca
Cafe De Anda,,None Found,,"Naranjos 101-107, Bellavista, 36730 Salamanca, Gto., México",Cafetería, Abre a las 4p.m. del lun,Salamanca
CENTRO COMERCIAL VIA ALTA SALAMANCA,viaalta.mx,None Found,+52 464 688 1435,"Cam. a Mancera 214, Las Glorias, 36766 Salamanca, Gto., México",Centro comercial, Abre a las 11a.m.,Salamanca
La parrilla de barrio,,None Found,,"Allende #826 Esquina con, Artes, 36700 Salamanca, Gto., México",Restaurante mexicano, Abre a las 12p.m.,Salamanca
Chez Bistro,,None Found,+52 464 171 5477,"Altamira 201, Bellavista, 36730 Salamanca, Gto., México",Bar restaurante,,Salamanca
Golden Dragón,,None Found,,"Ignacio Zaragoza, Centro, 36750 Salamanca, Gto., México",Restaurante de cocina mandarina, Abre a las 11:30a.m.,Salamanca
Carl's JR Salamanca,carlsjr.com.mx,"Cadena de comida rápida, famosa por su variedad de hamburguesas apiladas y promociones, además de batidos.",+52 201 927 5422,"Cam. a Mancera 214, Las Glorias, 36766 Salamanca, Gto., México",Restaurante de comida rápida, Abre a las 9a.m.,Salamanca
Maki Roll,,None Found,+52 464 130 7805,"Blvd. Faja de Oro 503 a, San Gonzalo, 36740 Salamanca, Gto., México",Restaurante japonés, Abre a las 12p.m.,Salamanca
Antojitos Mexicanos Doña Meche,,None Found,+52 464 648 2203,"Av. Sánchez Torrado S/N, Zona Centro, 36700 Salamanca, Gto., México",Restaurante mexicano, Abre a las 8a.m.,Salamanca
Rosticería Conejo,,None Found,+52 464 225 4227,"Mariano Abasolo esquina Sánchez torrado locales 154 y 155, Centro, 36700 Salamanca, Gto., México",Restaurante especializado en pollo, Abre a las 9a.m.,Salamanca
Carnitas RODR,,None Found,+52 464 214 5045,"C. 5 de Mayo 408, Centro, 36700 Salamanca, Gto., México",Restaurante, Abre a las 6a.m.,Salamanca
Rosticeria Salamanca,,None Found,+52 464 647 5848,"Blvrd Valle de Santiago 500-C, Guanajuato, 36780 Salamanca, Gto., México",Restaurante especializado en pollo, Abre a las 8a.m.,Salamanca
Restaurante Pollo Feliz,,"Cadena informal que ofrece pollo estilo mexicano, además de otros platos tradicionales y aguas frescas.",+52 464 647 4388,"C. Guerrero 103, Centro, 36750 Salamanca, Gto., México",Restaurante especializado en pollo, Abre a las 10:30a.m.,Salamanca
"Tortas, Tostadas Y Mariscos ""El Chale""",,None Found,,"Arbol Grande, Bellavista, 36730 Salamanca, Gto., México",Marisquería, Abre a las 12:30p.m.,Salamanca
Gallinazo,,None Found,+52 464 641 1777,"Blvd. Manuel J. Clouthier 1002, Aztlan, 36720 Salamanca, Gto., México",Restaurante de comida rápida, Abre a las 10a.m.,Salamanca
Rosticeria Salamanca,,None Found,,"C. 5 de Mayo 412, Centro, 36700 Salamanca, Gto., México",Restaurante especializado en pollo,,Salamanca
