Names,Website,Introduction,Phone Number,Address,Type,Opens At,Municipio
Restaurant El Herradero,facebook.com,None Found,+52 653 534 4060,"Av. Álvaro Obregón 1111, Burócrata, 83449 San Luis Río Colorado, Son., México",Restaurante mexicano, Abre a las 8a.m.,San Luis Río Colorado
El Parianchi,,None Found,+52 653 534 6491,"Av. Captain Carlos G. Calles 1001, Comercial, 83449 San Luis Río Colorado, Son., México",Restaurante, Abre a las 8a.m.,San Luis Río Colorado
Pranvera Terraza,,None Found,+52 653 849 3233,"Calle 2 Avenida Revolución &, Comercial, 83449 San Luis Río Colorado, Son., México",Bar restaurante, Abre a la 1p.m.,San Luis Río Colorado
La Cocina De Doña Blanca,m.facebook.com,None Found,+52 653 517 0285,"C. 34 3309, Campestre, 83499 San Luis Río Colorado, Son., México",Restaurante, Abre a las 7:30a.m.,San Luis Río Colorado
Restaurante La Casa Antigua,,None Found,+52 653 534 9300,"Av Benito Juárez García 2104, Residencias, 83448 San Luis Río Colorado, Son., México",Restaurante,,San Luis Río Colorado
Sonori Restaurant,,None Found,+52 653 690 8010,"Av. Tamaulipas y Calle 9, 83440 San Luis Río Colorado, Son., México",Restaurante familiar, Abre a la 1p.m.,San Luis Río Colorado
Pez Gallo Sushi & Cevicheria San Luis,pezgallo.mx,None Found,+52 653 209 1683,"Av Alvaro Obregon & Calle 11, Comercial, 83449 San Luis Río Colorado, Son., México",Restaurante, Abre a las 12p.m.,San Luis Río Colorado
Tacos El Chipilon,,None Found,+52 653 518 3240,"Avenida Revolución 20 y 21 2009, Residencias, 83448 San Luis Río Colorado, Son., México",Taquería, Cierra a las 4a.m. ,San Luis Río Colorado
Los Angulo Carnes Y Mariscos,mariscoslosangulo.com,None Found,+52 653 534 0421,"83449, Av. Álvaro Obregón 826, Comercial, 83449 San Luis Río Colorado, Son., México",Marisquería, Abre a las 10a.m.,San Luis Río Colorado
Tortas DF,facebook.com,None Found,+52 653 535 7796,"Av. Álvaro Obregón 506, Centro, 83449 San Luis Río Colorado, Son., México",Restaurante de desayunos, Cierra a las 3a.m. ,San Luis Río Colorado
Las Cazuelas,facebook.com,None Found,+52 653 534 5662,"Av. Álvaro Obregón 803, Comercial, 83449 San Luis Río Colorado, Son., México",Restaurante, Abre a las 8:15a.m.,San Luis Río Colorado
Blanca Elsa Desayunos,instagram.com,None Found,+52 653 596 1684,"Av 5 de Mayo y 22, Residencias, 83448 San Luis Río Colorado, Son., México",Restaurante de desayunos, Abre a las 8a.m.,San Luis Río Colorado
Mr Chobys Restaurant,,None Found,+52 653 535 0121,"Av. Álvaro Obregón s/n, Comercial, 83448 San Luis Río Colorado, Son., México",Restaurante, Abre a las 11a.m.,San Luis Río Colorado
Brisa Norte,facebook.com,None Found,+52 653 120 5999,"Av. Tlaxcala 1702, Jalisco, 83447 San Luis Río Colorado, Son., México",Restaurante, 2a.m. ,San Luis Río Colorado
La Pérgola Restaurante,,None Found,+52 653 175 1276,"Av 5 de Mayo 1813, Residencias, 83448 San Luis Río Colorado, Son., México",Restaurante, Abre a las 9a.m.,San Luis Río Colorado
Asadero Los Poblanos,,None Found,+52 653 119 1880,"Av. Chihuahua 2603B, Campestre, 83499 San Luis Río Colorado, Son., México",Taquería, Cierra a las 3a.m. ,San Luis Río Colorado
LA TERRAZA San Luis Río Colorado,,None Found,,"Carr del Valle LB, La Mesa, 83420 San Luis Río Colorado, Son., México",Restaurante, Abre a las 4p.m. del jue,San Luis Río Colorado
LA TERRAZA San Luis Río Colorado,,None Found,,"Carr del Valle LB, La Mesa, 83420 San Luis Río Colorado, Son., México",Restaurante, Abre a las 4p.m. del jue,San Luis Río Colorado
La Catorce,,None Found,+52 653 129 9822,"Av Libertad 1403, Residencias, 83447 San Luis Río Colorado, Son., México",Restaurante familiar, Cierra a las 3a.m. ,San Luis Río Colorado
Gran Armonia Restaurant,,None Found,+52 653 534 6320,"Av Alvaro Obregon & Calle 9 901, Comercial, 83449 San Luis Río Colorado, Son., México",Restaurante chino, Abre a las 11a.m.,San Luis Río Colorado
MARISCOS LA QUINTA,,None Found,+52 653 690 1335,"Jazmín S/N, Libertad, 83487 San Luis Río Colorado, Son., México",Marisquería, Abre a las 8a.m.,San Luis Río Colorado
Asadero los molcajetes,,None Found,+52 653 536 9961,"C. 5, Comercial, 83400 San Luis Río Colorado, Son., México",Taquería, Cierra a las 5a.m. ,San Luis Río Colorado
Cocina Letty Restaurant,,None Found,+52 653 534 2218,"Av. Álvaro Obregón 2021, Residencias, 83448 San Luis Río Colorado, Son., México",Restaurante mexicano, Abre a las 7:30a.m.,San Luis Río Colorado
RESTAURANTE LOPEZ CHAIRA,,None Found,+52 653 515 8310,"Callejon Benito juarez y calle 12, 83448 San Luis Río Colorado, Son., México",Restaurante de brunch, Abre a las 7:30a.m. del lun,San Luis Río Colorado
Maná Restaurant,,None Found,+52 653 175 2050,"Cjon. Kino y Calle 12 Esq, Comercial, 83449 San Luis Río Colorado, Son., México",Restaurante,,San Luis Río Colorado
Mariscos Yavaros,,None Found,+52 653 536 8138,"Avenida Oaxaca s/n, Campestre, 83499 San Luis Río Colorado, Son., México",Marisquería, Abre a las 8a.m.,San Luis Río Colorado
Chang’s Restaurante,facebook.com,None Found,+52 653 515 8568,"Av Alvaro Obregon 2050 entre Calle 20 y 21, Residencias, 83448 San Luis Río Colorado, Son., México",Restaurante chino, Abre a las 11a.m.,San Luis Río Colorado
La Tatema Birrieria,,None Found,+52 653 534 2595,"Av. Álvaro Obregón 704, Comercial, 83449 San Luis Río Colorado, Son., México",Taquería, Abre a las 6a.m.,San Luis Río Colorado
San Anselmo Churreria,sananselmo.mx,None Found,+52 653 272 3543,"y Calle 16, Residencias, 83448 San Luis Río Colorado, Son., México",Cafetería, Abre a las 4p.m.,San Luis Río Colorado
Mariscos La Chacalosa,,None Found,+52 653 119 5756,"Av. Tlaxcala 16 y 17, Jalisco, 83447 San Luis Río Colorado, Son., México",Marisquería, Abre a las 7a.m.,San Luis Río Colorado
Asadero Las Brasas San Luis R.C.,asaderolasbrasas.com,None Found,+52 653 534 3320,"Av Alvaro Obregon, C. 22 &, Residencias, 83448 San Luis Río Colorado, Son., México",Taquería, Abre a las 12p.m.,San Luis Río Colorado
Pizzas & Beer Suc 7,pizzasandbeer.com,"Desenfadado bar deportivo que ofrece botanas, carne asada y pizzas acompañadas de cerveza.",+52 653 535 6989,"Av. Álvaro Obregón 609, Comercial, 83449 San Luis Río Colorado, Son., México",Restaurante, Abre a las 10a.m.,San Luis Río Colorado
asadero los campas,,None Found,+52 653 164 0752,"6 y 7, Av. Álvaro Obregón 602, Comercial, San Luis Río Colorado, Son., México",Taquería,,San Luis Río Colorado
La Caseta,,None Found,+52 653 536 4321,"83440, Av. Oaxaca 451, Sonora, San Luis Río Colorado, Son., México",Restaurante, Abre a la 1p.m.,San Luis Río Colorado
Maxis Restaurant,maxisrestaurant.com.mx,None Found,+52 653 534 2567,"Av. Álvaro Obregón 1201, Residencias, 83449 San Luis Río Colorado, Son., México",Restaurante mexicano, Abre a las 7a.m.,San Luis Río Colorado
Turquesa Chilaquiles & Brunch,,None Found,,"Callejon Kino & Calle 26, Residencias, 83448 San Luis Río Colorado, Son., México",Restaurante, Abre a las 8a.m.,San Luis Río Colorado
Nana Toña Restaurante,nanatona.com,None Found,+52 653 534 0099,"83449, Comercial, 83449 San Luis Río Colorado, Son., México",Restaurante, Abre a las 8:30a.m.,San Luis Río Colorado
Pizzas & Beer,pizzasandbeer.com,None Found,+52 653 534 2051,"Cjón. Zacatecas y Calle 25 Herradura, local 7, Jalisco, 83447 San Luis Río Colorado, Son., México",Pizzería, Abre a las 10a.m.,San Luis Río Colorado
Buffalo Roadhouse,,None Found,+52 653 534 1733,"83449, C. 2 560, Comercial, 83449 San Luis Río Colorado, Son., México",Restaurante, Abre a las 12p.m.,San Luis Río Colorado
JH Steaks & Restaurant,,None Found,+52 653 534 1315,"Av Libertad 705, Sonora, 83440 San Luis Río Colorado, Son., México",Restaurante de platos de carne, Abre a las 7a.m.,San Luis Río Colorado
Bohemio Food Van,,None Found,+52 653 515 1559,"Av. Álvaro Obregón 806, Comercial, 83449 San Luis Río Colorado, Son., México",Restaurante, Abre a las 8a.m.,San Luis Río Colorado
Restaurant SARAPE,,None Found,+52 653 690 1456,"83448, Av 5 de Mayo 2108, Residencias, San Luis Río Colorado, Son., México",Restaurante, Abre a las 7a.m.,San Luis Río Colorado
Sushi Rock San Luis,,None Found,+52 653 517 7310,"Callejon Kino, C. 5 &, Comercial, 83449 San Luis Río Colorado, Son., México",Restaurante de sushi, Abre a las 2p.m.,San Luis Río Colorado
La HIJA de Doña Chelo,,None Found,+52 653 517 7507,"Avenida Venustiano Carranza 602 avenida carranza 6 y 7, Comercial, 83449 San Luis Río Colorado, Son., México",Marisquería, Abre a las 12p.m.,San Luis Río Colorado
Mariscos El Paisa,,None Found,,"Av. Chiapas 1779, Jalisco, 83447 San Luis Río Colorado, Son., México",Marisquería, Abre a las 9:30a.m.,San Luis Río Colorado
La Carreta Del Abuelo,facebook.com,None Found,+52 653 165 1239,"C. 2 5130, Sonora, 83440 San Luis Río Colorado, Son., México",Restaurante de desayunos, Abre a las 7a.m.,San Luis Río Colorado
Birrieria los poblanos,facebook.com,None Found,+52 653 175 9995,"Libertad B 4207, Progreso, 83458 San Luis Río Colorado, Son., México",Restaurante mexicano, Abre a las 6a.m.,San Luis Río Colorado
La Cocina de Doña Blanca,,None Found,+52 653 690 2863,"Av Nuevo Leon, Col del Bosque, 83480 San Luis Río Colorado, Son., México",Restaurante mexicano, Abre a las 8a.m.,San Luis Río Colorado
Restaurante Dagal Chalma,dagal.com.mx,None Found,+52 653 112 6688,"Av Libertad Calle 26, Campestre, 83499 San Luis Río Colorado, Son., México",Restaurante, Abre a las 6a.m.,San Luis Río Colorado
Desayunos La Cueva,m.facebook.com,None Found,,"Av. Sonora 2007, Jalisco, 83447 San Luis Río Colorado, Son., México",Restaurante de desayunos, Abre a las 7:30a.m.,San Luis Río Colorado
Asadero Racho Grande,,None Found,,"Av. Álvaro Obregón 1116, Comercial, 83449 San Luis Río Colorado, Son., México",Parrilla, Abre a las 9a.m.,San Luis Río Colorado
Fusión Asian Bistro,,None Found,+52 653 517 7560,"C. 18, Residencias, 83448 San Luis Río Colorado, Son., México",Restaurante, Abre a la 1:15p.m.,San Luis Río Colorado
La Cocina de Doña Blanca,,None Found,+52 653 517 9225,"Av Francisco Eusebio Kino 401, Comercial, 83449 San Luis Río Colorado, Son., México",Restaurante, Abre a las 7:30a.m.,San Luis Río Colorado
XING HUA RESTAURANT BUFFET,,None Found,+52 653 536 2100,"AV OBREGON #1408, Int: 14, Residencias, 83448 San Luis Río Colorado, Son., México",Restaurante chino, Abre a las 11a.m.,San Luis Río Colorado
Tortas Biby,,None Found,+52 653 123 3652,"Av Libertad 4, Comercial, 83449 San Luis Río Colorado, Son., México",Restaurante de desayunos, Abre a las 8a.m.,San Luis Río Colorado
LA CHULETA,,None Found,,"Av. Puebla B y Calle 26, Col, Federal, 83447 San Luis Río Colorado, Son., México",Restaurante, Abre a las 7a.m.,San Luis Río Colorado
El Meson De Los Abuelos,,None Found,+52 653 536 3844,"Av. Chihuahua 307, entre Yocupicio y SotoRuiz, Ruiz Cortines, 83439 San Luis Río Colorado, Son., México",Restaurante, Abre a las 8a.m.,San Luis Río Colorado
LA CUADRA SPORT BAR,,None Found,+52 653 538 8882,"Nuevo León Y Calle 46, México, 83498 San Luis Río Colorado, Son., México",Restaurante mexicano, Cierra a las 3a.m. ,San Luis Río Colorado
Calú Comida Japonesa,,None Found,+52 653 129 8528,"Calle 34 & Avenida Miguel Hidalgo, Burócrata, San Luis Río Colorado, Son., México",Restaurante japonés, Abre a las 12p.m. del lun,San Luis Río Colorado
Restaurant Meixin...,,None Found,+52 653 535 8611,"Av Nuevo León B 902, Col del Bosque, 83480 San Luis Río Colorado, Son., México",Restaurante chino, Abre a las 11a.m.,San Luis Río Colorado
Los Callitos de Lobina,g.page,None Found,+52 653 164 4980,"202, Av México 2-y 3, Col del Bosque, 83480 San Luis Río Colorado, Son., México",Restaurante, Abre a las 9:30a.m.,San Luis Río Colorado
Mariscos Concordia,,None Found,+52 653 515 2400,"Av. Captain Carlos G. Calles LB, Residencias, 83448 San Luis Río Colorado, Son., México",Restaurante, Abre a las 11a.m.,San Luis Río Colorado
La Cochinita,,None Found,+52 653 534 0111,"Av. Álvaro Obregón 1405, Residencias, 83449 San Luis Río Colorado, Son., México",Restaurante japonés, Abre a las 12p.m.,San Luis Río Colorado
"Taqueria El Buen Taquito ""el güero""",,None Found,+52 653 518 3310,"Cjon. Carranza #605, Comercial, 83449 San Luis Río Colorado, Son., México",Restaurante mexicano, Abre a las 10a.m.,San Luis Río Colorado
Pizzas & Beer,,None Found,+52 653 515 2337,"Av Alvaro Obregon Calle 19 &, Residencias, 83448 San Luis Río Colorado, Son., México",Pizzería, Abre a las 10a.m.,San Luis Río Colorado
Pizzas & Beer,,None Found,+52 653 515 2337,"Av Alvaro Obregon Calle 19 &, Residencias, 83448 San Luis Río Colorado, Son., México",Pizzería, Abre a las 10a.m.,San Luis Río Colorado
Fonda de San Luis - Restaurante en San Luis,araizahoteles.com,None Found,+52 653 517 2400,"Av Francisco I. Madero 1800, Residencias, 83448 San Luis Río Colorado, Son., México",Restaurante,,San Luis Río Colorado
Mariscos el Navegante,,None Found,+52 653 536 7847,"Callejon Madero y 12 #1200, Zona Centro, 83449 San Luis Río Colorado, Son., México",Marisquería, Abre a las 8a.m.,San Luis Río Colorado
Restaurant XIN YUAN,,None Found,+52 653 534 1189,"C. 17 &, Jalisco, 83447 San Luis Río Colorado, Son., México",Restaurante chino, Abre a las 12:30p.m.,San Luis Río Colorado
Restaurante PHOENIX Comida China Y Cantonesa,,None Found,+52 653 536 9888,"callejon 26 Durango, Campestre, 83499 San Luis Río Colorado, Son., México",Restaurante chino, Abre a las 10a.m.,San Luis Río Colorado
Lonches Gely's,,None Found,+52 653 116 4736,"C. 26 #25097, Residencias, 83448 San Luis Río Colorado, Son., México",Restaurante, Abre a las 7a.m.,San Luis Río Colorado
Antojitos Dumbo Ayala,facebook.com,None Found,+52 653 534 6880,"4ta y 5ta, Av Carranza, Comercial, 83449 San Luis Río Colorado, Son., México",Restaurante, Abre a las 7a.m.,San Luis Río Colorado
EL ESTUDIANTE HOT DOG'S,facebook.com,None Found,,"Av. Libertad y calle 13, Residencias, 83448 San Luis Río Colorado, Son., México",Restaurante, Cierra a las 3a.m. ,San Luis Río Colorado
Cervecería 14 Terraza & Food,,None Found,+52 653 116 1911,"Avenida Libertad y Calle 14, 83447 San Luis Río Colorado, Son., México",Bar restaurante, 2:30a.m. ,San Luis Río Colorado
Tabu Sushi San Luis Rio Colorado,tabusushi.com,None Found,+52 653 534 0377,"Colima y Calle 26, Villa Colonial, Campestre, 83499 San Luis Río Colorado, Son., México",Restaurante, Abre a las 11a.m.,San Luis Río Colorado
Restaurant China inn,,None Found,+52 653 534 1082,"Av Nuevo León S/N, Altar, 83490 San Luis Río Colorado, Son., México",Restaurante chino, Abre a las 11a.m.,San Luis Río Colorado
Cheto's Burger,,None Found,+52 653 849 6265,"Calle 26 LB, Residencias, 83450 San Luis Río Colorado, Son., México",Hamburguesería, Cierra a las 12p.m. ,San Luis Río Colorado
Restaurant De Comida China Tai Shan.,,None Found,+52 653 517 0515,"Av. Libertad s/n, Campestre, San Luis Río Colorado, Son., México",Restaurante chino, Abre a las 11a.m.,San Luis Río Colorado
Gorditas Sonora,,None Found,+52 653 130 0714,"Jalisco, 83447 San Luis Río Colorado, Son., México",Restaurante mexicano, Abre a las 8a.m.,San Luis Río Colorado
La Cotorra Food Plaza,,None Found,+52 653 157 2148,"Av. Oaxaca 2029A, Sonora, 83440 San Luis Río Colorado, Son., México",Restaurante,,San Luis Río Colorado
Elenisse Restaurante,,None Found,+52 653 291 6053,"722, Ruiz Cortines, 83449 San Luis Río Colorado, Son., México",Restaurante, Abre a las 8a.m.,San Luis Río Colorado
Restaurante 4 Mares,,None Found,+52 653 536 4206,"Comercial, 83449 San Luis Río Colorado, Son., México",Restaurante, Abre a las 11a.m.,San Luis Río Colorado
Momento Healthy,,None Found,+52 653 596 0044,"Av 5 de Mayo 2108, Residencias, 83448 San Luis Río Colorado, Son., México",Restaurante, Abre a las 10a.m.,San Luis Río Colorado
Mariscos Los Mochis,,None Found,+52 653 116 4076,"Aeropuerto, 83479 San Luis Río Colorado, Son., México",Marisquería, Abre a las 10:30a.m.,San Luis Río Colorado
Asadero Los Cuates,,None Found,,"Av. Álvaro Obregón 2004, Residencias, 83448 San Luis Río Colorado, Son., México",Taquería,,San Luis Río Colorado
Tortas El Perico,facebook.com,None Found,+52 653 534 2007,"Av. Nayarit 206, Ruiz Cortines, 83440 San Luis Río Colorado, Son., México",Restaurante de comida rápida, Abre a las 9a.m.,San Luis Río Colorado
Tortas Gaby,,None Found,+52 653 518 1760,"Av. Tlaxcala S/N, Jalisco, 83447 San Luis Río Colorado, Son., México",Restaurante de desayunos, Abre a las 9a.m.,San Luis Río Colorado
Verde Café,facebook.com,None Found,+52 653 110 6656,"Av Lázaro Cárdenas del Río B 707, Col del Bosque, 83480 San Luis Río Colorado, Son., México",Restaurante familiar, Abre a las 10a.m.,San Luis Río Colorado
Don camaron,,None Found,+52 653 137 0801,"Av. Sonora & C. 19, Jalisco, 83447 San Luis Río Colorado, Son., México",Restaurante, Abre a las 8a.m.,San Luis Río Colorado
"CrujiFlautas ""La Cabañita""",,None Found,+52 653 174 5002,"83489, C. 21 2009, Federal, San Luis Río Colorado, Son., México",Restaurante, Abre a las 4p.m.,San Luis Río Colorado
Birreria Los Cuates,,None Found,,"83450, Av Libertad 2611, Burócrata, San Luis Río Colorado, Son., México",Restaurante, Abre a las 6a.m.,San Luis Río Colorado
Carl's Jr.,,None Found,,"Av. Quintana Roo 2680, Campestre, 83499 San Luis Río Colorado, Son., México",Hamburguesería, Abre a las 7a.m.,San Luis Río Colorado
Birriería Y Taqueria Los Poblanos,,None Found,+52 653 771 2242,"Av. Vicente Guerrero, Jalisco, 83447 San Luis Río Colorado, Son., México",Taquería, 2a.m. ,San Luis Río Colorado
"Mad Grillin""",,None Found,+52 653 160 6619,"San Luis Río Colorado,, San Luis Río Colorado, Son., México",Restaurante, Abre a las 7p.m.,San Luis Río Colorado
Chilaquiles and coffee,,None Found,+52 653 112 0578,"Mérida B 8-y 9, Col del Bosque, 83480 San Luis Río Colorado, Son., México",Restaurante, Abre a las 8a.m.,San Luis Río Colorado
Birreria El Compadre,,None Found,,"C. 12, Sonora, 83447 San Luis Río Colorado, Son., México",Restaurante, Abre a las 6:30a.m.,San Luis Río Colorado
la terraza cocina,,None Found,,"México, 83498 San Luis Río Colorado, Son., México",Restaurante,,San Luis Río Colorado
Taqueria El Rincón,,None Found,,"83447, Av. Vicente Guerrero 1202, Jalisco, 83447 San Luis Río Colorado, Son., México",Taquería, Abre a las 5:30p.m.,San Luis Río Colorado
Jade Garden,,None Found,+52 653 536 2013,"Av Libertad 2008, Residencias, 83448 San Luis Río Colorado, Son., México",Restaurante chino, Abre a las 11a.m.,San Luis Río Colorado
Dagal Cafetería,,None Found,+52 653 117 2844,"Avenida Calzada Constitución & Calle Honduras, Campamento, 83419 San Luis Río Colorado, Son., México",Cafetería,,San Luis Río Colorado
La gran señora restauran,,None Found,,"Av. Captain Carlos G. Calles 614, Comercial, 83449 San Luis Río Colorado, Son., México",Restaurante, Abre a las 8a.m.,San Luis Río Colorado
BIRRIERIA LA SABROSA,,None Found,+52 653 690 0808,"Jalisco, 83447 San Luis Río Colorado, Son., México",Restaurante, Abre a las 7a.m.,San Luis Río Colorado
Restaurant De Comida China,,None Found,+52 653 138 9996,"C. 34 LB, Altar, 83490 San Luis Río Colorado, Son., México",Restaurante chino, Abre a las 11a.m.,San Luis Río Colorado
El Tacupeto,,None Found,+52 653 121 5736,"Callejón kino y calle 5ta #410 comercial Avenida Francisco Eusebio Kino 415 Callejón kino y, C. 5 #410, Comercial, 83448 San Luis Río Colorado, Son., México",Restaurante, Abre a las 7a.m.,San Luis Río Colorado
LA 12 RESTAURANTE,facebook.com,None Found,+52 653 535 2961,"¡AV. OAXACA Y CALLE 12, Jalisco, 83447 San Luis Río Colorado, Son., México",Restaurante de desayunos, Abre a las 12p.m.,San Luis Río Colorado
Mariscos el Perihuete,,None Found,+52 653 116 0861,"Calle 26, Nayarit B, San Luis Río Colorado, Son., México",Marisquería, Abre a las 10a.m.,San Luis Río Colorado
Tacos George,,None Found,+52 653 534 2452,"Av Revolución 1111, Comercial, 83449 San Luis Río Colorado, Son., México",Taquería, Abre a las 7:30a.m.,San Luis Río Colorado
El Twist,,None Found,,"Av. Álvaro Obregón 307, Comercial, 83449 San Luis Río Colorado, Son., México",Restaurante, Abre a las 11a.m. del lun,San Luis Río Colorado
La Pimienta,,None Found,,"C. 17 & Jalisco, Av. Chihuahua, 83447 San Luis Río Colorado, Son., México",Restaurante mexicano, Cierra a las 3a.m. ,San Luis Río Colorado
Clamatos SAN LUIS,,None Found,,"Tamaulipas 703, Sonora, 83440 San Luis Río Colorado, Son., México",Restaurante, Abre a las 11a.m.,San Luis Río Colorado
Tortas Biby,,None Found,+52 653 517 0301,"Calle 34 S/N, Cuauhtémoc, 83449 San Luis Río Colorado, Son., México",Restaurante de comida rápida, Abre a las 8a.m.,San Luis Río Colorado
Tortas El Borrego,facebook.com,None Found,+52 653 535 8119,"Av Nuevo Leon 1718, Federal, 83489 San Luis Río Colorado, Son., México",Restaurante de comida rápida, Abre a las 10a.m.,San Luis Río Colorado
La Comedera,,None Found,,"Tamaulipas 1206, Jalisco, 83447 San Luis Río Colorado, Son., México",Restaurante,,San Luis Río Colorado
Espinoza Suastegui Xhou Hu Tia,,None Found,+52 653 534 3712,"Av Nuevo Leon 1702, Federal, 83489 San Luis Río Colorado, Son., México",Restaurante chino, Abre a las 10a.m.,San Luis Río Colorado
Tacochito (Carnitas),fb.com,None Found,+52 653 119 6821,"Callejon Zaragoza 30 y 31, 83450 San Luis Río Colorado, Son., México",Restaurante, Abre a las 8a.m.,San Luis Río Colorado
Gorditas Durango,,None Found,+52 653 536 2559,"Av. Tlaxcala 2198, Jalisco, 83447 San Luis Río Colorado, Son., México",Restaurante, Abre a las 8a.m.,San Luis Río Colorado
Mendoza's Taqueria,,None Found,+52 653 690 9877,"Av Zaragoza, entre Calle 13 y 14, Residencias, 83448 San Luis Río Colorado, Son., México",Taquería, Abre a las 7a.m.,San Luis Río Colorado
La Pizza y Mas,,None Found,+52 653 534 4818,"Venustiano Carranza 1701, Residencias, 83448 San Luis Río Colorado, Son., México",Pizzería, Abre a las 11a.m.,San Luis Río Colorado
Panda Burger,,None Found,+52 653 120 4246,"Av. Oaxaca 203, Sonora, 83440 San Luis Río Colorado, Son., México",Hamburguesería, Abre a las 4p.m.,San Luis Río Colorado
Comida China,,None Found,+52 653 174 0282,"Av Nuevo Leon 2407, Federal, 83489 San Luis Río Colorado, Son., México",Restaurante chino, Abre a las 11a.m.,San Luis Río Colorado
