Names,Website,Introduction,Phone Number,Address,Type,Opens At,Municipio
La Parrillada,,None Found,+52 55 1039 0210,"Blvrd Coacalco 203, Villa de las Flores, 55710 San Francisco Coacalco, M√©x., M√©xico",Restaurante mexicano, 1a.m. ,San Francisco Coacalco
Restaurante Madero - Coacalco,maderorestaurante.mx,None Found,+52 55 1454 0455,"Av. Jos√© L√≥pez Portillo 60, Coacalco, 55700 San Francisco Coacalco, M√©x., M√©xico",Restaurante mexicano, Abre a las 7a.m.,San Francisco Coacalco
La Casa de To√±o en Coacalco,sucursales.lacasadetono.mx,None Found,+52 55 9331 4671,"Av. Jos√© L√≥pez Portillo 338, Parque Residencial Coacalco, 55720 San Francisco Coacalco, M√©x., M√©xico",Restaurante mexicano, Abre a las 8a.m.,San Francisco Coacalco
La BTK Coacalco,labtk.com.mx,None Found,+52 55 5875 7881,"Blvrd Coacalco 16 y 17, Villa de las Flores, 55710 San Francisco Coacalco, M√©x., M√©xico",Bar restaurante, Abre a las 12p.m.,San Francisco Coacalco
La Tienda de la Esquina,,None Found,+52 55 1039 8066,"C. Belisario Dom√≠nguez 15A, Cabecera Municipal, 55700 Coacalco de Berriozabal, M√©x., M√©xico",Restaurante, 1a.m. ,San Francisco Coacalco
La Compostela y sus Burradaz - Villa de las Flores,,None Found,+52 55 3693 7372,"C. Alcanfores 2, Villa de las Flores, 55710 San Francisco Coacalco, M√©x., M√©xico",Restaurante, Abre a las 8a.m.,San Francisco Coacalco
Restaurante Due Fratelli,,None Found,+52 55 1229 6904,"Sierra Madre 4, Parque Residencial Coacalco, 55720 San Francisco Coacalco, M√©x., M√©xico",Restaurante, Abre a las 9a.m.,San Francisco Coacalco
La Parrilla Mexicana 2,laparrillamexicana.com.mx,None Found,+52 55 5879 6368,"Blvrd Coacalco 30, Villa de las Flores, 55705 San Francisco Coacalco, M√©x., M√©xico",Parrilla, Cierra a las 2a.m. ,San Francisco Coacalco
Gallo Cervecero | Coacalco,gallocervecero.com,None Found,+52 55 6157 7751,"Av. Jos√© L√≥pez Portillo 128 A, Coacalco, 55700 Edomex, M√©x., M√©xico",Bar deportivo, 1a.m. ,San Francisco Coacalco
Maffra¬¥s,maffras.com.mx,"Patio cervecero de ambiente sereno en el que se sirven mezcales, cervezas internacionales y platillos de pub.",+52 55 3451 5361,"Independencia 12, Coacalco, 55700 Coacalco de Berriozabal, M√©x., M√©xico",Pizzer√≠a, Abre a la 1p.m.,San Francisco Coacalco
La Vieja Habana Coacalco,facebook.com,None Found,+52 55 4489 5322,"C. Ixtlememelixtle 15A, Coacalco, 55700 San Francisco Coacalco, M√©x., M√©xico",Bar restaurante, Cierra a las 3a.m. ,San Francisco Coacalco
La Diabla Snack's & beers,ladiablamx.com,"Hamburguesas, alitas y pizzas acompa√±ados con cervezas en un bar de ambiente fiestero con m√∫sica en vivo.",+52 55 1548 4194,"Avenida Jos√© L√≥pez Portillo Poer Center, Coacalco, 55717 San Francisco Coacalco, M√©x., M√©xico",Restaurante, Cierra a las 2a.m. ,San Francisco Coacalco
MALAC,malac.com.mx,None Found,+52 55 4906 7923,"C. Corregidora 54, Coacalco, 55700 Mexico, M√©x., M√©xico",Restaurante, Abre a las 9a.m.,San Francisco Coacalco
La parrillada de Cortez,,None Found,,"Blvrd Coacalco 26, Zacuauhtitla, 55700 San Francisco Coacalco, M√©x., M√©xico",Restaurante familiar, Abre a las 2p.m.,San Francisco Coacalco
Toks Coacalco,toks.com.mx,None Found,+52 55 5879 4308,"Av. Jos√© L√≥pez Portillo 105, Zacuauhtitla, 57700 San Francisco Coacalco, M√©x., M√©xico",Restaurante mexicano, Abre a las 7a.m.,San Francisco Coacalco
Casa de las G√°rgolas,facebook.com,None Found,+52 55 3143 4991,"C. Ixtlememelixtle 20, Coacalco, 55700 San Francisco Coacalco, M√©x., M√©xico",Restaurante, Cierra a las 2a.m. ,San Francisco Coacalco
La Parrilla Mexicana,laparrillamexicana.com.mx,None Found,+52 55 5879 9329,"Blvrd Coacalco No. 128, Villa de las Flores, 55705 San Francisco Coacalco, M√©x., M√©xico",Restaurante mexicano, Abre a las 9a.m.,San Francisco Coacalco
D¬¥L√∫a Pasta & Sushi,facebook.com,"Pizzas, sushi y otros platos internacionales ofrecidos en una terraza casual y en un estilizado comedor.",+52 55 5865 2062,"Av del Parque 147, Parque Residencial Coacalco, 55720 San Francisco Coacalco, M√©x., M√©xico",Restaurante, Abre a las 8:30a.m.,San Francisco Coacalco
Son y Sol restaurante,,None Found,+52 55 3795 5497,"Casa 3, Av Zarzaparilla Manzana 32 Lote 24, Hacienda Coacalco, 55712 San Francisco Coacalco, M√©x., M√©xico",Restaurante de fusi√≥n, Abre a las 9a.m.,San Francisco Coacalco
Mi Momento Restaurante,,None Found,+52 55 8546 2958,"20 de Noviembre Coacalco de Berriozabal, 55700 Ciudad de M√©xico, M√©x., M√©xico",Restaurante, Abre a las 8:30a.m.,San Francisco Coacalco
Sal√≥n El Buen Pastor,,None Found,+52 55 3872 1673,"C. Ju√°rez 2, La Magdalena 1, 55715 San Francisco Coacalco, M√©x., M√©xico",Restaurante mexicano, Abre a las 8a.m.,San Francisco Coacalco
La Barranca √Årboles,facebook.com,None Found,+52 55 1005 5786,"Av. Jos√© L√≥pez Portillo 200, La Magdalena 2, 55715 Coacalco de Berriozabal, M√©x., M√©xico",Marisquer√≠a, Abre a las 9a.m.,San Francisco Coacalco
La Gula Coacalco,,None Found,+52 55 7486 9505,"C. Cataratas Saul Leven 38, Gjas de San Cristobal, 55726 Coacalco de Berriozabal, M√©x., M√©xico",Restaurante mexicano, Cierra a las 2a.m. ,San Francisco Coacalco
La Zacatecana - Restaurante Mexicano,facebook.com,None Found,+52 55 3574 2226,"C. Francisco I. Madero 57B, Coacalco, 55700 M√©xico, M√©x., M√©xico",Restaurante mexicano, Abre a las 9a.m.,San Francisco Coacalco
La Casa de los Jarochos,,None Found,+52 55 2159 3870,"C. Francisco I. Madero 19, Coacalco, 55700 San Francisco Coacalco, M√©x., M√©xico",Marisquer√≠a, Abre a las 10a.m.,San Francisco Coacalco
MADALU Food & Drinks,madalumx.com,None Found,,"Allende 9-27, Coacalco, 55700 San Francisco Coacalco, M√©x., M√©xico",Restaurante, Cierra a las 2a.m.,San Francisco Coacalco
Zentralia Coacalco,zentraliacoacalco.com,"Centro comercial cubierto con tiendas diversas, una bolera, un cine y restaurantes informales.",+52 55 1168 7000,"Av. Jos√© L√≥pez Portillo 145, La Magdalena Huizachitla, 55715 San Francisco Coacalco, M√©x., M√©xico",Centro comercial, Abre a las 8a.m.,San Francisco Coacalco
"Tacos ""El Sabores""",,None Found,+52 55 5865 3289,"Av del Parque 2-B, Parque Residencial Coacalco, 55720 San Francisco Coacalco, M√©x., M√©xico",Taquer√≠a, Cierra a las 4a.m. ,San Francisco Coacalco
El Canto Del Colibr√≠,,None Found,+52 55 5968 7069,"Nicol√°s Morelos, Potrero de la Laguna, 55718 San Francisco Coacalco, M√©x., M√©xico",Restaurante mexicano, Abre a las 9a.m.,San Francisco Coacalco
Carvao do Brasil Cosmopol Churrascar√≠a,carvaodobrasil.com,None Found,+52 55 3670 4815,"Av. Jos√© L√≥pez Portillo 1, Bosques del Valle, 55717 San Francisco Coacalco, 55717 M√©xico, M√©x., M√©xico",Restaurante brasile√±o,,San Francisco Coacalco
M√©xico Lindo Cocina tradicional,,None Found,+52 55 7520 9836,"C. Primaveras 60-Planta baja, Parque Residencial Coacalco, 55720 San Francisco Coacalco, M√©x., M√©xico",Restaurante, Abre a las 8a.m.,San Francisco Coacalco
El Itacate,,None Found,+52 55 2644 1614,"Av. 16 de Septiembre 54, Coacalco, 55700 San Francisco Coacalco, M√©x., M√©xico",Bar restaurante, Abre a las 8a.m.,San Francisco Coacalco
Restaurante mi pueblito coacalco,marycor98.wixsite.com,None Found,+52 55 4098 8300,"Iturbide 43, Coacalco, 55700 San Francisco Coacalco, M√©x., M√©xico",Restaurante, Abre a las 9a.m. del lun,San Francisco Coacalco
El Punto,,None Found,+52 55 4102 8234,"C. Primaveras 35, Parque Residencial Coacalco, 55720 San Francisco Coacalco, M√©x., M√©xico",Bar, 1:30a.m. ,San Francisco Coacalco
Restaurant Caf√© del Cielo,,None Found,+52 55 5865 6641,"C. Jilgueros 133, Parque Residencial Coacalco, 55720 San Francisco Coacalco, M√©x., M√©xico",Restaurante, Abre a las 7a.m.,San Francisco Coacalco
Salones y restaurante krystal,,None Found,+52 55 7592 3818,"Av. Jos√© L√≥pez Portillo 256, Coacalco, 55700 Coacalco de Berriozabal, M√©x., M√©xico",Bar restaurante, Abre a las 9a.m.,San Francisco Coacalco
Ar√∫gula,,None Found,+52 56 2679 2600,"C. Primaveras 51, Parque Residencial Coacalco, 55720 San Francisco Coacalco, M√©x., M√©xico",Cafeter√≠a, Abre a las 9a.m.,San Francisco Coacalco
El Cielo,,None Found,+52 55 6969 8201,"Fco I Madero Manzana 006, Zacuauhtitla, Coacalco, 55700 San Francisco Coacalco, M√©x., M√©xico",Hamburgueser√≠a, Abre a las 4p.m. del mar,San Francisco Coacalco
Tacos Cesar,,None Found,+52 55 1849 8048,"Vista Hermosa 15, El Gigante, 55709 San Francisco Coacalco, M√©x., M√©xico",Taquer√≠a, Cierra a las 3a.m. ,San Francisco Coacalco
G&D'mmz,,None Found,+52 55 7553 1071,"55700, Bartolom√© Flores 25, Hidalgo, San Francisco Coacalco, M√©x., M√©xico",Pizzer√≠a, Abre a las 2p.m.,San Francisco Coacalco
La Barranca 1,facebook.com,None Found,+52 55 7699 8952,"Calle Allende, Av. Jos√© L√≥pez Portillo 1, San Lorenzo Tetlixtac, 55714 M√©x., M√©xico",Restaurante, Abre a las 9a.m.,San Francisco Coacalco
Casa Vieja,,None Found,,"C. Francisco I. Madero, Independencia, 55700 Coacalco de Berriozabal, M√©x., M√©xico",Restaurante, Cierra a las 3a.m. ,San Francisco Coacalco
Mamma Mia,,None Found,+52 55 3739 1412,"Blvrd Coacalco 159, Villa de las Flores, 55710 San Francisco Coacalco, M√©x., M√©xico",Pizzer√≠a, Abre a las 3p.m.,San Francisco Coacalco
Gastronom√≠a Mexicana,,None Found,+52 55 5874 9243,"Blvrd Coacalco 652, Villa de las Flores, 55710 San Francisco Coacalco, M√©x., M√©xico",Restaurante mexicano, Abre a las 7a.m. del lun,San Francisco Coacalco
Vips Coacalco,vips.com.mx,None Found,+52 55 5874 0333,"Av. Jos√© L√≥pez Portillo 101-B, Zacuauhtitla, 55700 Coacalco de Berriozabal, M√©x., M√©xico",Restaurante mexicano, Abre a las 7a.m.,San Francisco Coacalco
Restaurante El Sabor de Don Chepe,,None Found,+52 55 7595 8272,"Colorines & Campanillas, Villa de las Flores, 55710 San Francisco Coacalco, M√©x., M√©xico",Restaurante mexicano, Abre a las 12p.m. del lun,San Francisco Coacalco
M√©xico Lindo y Sabroso,,None Found,+52 56 1099 2620,"55715 Via Jose Lopez portillo 276, 55712 San Francisco Coacalco, M√©x., M√©xico",Restaurante,,San Francisco Coacalco
Terraza Magu,,None Found,,"C. Ixtlememelixtle 47, Coacalco, 55700 San Francisco Coacalco, M√©x., M√©xico",Restaurante,,San Francisco Coacalco
LOS TOCAYOS,facebook.com,None Found,+52 55 7288 7223,"55700 Avenida 16 de Septiembre #59 Coacalco De Berriozabal, 55700 San Francisco Coacalco, M√©x., M√©xico",Restaurante, Abre a la 1p.m.,San Francisco Coacalco
S√∫per Pollos Noelia,,None Found,+52 55 5875 1484,"Av. Dalias Mz 23, Villa de las Flores, 55710 San Francisco Coacalco, M√©x., M√©xico",Restaurante especializado en pollo, Abre a las 9:30a.m.,San Francisco Coacalco
Canarios Restaurante,,None Found,+52 55 9168 8468,"Calle Canosas Manzana 047, Coacalco, 55700 San Francisco Coacalco, M√©x., M√©xico",Restaurante mexicano, Abre a las 9a.m. del lun,San Francisco Coacalco
Esquina de la luna,facebook.com,None Found,+52 55 1542 0944,"Av. Zarzaparrillas No. 3-B-No. 3-B, Villa de las Flores, 55710 San Francisco Coacalco, M√©x., M√©xico",Cafeter√≠a, Abre a las 8a.m.,San Francisco Coacalco
Restaurate Buffet Hua Yuan,,None Found,+52 56 3002 2671,"Av. Jos√© L√≥pez Portillo 37, Villa de las Flores, 55700 San Francisco Coacalco, M√©x., M√©xico",Restaurante chino, Abre a las 11a.m.,San Francisco Coacalco
El Boshito,,None Found,,"Blvd. de las Rosas 361, Villa de las Flores, 55710 San Francisco Coacalco, M√©x., M√©xico",Restaurante mexicano, Abre a las 9a.m.,San Francisco Coacalco
Alitas Mondragon,menu.fu.do,None Found,+52 55 6965 2355,"C. Ignacio Allende 59, El Gigante, 55700 San Francisco Coacalco, M√©x., M√©xico",Restaurante de comida r√°pida, 1a.m. ,San Francisco Coacalco
Bisquets Obreg√≥n,bisquetsobregon.com,None Found,+52 55 2489 1173,"Plaza Los Arcos, Av. Jos√© L√≥pez Portillo 128-Local 5-A, Coacalco, 55700 San Francisco Coacalco, M√©x., M√©xico",Restaurante, Abre a las 7:30a.m.,San Francisco Coacalco
El Rinconcito Pozolero Ô∏è,,None Found,+52 55 3635 4666,"Calle Jos√© Maria Morelos y Pav√≥n 24, Coacalco, 55700 San Francisco Coacalco, M√©x., M√©xico",Restaurante mexicano, Abre a las 10a.m.,San Francisco Coacalco
Virrey Restaurante,facebook.com,None Found,,"Blvr Coacalco 236, Villa de las Flores San Francisco Coacalco, 55710 Estado de M√©xico, M√©x., M√©xico",Restaurante, Abre a las 9a.m.,San Francisco Coacalco
Rinconcito Coacalco,elrinconcito.com,None Found,+52 55 5865 1327,"C. Primaveras 56, Parque Residencial Coacalco, 55720 San Francisco Coacalco, M√©x., M√©xico",Restaurante mexicano, Abre a las 8a.m.,San Francisco Coacalco
Taqueria Chofi's,facebook.com,None Found,+52 55 4481 7758,"Calle Carlos Hank Gonz√°lez 13, El Gigante, 55709 San Francisco Coacalco, M√©x., M√©xico",Taquer√≠a, Cierra a las 2a.m. ,San Francisco Coacalco
La Casita de Maria,,None Found,+52 55 1733 6591,"20 de Noviembre 81, Coacalco, 55700 Coacalco de Berriozabal, M√©x., M√©xico",Restaurante, Abre a las 9a.m.,San Francisco Coacalco
Las Dlicias Coacalco,facebook.com,None Found,+52 56 4676 4315,"Tejado con Plastiteja Roja, Claudio Mu√±oz Franco 20, 2da Secc, Potrero de la Laguna, 55718 San Francisco Coacalco, M√©x., M√©xico",Creper√≠a,,San Francisco Coacalco
El Huarache de Coacalco,,None Found,,"Av ayuntamiento eje 3 esq, Prados del Nte., San Rafael, 55719 M√©x., M√©xico",Restaurante, Abre a las 9a.m.,San Francisco Coacalco
Torteria la riquitas de Coacalco,,None Found,+52 55 7699 8381,"Av. Carlos Hank Gonz√°lez 10, Centro, 55700 San Francisco Coacalco, M√©x., M√©xico",Restaurante de comida r√°pida, Abre a las 9a.m.,San Francisco Coacalco
Junco al Mar Pescados y Mariscos,facebook.com,None Found,+52 55 7274 1758,"Calle Carlos Hank Gonz√°lez 65, Loma Bonita, 55738 San Francisco Coacalco, M√©x., M√©xico",Marisquer√≠a, Abre a las 9a.m.,San Francisco Coacalco
Enchiler√≠a,facebook.com,None Found,+52 55 2520 1585,"5 de Febrero 27, Coacalco, 55708 Coacalco de Berriozabal, M√©x., M√©xico",Restaurante mexicano,,San Francisco Coacalco
Subarashii Restaurante Japon√©s,subarashii.com.mx,None Found,+52 55 7981 7638,"Av. Dalias 150, Villa de las Flores, 55710 San Francisco Coacalco, M√©x., M√©xico",Restaurante japon√©s, Abre a las 2p.m.,San Francisco Coacalco
Arracheras OK,facebook.com,"Cortes americanos y sabores mexicanos en un sitio con estilo campestre, pista de baile y escenario √≠ntimo.",+52 55 2790 9300,"Av. Jos√© L√≥pez Portillo 55, Villa de las Flores, 55710 San Francisco Coacalco, M√©x., M√©xico",Restaurante especializado en filetes, Abre a las 11:30a.m.,San Francisco Coacalco
El saz√≥n del goldo,,None Found,+52 55 2741 1181,"Cl. Almaratos 45, Villa de las Flores, 55710 San Francisco Coacalco, M√©x., M√©xico",Restaurante, Cierra a las 4a.m. ,San Francisco Coacalco
Chiwawas,chiwawaspizza.com,None Found,+52 55 1733 6598,"Av. Dalias 201, El Laurel, 55700 San Francisco Coacalco, M√©x., M√©xico",Pizzer√≠a, Abre a la 1:30p.m.,San Francisco Coacalco
La Consentida - Restaurante Mexicano,la-consentida.com.mx,None Found,+52 56 3059 4303,"Blvrd Coacalco 415, Villa de las Flores, 55710 San Francisco Coacalco, M√©x., M√©xico",Restaurante mexicano, Abre a las 9a.m.,San Francisco Coacalco
La Terraza Restaurante,,None Found,+52 55 3646 6071,"Paseo de Los Virreyes 27, Parque Residencial Coacalco, 55720 San Francisco Coacalco, M√©x., M√©xico",Marisquer√≠a, Abre a las 9a.m.,San Francisco Coacalco
Casa Do√±a Blanca,,None Found,+52 55 1542 0697,"Av, Av. 16 de Septiembre 13, 55700 San Francisco Coacalco, M√©x., M√©xico",Restaurante, Abre a las 9a.m.,San Francisco Coacalco
Pe√±a Verde,facebook.com,None Found,+52 55 6862 6922,"C. Corregidora 12, Coacalco, 55700 San Francisco Coacalco, M√©x., M√©xico",Cafeter√≠a, Abre a las 9a.m. del lun,San Francisco Coacalco
Cielo Rojo Antojitos Mexicanos Coacalco,,None Found,+52 56 1496 0487,"Blvd. de las Rosas 5-11, Villa de las Flores, 55710 San Francisco Coacalco, M√©x., M√©xico",Restaurante, Abre a las 9:30a.m.,San Francisco Coacalco
Un pozole entre amigas,,None Found,,"Nicol√°s Morelos, Morelos 1ra Secc, 55718 San Francisco Coacalco, M√©x., M√©xico",Restaurante familiar, Abre a las 10a.m.,San Francisco Coacalco
Roosters Burguers & snacks,,None Found,+52 55 2296 5576,"Av. 16 de Septiembre 12, Coacalco, 55700 San Francisco Coacalco, M√©x., M√©xico",Hamburgueser√≠a, Abre a las 2p.m.,San Francisco Coacalco
La Oveja Negra Reloaded,,None Found,,"Miguel Hidalgo n√∫mero 20, Coacalco, 55700 San Francisco Coacalco, M√©x., M√©xico",Restaurante especializado en barbacoa, Abre a las 9a.m.,San Francisco Coacalco
Marisquer√≠a El Tuxpe√±o,facebook.com,None Found,,"las manzanas coacalco, Salvador S√°nchez Colin 37, villa, 55730 San Francisco Coacalco, M√©x., M√©xico",Marisquer√≠a, Abre a las 10a.m.,San Francisco Coacalco
McDonald's Coacalco,mcdonalds.com.mx,Cl√°sica cadena de comida r√°pida de larga trayectoria conocida por sus hamburguesas y papas fritas.,+52 800 300 3435,"Av. Jos√© L√≥pez Portillo 128, Coacalco, 55700 San Francisco Coacalco, M√©x., M√©xico",Restaurante de comida r√°pida, Abre a las 8a.m.,San Francisco Coacalco
THE ELITE,,None Found,,"Calle Jos√© Maria Morelos y Pav√≥n Manzana 007, Coacalco, 55700 San Francisco Coacalco, M√©x., M√©xico",Restaurante, Abre a las 12p.m.,San Francisco Coacalco
Jardin San Fransisco,,None Found,+52 55 4467 2979,"C. Corregidora 12-24, Coacalco, 55700 San Francisco Coacalco, M√©x., M√©xico",Recinto para eventos, Abre a las 6p.m.,San Francisco Coacalco
Saborear-T,,None Found,+52 55 2857 8757,"Miguel Hidalgo 19, Coacalco, 55700 San Francisco Coacalco, M√©x., M√©xico",Pizzer√≠a, Abre a las 12:30p.m.,San Francisco Coacalco
El Rinc√≥n Yucateco_COACALCO,,None Found,+52 55 8018 2014,"esquina con, Calle VIOLETAS 110 Secci√≥n (Unidad Coacalco M√©x MX, Flor de Liz 2a, Villa de las Flores, 55710, M√©xico",Restaurante de fusi√≥n, Abre a las 9a.m.,San Francisco Coacalco
El Paso Del Arbol,,None Found,+52 55 5879 8815,"Tilos 253, Villa de las Flores, 55710 San Francisco Coacalco, M√©x., M√©xico",Restaurante mexicano, Abre a las 8a.m.,San Francisco Coacalco
Caf√© del Campo,facebook.com,None Found,+52 55 8930 0183,"Bosque de Felipe 30 bosques del valle 1er secci√≥n, 55717 M√©x., M√©xico",Cafeter√≠a, Abre a las 9:30a.m. del lun,San Francisco Coacalco
stak-browns,,None Found,,"C. Ixtlememelixtle #12, Coacalco, 55700 San Francisco Coacalco, M√©x., M√©xico",Taquer√≠a,,San Francisco Coacalco
Birrieria Che&Leo,,None Found,,"Av. Carlos Hank Gonz√°lez 41, El Gigante, 55709 San Francisco Coacalco, M√©x., M√©xico",Restaurante familiar, Abre a las 9:30a.m.,San Francisco Coacalco
BAGO¬¥S Cochinita Pibil,bagos.ola.click,None Found,+52 56 1799 5528,"Av Orqu√≠deas 126, Villa de las Flores, 55710 San Francisco Coacalco, M√©x., M√©xico",Restaurante, Abre a las 10a.m.,San Francisco Coacalco
Asadero,,None Found,,"Av. Jos√© L√≥pez Portillo S/N-CR-07, Coacalco, 55717 San Francisco Coacalco, M√©x., M√©xico",Restaurante especializado en filetes, Abre a las 11a.m.,San Francisco Coacalco
Santo Pecado Coacalco,facebook.com,None Found,+52 55 2010 3147,"C. Ignacio Allende 2, Coacalco, 55718 San Francisco Coacalco, M√©x., M√©xico",Snack bar, Abre a las 2p.m.,San Francisco Coacalco
Sent√° MX Cosmopol,,None Found,+52 55 6976 8777,"Plaza Cosmopol, Vialidad Jos√© L√≥pez Portillo, Coacalco Berrioz√°bal, 55712 San Francisco Coacalco, M√©x., M√©xico",Restaurante, Abre a las 8a.m.,San Francisco Coacalco
El Aquelarre,,None Found,+52 55 3078 7861,"2a: Cda. de Allende 5, El Gigante, 55709 San Francisco Coacalco, M√©x., M√©xico",Pizzer√≠a, Cierra a las 12a.m.,San Francisco Coacalco
Taqueria traviesos,,None Found,,"Av. 16 de Septiembre 10c, Coacalco, 55700 San Francisco Coacalco, M√©x., M√©xico",Taquer√≠a,,San Francisco Coacalco
Cocina Do√±a Estelita,,None Found,,"Coacalco, 55700 San Francisco Coacalco, M√©x., M√©xico",Restaurante, Abre a las 11a.m.,San Francisco Coacalco
El Hijo De Tere,,None Found,+52 55 4352 4071,"Bosque de Perales 4, Rancho la Palma, 55717 San Francisco Coacalco, M√©x., M√©xico",Restaurante, Abre a las 7p.m.,San Francisco Coacalco
Viris Burguer,menu.fu.do,None Found,+52 55 5941 9816,"Av. 16 de Septiembre 29, Coacalco, 55718 San Francisco Coacalco, M√©x., M√©xico",Hamburgueser√≠a, Abre a las 4:30p.m.,San Francisco Coacalco
Salchi Street,,None Found,+52 55 8415 8359,"Centro Comercial Power Center Coacalco, Coacalco de Berriozabal, M√©x., M√©xico",Bar, Cierra a las 11a.m. ,San Francisco Coacalco
"Torter√≠a ""La Evoluci√≥n""",facebook.com,None Found,+52 55 3612 4462,"20 de Noviembre 51, Coacalco, 55700 San Francisco Coacalco, M√©x., M√©xico",Restaurante de comida r√°pida, Abre a las 9a.m. del lun,San Francisco Coacalco
Ohana Garden Coacalco,facebook.com,None Found,+52 56 4943 9611,"55700 17 Calle Jos√© Maria Morelos y Pav√≥n, San Francisco Coacalco, Estado de M√©xico coacalco, 55700 mexico, M√©x., M√©xico",Bar restaurante, Abre a las 9a.m. del mar,San Francisco Coacalco
Ohana Garden Coacalco,facebook.com,None Found,+52 56 4943 9611,"55700 17 Calle Jos√© Maria Morelos y Pav√≥n, San Francisco Coacalco, Estado de M√©xico coacalco, 55700 mexico, M√©x., M√©xico",Bar restaurante, Abre a las 9a.m. del mar,San Francisco Coacalco
Alitas y Hamburguesas Neto,,None Found,+52 55 6426 9876,"Av. Carlos Hank Gonz√°lez 11, El Gigante, 55709 San Francisco Coacalco, M√©x., M√©xico",Restaurante, Abre a las 2p.m.,San Francisco Coacalco
EL BUEN COMER,,None Found,+52 55 8348 6198,"Cipreses 123, Villa de las Flores, 55710 San Francisco Coacalco, M√©x., M√©xico",Restaurante de brunch, Abre a las 9:30a.m. del mar,San Francisco Coacalco
La Cocina De Mely,,None Found,,"Vicente Guerrero Manzana 008, Hidalgo, 55700 San Francisco Coacalco, M√©x., M√©xico",Restaurante, Abre a las 11a.m.,San Francisco Coacalco
"""El Buen Comer""",,None Found,+52 55 3038 1979,"Av. Carlos Hank Gonz√°lez No1, El Gigante, 55709 San Francisco Coacalco, M√©x., M√©xico",Restaurante mexicano, Abre a las 9a.m.,San Francisco Coacalco
Al Paladar,,None Found,+52 55 1502 9711,"C. Ixtlememelixtle 12, Coacalco, 55718 San Francisco Coacalco, M√©x., M√©xico",Restaurante de brunch, Abre a las 8a.m. del lun,San Francisco Coacalco
Pizza Hut,pizzahut.com.mx,"Cadena de comida para llevar y a domicilio, conocida por sus pizzas, alitas, pasta, postres y guarniciones.",+52 55 1515 3737,"Av. Jos√© L√≥pez Portillo S/N, Villa de las Flores, 55710 San Francisco Coacalco, M√©x., M√©xico",Pizzer√≠a, Abre a las 11a.m.,San Francisco Coacalco
La Alcachofa Cocina R√∫stica,facebook.com,None Found,+52 56 3687 9352,"C. Corregidora 6, Coacalco, 55718 San Francisco Coacalco, M√©x., M√©xico",Restaurante mexicano, Abre a las 10a.m. del lun,San Francisco Coacalco
Il Mondo Della Pizza VM,,None Found,+52 55 2267 8296,"And. Severiano Reyes 37, centro, 55700 San Francisco Coacalco, M√©x., M√©xico",Pizzer√≠a, Abre a la 1p.m.,San Francisco Coacalco
Antojitos Mexicanos Marluz,ueniweb.com,None Found,+52 56 1604 1347,"Av. 5, C. 8 &, 55707 Coacalco de Berriozabal, M√©x., M√©xico",Restaurante mexicano, Abre a las 10a.m. del lun,San Francisco Coacalco
Huaripas Restaurante - Comida Mexicana,,None Found,+52 55 6786 1147,"And. Severiano Reyes 25, Coacalco, 55718 San Francisco Coacalco, M√©x., M√©xico",,,San Francisco Coacalco
Barbacoa Don Beto,,None Found,+52 55 2506 3613,"C. Ixtlememelixtle 12, Coacalco, 55700 San Francisco Coacalco, M√©x., M√©xico",Restaurante, Abre a las 9a.m.,San Francisco Coacalco
Plaza Los Arcos Coacalco,,None Found,,"Av. Jos√© L√≥pez Portillo 28, Coacalco, 55700 San Francisco Coacalco, M√©x., M√©xico",Centro comercial, Abre a las 10a.m.,San Francisco Coacalco
La catrina pizzas,,None Found,+52 56 2175 4496,"Calle Jos√© Maria Morelos y Pav√≥n 2228, Coacalco, 55700 San Francisco Coacalco, M√©x., M√©xico",Pizzer√≠a, Abre a las 3:30p.m.,San Francisco Coacalco
El Mejor Huarache De Coacalco,ueniweb.com,None Found,+52 56 1195 8036,"Rcda. Violeta Manzana 042, San Rafael, 55720 San Francisco Coacalco, M√©x., M√©xico",Restaurante mexicano, Abre a las 9a.m.,San Francisco Coacalco
PAPATS üçü,,None Found,+52 55 3405 6610,"C. Francisco I. Madero 46, Centro, 55700 San Francisco Coacalco, M√©x., M√©xico",Restaurante de comida r√°pida, Abre a las 5p.m. del lun,San Francisco Coacalco
Chapu Burguer's,,None Found,+52 55 2539 0099,"C. Belisario Dom√≠nguez 7, Coacalco, 55700 San Francisco Coacalco, 55700 M√©xico, M√©x., M√©xico",Hamburgueser√≠a, Abre a las 5:30p.m.,San Francisco Coacalco
Taco-Mixtle,facebook.com,None Found,,"C. Ixtlememelixtle Manzana 003, Coacalco, 55700 San Francisco Coacalco, M√©x., M√©xico",Taquer√≠a, Abre a las 11a.m. del jue,San Francisco Coacalco
Pollos y Tacos Mondragon,,None Found,+52 55 6416 7227,"Calle Emiliano Zapata Manzana 010, El Gigante, 55709 San Francisco Coacalco, M√©x., M√©xico",Taquer√≠a, Abre a las 8a.m.,San Francisco Coacalco
Los Atascados Tacos y m√°s...,,None Found,,"Calle Emiliano Zapata. 3 Coacalco, Centro, 55700 Coacalco de Berriozabal, M√©x., M√©xico",Restaurante, Abre a las 9a.m.,San Francisco Coacalco
