Names,Website,Introduction,Phone Number,Address,Type,Opens At,Municipio
Restaurant La Estrella de Dimas,,None Found,+52 444 831 2133,"Carretera a, Matehuala - San Luis Potosí n, Centro, 78430 Soledad de Graciano Sánchez, S.L.P., México",Restaurante, Abre a las 12:40p.m. del dom,Soledad de Graciano Sánchez
Restaurante Panchos,facebook.com,"Rústico restaurante-bar familiar que sirve cortes al carbón, cabrito y platillos mexicanos de mar y tierra.",+52 444 854 6987,"San Luis Potosí - Matehuala Km. 5, La Constrancia, 78433 Soledad de Graciano Sánchez, S.L.P., México",Restaurante, Abre a la 1p.m. del dom,Soledad de Graciano Sánchez
"Los Portales ""Cocina Mexicana",,None Found,,"C. Ruiz 560, El Lavadero, 78437 Soledad de Graciano Sánchez, S.L.P., México",Restaurante, Abre a las 9a.m. del dom,Soledad de Graciano Sánchez
La Huerta,,None Found,,"Lat. Carr. San Luis - Matehuala, Soledad de Graciano Sanchez, 78430 Soledad Diez Gutiérrez, S.L.P., México",Restaurante, Abre a las 8a.m. del dom,Soledad de Graciano Sánchez
El Gaviero,,None Found,+52 444 205 1809,"Calle Vicente Guerrero 209, Centro Historico, 78430 Soledad de Graciano Sánchez, S.L.P., México",Marisquería,,Soledad de Graciano Sánchez
Restaurant-Bar La Güera,,None Found,+52 444 809 5902,"C. 16 de Septiembre 861, 21 de Marzo, 78437 Soledad de Graciano Sánchez, S.L.P., México",Bar restaurante, Abre a las 8a.m. del dom,Soledad de Graciano Sánchez
La Palapa del Ra,,None Found,+52 444 290 8165,"Manuel Ávila Camacho 910, San Antonio, 78436 Soledad de Graciano Sánchez, S.L.P., México",Marisquería, Abre a la 1p.m. del dom,Soledad de Graciano Sánchez
Taqueria El Tablon,,None Found,+52 444 848 6368,"Miguel Hidalgo 401A, Soledad de Graciano Sanchez, 78430 Soledad de Graciano Sánchez, S.L.P., México",Taquería, Cierra a las 3a.m.,Soledad de Graciano Sánchez
Restaurante Doña Visa,,None Found,,"Mariano Matamoros 104, Soledad de Graciano Sanchez, 78430 Soledad de Graciano Sánchez, S.L.P., México",Restaurante, Abre a las 9a.m. del dom,Soledad de Graciano Sánchez
Taquería charquito,,None Found,,"Miguel Hidalgo 446, Soledad de Graciano Sanchez, 78430 Soledad de Graciano Sánchez, S.L.P., México",Taquería, Cierra a las 3a.m.,Soledad de Graciano Sánchez
Taquería charquito,,None Found,,"Miguel Hidalgo 446, Soledad de Graciano Sanchez, 78430 Soledad de Graciano Sánchez, S.L.P., México",Taquería, Cierra a las 3a.m.,Soledad de Graciano Sánchez
La Reserva,facebook.com,None Found,+52 444 848 2867,"Cam. A San José del Barro, La Cofradía, 78430 Soledad de Graciano Sánchez, S.L.P., México",Restaurante,,Soledad de Graciano Sánchez
Mariscos El Camaroncito,,None Found,,"C. Julián de los Reyes 92, Soledad de Graciano Sanchez, 78430 Soledad de Graciano Sánchez, S.L.P., México",Marisquería, Abre a la 1p.m. del dom,Soledad de Graciano Sánchez
La Huastequita,facebook.com,None Found,+52 482 106 4756,"Av de las Estaciones 710, Fidel Velazquez, 78436 Soledad de Graciano Sánchez, S.L.P., México",Restaurante, Abre a las 9a.m. del dom,Soledad de Graciano Sánchez
Cocina Anzures,,None Found,+52 444 411 3384,"Av. Soledad 3860, Soledad de Graciano Sanchez, 78433 Soledad de Graciano Sánchez, S.L.P., México",Restaurante mexicano, Abre a las 11a.m. del dom,Soledad de Graciano Sánchez
Enchiladas Maruca,,None Found,,"C. Blas Escontria 707, Soledad de Graciano Sanchez, 78430 Soledad de Graciano Sánchez, S.L.P., México",Restaurante,,Soledad de Graciano Sánchez
Los Remedios de la Patrona,facebook.com,None Found,+52 444 307 0424,"Cl. Iturbide 298A, Soledad de Graciano Sanchez, 78430 Soledad de Graciano Sánchez, S.L.P., México",Restaurante, Abre a las 11a.m. del lun,Soledad de Graciano Sánchez
Sushi Miso Restaurante,m.bakarta.com,None Found,+52 444 800 7874,"Calle Circuito Ote 149, Jardines de Oriente, 78437 Soledad de Graciano Sánchez, S.L.P., México",Restaurante, Abre a las 12:30p.m. del dom,Soledad de Graciano Sánchez
Bien LLenito,bienllenito.ola.click,None Found,+52 444 600 1163,"C. Blas Escontria 832, Soledad de Graciano Sanchez, 78430 San Luis Potosí, S.L.P., México",Restaurante, Abre a las 8a.m. del lun,Soledad de Graciano Sánchez
"Antojitos Mexicanos ""Los Chilangos""",,None Found,+52 444 148 9214,"Av Cordillera Oriental 621-661, Villa de los Cactus, 78438 Soledad de Graciano Sánchez, S.L.P., México",Restaurante mexicano, Cierra a la 1a.m.,Soledad de Graciano Sánchez
Mariscos Jorge 2,,None Found,+52 444 854 5260,"Antigua Carretera Soledad km. 1.5 s/n, San Felipe, 78433 Soledad de Graciano Sánchez, S.L.P., México",Marisquería, Abre a las 10a.m. del dom,Soledad de Graciano Sánchez
Cortes Finos Los Regios,,None Found,+52 444 603 5675,"Miguel Hidalgo 206A, Soledad de Graciano Sanchez, 78430 Soledad de Graciano Sánchez, S.L.P., México",Restaurante, Abre a las 10a.m. del dom,Soledad de Graciano Sánchez
BBQ TIME,,None Found,+52 444 177 4436,"Miguel Hidalgo 215A, Soledad de Graciano Sanchez, 78430 Soledad de Graciano Sánchez, S.L.P., México",Restaurante, 12:30a.m. ,Soledad de Graciano Sánchez
Checos Burguer snack and grill,,None Found,+52 444 583 4728,"C. Juan Bustamante 307, Soledad de Graciano Sanchez, 78430 Soledad de Graciano Sánchez, S.L.P., México",Hamburguesería, 12a.m. ,Soledad de Graciano Sánchez
Enchiladas Soledad,,None Found,,"Miguel Hidalgo 120, Soledad de Graciano Sanchez, 78430 Soledad de Graciano Sánchez, S.L.P., México",Restaurante, Abre a las 12:30p.m. del dom,Soledad de Graciano Sánchez
Gorditas Doña Esther,,None Found,+52 444 831 2631,"Av México 2004C, Urbana San Felipe, 78433 Soledad de Graciano Sánchez, S.L.P., México",Restaurante mexicano, Abre a las 8a.m. del dom,Soledad de Graciano Sánchez
Mariscos y Cortes Pacífico,facebook.com,None Found,+52 444 854 6844,"Carretera Matehuala Km. 429 Soledad de Graciano Sanchez, 78430 San Luis Potosí, S.L.P., México",Marisquería, Abre a las 11a.m. del dom,Soledad de Graciano Sánchez
Gorditas Ochoa,,None Found,,"Calz. de las Haciendas 203, Privadas de La Hacienda, Privada Hacienda San Gabriel, 78438 Soledad de Graciano Sánchez, S.L.P., México",Restaurante, Abre a las 8a.m. del dom,Soledad de Graciano Sánchez
Mariscos El Catan,,None Found,+52 444 289 4786,"Av de Los Cactus 1309, 78438 Soledad de Graciano Sánchez, S.L.P., México",Marisquería, Abre a las 11a.m. del dom,Soledad de Graciano Sánchez
La Escondida Rest Bar Soledad,,None Found,+52 444 185 5877,"Arroyo las Capillas 1208, La Virgen, 78433 Soledad de Graciano Sánchez, S.L.P., México",Restaurante mexicano, Abre a la 1p.m. del dom,Soledad de Graciano Sánchez
Gorditas Y Cenaduria Nena,,None Found,+52 444 119 9546,"Av México 1601, Urbana San Felipe, 78433 Soledad de Graciano Sánchez, S.L.P., México",Restaurante mexicano, Abre a las 8a.m. del dom,Soledad de Graciano Sánchez
Las Raspas MX,,None Found,+52 444 243 4743,"debajo del billar inn, Av. Ricardo Basilio Anaya # 875, Ponciano Arriaga, 78437 Soledad de Graciano Sánchez, S.L.P., México",Restaurante,,Soledad de Graciano Sánchez
El Gozadero,,None Found,+52 444 818 9757,"Av. de Los Pinos 197, Praderas del Maurel, 78436 Soledad de Graciano Sánchez, S.L.P., México",Bar, Cierra a las 3a.m.,Soledad de Graciano Sánchez
Richards,,None Found,+52 444 808 6571,"Plaza Citadina, Carretera San Luis - Matehuala 3600, Villas de Soledad, 78430 Soledad de Graciano Sánchez, S.L.P., México",Restaurante, Abre a las 11a.m. del dom,Soledad de Graciano Sánchez
Restaurante Pozo de Luna,facebook.com,None Found,+52 444 426 7500,"Carretera al Aeropuerto San Luis Potosí, Supermanzana Km.2 1, 78430 Rancho Nuevo, S.L.P., México",Restaurante, Abre a las 9a.m. del dom,Soledad de Graciano Sánchez
"Tacos y Birria ""Ramirez""",facebook.com,"Restaurante sencillo donde se ofrecen tacos, estofado de carnes y otros productos básicos tradicionales.",+52 444 221 7144,"Av. San Pedro 317-D, San Francisco, 78434 Soledad de Graciano Sánchez, S.L.P., México",Restaurante mexicano, Abre a las 9a.m. del dom,Soledad de Graciano Sánchez
Taco Fish,,None Found,,"Hogares Populares Pavon, 78434 Soledad de Graciano Sánchez, S.L.P., México",Restaurante, Cierra a las 7a.m. del dom,Soledad de Graciano Sánchez
Cielo Tinto,facebook.com,Antigua hacienda con decoración romántica que ofrece margaritas y gastronomía mexicana elegante.,+52 444 168 3800,"Av. Venustiano Carranza 700, centro, 78250 San Luis Potosí, S.L.P., México",Restaurante, Abre a las 8a.m. del dom,Soledad de Graciano Sánchez
"La Mariskada ""Mariscos y Miches""",facebook.com,None Found,,"Av. San Pedro 908c, San Francisco, 78290 Soledad de Graciano Sánchez, S.L.P., México",Marisquería, Abre a las 12p.m. del dom,Soledad de Graciano Sánchez
El Soledense Taqueria,,None Found,+52 444 165 8653,"C. Prol. Negrete 1025-4, los agaves 4, 78434 Soledad de Graciano Sánchez, S.L.P., México",Restaurante mexicano, Cierra a las 11a.m. del dom,Soledad de Graciano Sánchez
Taco Express,,None Found,+52 444 194 4797,"Av. San Pedro 596, San Francisco, 78435 Soledad de Graciano Sánchez, S.L.P., México",Taquería, Cierra a las 3:30a.m.,Soledad de Graciano Sánchez
Enchiladas Potosinas,,None Found,,"Mariano Matamoros 100, Barrio de Santiago, San Luis Potosí, S.L.P., México",Restaurante mexicano, Abre a las 8a.m. del lun,Soledad de Graciano Sánchez
TrasHumante,trashumante.com.mx,"Cantina y patio a la moda con comida mexicana moderna, pizza, costillas y una larga lista de vinos.",+52 444 811 6093,"Av. Venustiano Carranza 2030, Col del Valle, 78220 San Luis Potosí, S.L.P., México",Restaurante mexicano,,Soledad de Graciano Sánchez
La Oruga y La Cebada,laorugaylacebada.com.mx,"Bar agradable de ladrillo y cielorraso con vigas de madera; hay cocteles, cerveza artesanal y comida de pub.",+52 444 334 5736,"Avenida Universidad 169, Centro, 78000 San Luis Potosí, S.L.P., México",Restaurante mexicano, 12a.m. ,Soledad de Graciano Sánchez
Las Arrachelerias,,None Found,+52 444 225 3058,"Miguel Hidalgo 401, Soledad de Graciano Sanchez, 78430 Soledad de Graciano Sánchez, S.L.P., México",Cervecería, Abre a las 12p.m. del dom,Soledad de Graciano Sánchez
El Aguachil,,None Found,+52 444 236 5411,"Miguel Hidalgo 612, Soledad de Graciano Sanchez, 78430 San Luis Potosí, S.L.P., México",Restaurante, Abre a las 2:30p.m. del dom,Soledad de Graciano Sánchez
Calaveras & Diablitos,,None Found,+52 444 721 4803,"Miguel Hidalgo 311, Soledad de Graciano Sanchez, 78430 Soledad de Graciano Sánchez, S.L.P., México",Restaurante, Abre a las 4p.m. del dom,Soledad de Graciano Sánchez
Taquería Los Mixes Sabor Oaxaqueño,,None Found,+52 444 337 3728,"Av. Valentin Amador 628, San Antonio, 78436 Soledad de Graciano Sánchez, S.L.P., México",Restaurante mexicano, Cierra a las 2a.m.,Soledad de Graciano Sánchez
Mariscos Leo,,None Found,+52 444 435 6223,"calle, Miguel Hidalgo 124, 78430 San Luis Potosí, S.L.P., México",Marisquería, Abre a las 12p.m. del dom,Soledad de Graciano Sánchez
"Enchiladas ""Las Chelinas""",,None Found,+52 444 337 7799,"C. Benito Juárez 426, Soledad de Graciano Sanchez, 78430 Soledad de Graciano Sánchez, S.L.P., México",Restaurante, Abre a las 12p.m. del dom,Soledad de Graciano Sánchez
Garage Cervecero,,None Found,+52 444 118 1560,"Miguel Hidalgo 601-C, Centro, 78434 Soledad de Graciano Sánchez, S.L.P., México",Hamburguesería, Abre a las 3p.m. del lun,Soledad de Graciano Sánchez
Tortas El Rey,,None Found,+52 444 831 4378,"Huehuetlán 127, Urbana San Felipe, 78433 Soledad de Graciano Sánchez, S.L.P., México",Restaurante mexicano, Abre a las 3p.m. del lun,Soledad de Graciano Sánchez
Sazón y Tradición Buffet,,None Found,,"Jardín Hidalgo 3-C, Soledad de Graciano Sanchez, 78430 Soledad de Graciano Sánchez, S.L.P., México",Restaurante mexicano,,Soledad de Graciano Sánchez
AGUA CHILE Sea Food,,None Found,+52 444 173 8917,"Cl. Iturbide 451A, Soledad de Graciano Sanchez, 78430 Soledad de Graciano Sánchez, S.L.P., México",Marisquería, Abre a la 1p.m. del dom,Soledad de Graciano Sánchez
Los MonoElotes,,None Found,+52 444 530 6452,"Jardín Hidalgo 7, Soledad de Graciano Sanchez, 78430 Soledad de Graciano Sánchez, S.L.P., México",Restaurante de comida rápida, Abre a las 7p.m. del dom,Soledad de Graciano Sánchez
Tacos el primo,,None Found,,"Calle Vicente Guerrero 202, Soledad de Graciano Sanchez, 78430 Soledad de Graciano Sánchez, S.L.P., México",Taquería, Abre a las 8a.m. del dom,Soledad de Graciano Sánchez
GORDITAS MARYFER,,None Found,,"Av México 1527, Urbana San Felipe, 78433 Soledad de Graciano Sánchez, S.L.P., México",Restaurante,,Soledad de Graciano Sánchez
El Patio de Alva,,None Found,+52 444 552 9262,"Carr. a Matehuala 4632, Soledad de Graciano Sanchez, 78430 Soledad de Graciano Sánchez, S.L.P., México",Restaurante, Abre a las 2p.m. del dom,Soledad de Graciano Sánchez
Angelito's Burger,,None Found,+52 444 657 3489,"C. Blas Escontria 302a, Soledad de Graciano Sanchez, 78430 Soledad de Graciano Sánchez, S.L.P., México",Hamburguesería, 12a.m. ,Soledad de Graciano Sánchez
Taqueria EL JARDIN,,None Found,,"Jardín Hidalgo 149, Soledad de Graciano Sanchez, 78430 Soledad de Graciano Sánchez, S.L.P., México",Taquería,,Soledad de Graciano Sánchez
Taqueria EL JARDIN,,None Found,,"Jardín Hidalgo 149, Soledad de Graciano Sanchez, 78430 Soledad de Graciano Sánchez, S.L.P., México",Taquería,,Soledad de Graciano Sánchez
"La Patrona, Comida Mexicana",,None Found,,"Gaviota 319, Hogares Populares Pavon, 78434 Soledad de Graciano Sánchez, S.L.P., México",Restaurante mexicano,,Soledad de Graciano Sánchez
Gorditas Rosy,,None Found,+52 444 194 1832,"Av Bellavista 142, Las Hadas, Soledad de Graciano Sanchez, 78433 Soledad de Graciano Sánchez, S.L.P., México",Restaurante mexicano,,Soledad de Graciano Sánchez
Taqueria Luis Tacos Tortas Gringas,,None Found,+52 444 221 1727,"Av. Valentin Amador 701, San Francisco, 78435 Soledad de Graciano Sánchez, S.L.P., México",Restaurante mexicano, 12a.m. ,Soledad de Graciano Sánchez
Tortas la Terraza,,None Found,+52 444 843 1022,"Av México 1601, Urbana San Felipe, 78433 Soledad de Graciano Sánchez, S.L.P., México",, Abre a las 11a.m. del dom,Soledad de Graciano Sánchez
"Taquería ""Doña Chela""",,None Found,+52 81 1488 8140,"Miguel Hidalgo 304, Soledad de Graciano Sanchez, 78430 Soledad de Graciano Sánchez, S.L.P., México",Taquería, Cierra a la 1a.m.,Soledad de Graciano Sánchez
Faustino's pizza,,None Found,+52 444 681 7381,"Miguel Hidalgo 107, Soledad de Graciano Sanchez, 78430 Soledad de Graciano Sánchez, S.L.P., México",Pizzería, Abre a las 10a.m. del dom,Soledad de Graciano Sánchez
"Tortas ""El Venao""",,None Found,+52 444 329 5173,"Av. José de Gálvez 114, Benito Juárez, 78437 Soledad de Graciano Sánchez, S.L.P., México",, Abre a las 9a.m. del lun,Soledad de Graciano Sánchez
Melissa’s Coffee,instagram.com,None Found,+52 444 495 5042,"C. Benito Juárez 206, Soledad de Graciano Sanchez, 78430 Soledad de Graciano Sánchez, S.L.P., México",Cafetería, Abre a las 9a.m. del dom,Soledad de Graciano Sánchez
SUPER TORTAS EXPRESS,,None Found,+52 444 506 8023,"C. Fernando Amilpa 441, Fidel Velazquez, 78436 Soledad de Graciano Sánchez, S.L.P., México",Restaurante, Abre a las 10a.m. del lun,Soledad de Graciano Sánchez
SUPER TORTAS EXPRESS,,None Found,+52 444 506 8023,"C. Fernando Amilpa 441, Fidel Velazquez, 78436 Soledad de Graciano Sánchez, S.L.P., México",Restaurante, Abre a las 10a.m. del lun,Soledad de Graciano Sánchez
POZO DE LUNA VINÍCOLA,pozodeluna.mx,None Found,+52 444 142 2423,"Carretera al Aeropuerto Km.2.1 Rancho Nuevo, 78430 Soledad de Graciano Sánchez, S.L.P., México",Viñedo, Abre a las 9a.m. del dom,Soledad de Graciano Sánchez
Domino's S.L.P. Soledad,dominosmx.app.link,Cadena de comida a domicilio o para llevar con gran variedad de pizzas y otros platos y acompañamientos.,+52 444 831 3066,"Miguel Hidalgo 838, Soledad de Graciano Sanchez, 78430 Soledad de Graciano Sánchez, S.L.P., México",Pizzería, Abre a las 10a.m. del dom,Soledad de Graciano Sánchez
Tortas el rey,,None Found,+52 444 308 4510,"Av Libertad, Providencia, 78430 Soledad de Graciano Sánchez, S.L.P., México",Restaurante de comida rápida, Abre a las 10:30a.m. del lun,Soledad de Graciano Sánchez
Antojitos Luisa,,None Found,,"2 de Abril 300, Soledad de Graciano Sanchez, 78430 Soledad de Graciano Sánchez, S.L.P., México",Restaurante mexicano, Abre a las 8a.m. del lun,Soledad de Graciano Sánchez
Pigs Snacks,facebook.com,None Found,+52 444 339 5827,"C. Blas Escontria 902, Soledad de Graciano Sanchez, 78430 Soledad de Graciano Sánchez, S.L.P., México",Hamburguesería, Abre a las 7p.m. del dom,Soledad de Graciano Sánchez
"Cenaduria de antojitos mexicanos ""Ramirez""",,None Found,+52 444 457 5529,"C. San Leonardo 413-A, Rancho Blanco, 78436 Soledad de Graciano Sánchez, S.L.P., México",Restaurante, 12a.m. ,Soledad de Graciano Sánchez
Los Portales Cocina Mexicana,,None Found,,"Av Graciano Sánchez 644, 21 de Marzo, 78437 Soledad de Graciano Sánchez, S.L.P., México",Restaurante,,Soledad de Graciano Sánchez
Mariscos Jorge 3,,None Found,+52 444 529 1647,"Carretera San Luis Potosí - Río Verde 126, San Luis Potosi - Rioverde 128, Rivas Guillen, Genovevo Rivas Guillen, 78436 Soledad de Graciano Sánchez, S.L.P., México",Marisquería, Abre a las 11a.m. del dom,Soledad de Graciano Sánchez
Pollo Chulo MX,,None Found,,"Av. Ignacio Zaragoza 266, Quintas de la Hacienda 2, 78438 Soledad de Graciano Sánchez, S.L.P., México",Restaurante especializado en pollo, Abre a las 11a.m. del dom,Soledad de Graciano Sánchez
Pollo Chulo MX,,None Found,,"Av. Ignacio Zaragoza 266, Quintas de la Hacienda 2, 78438 Soledad de Graciano Sánchez, S.L.P., México",Restaurante especializado en pollo, Abre a las 11a.m. del dom,Soledad de Graciano Sánchez
Av Valentin Amador #628,,None Found,+52 442 160 5428,"San Antonio, 78436 Soledad de Graciano Sánchez, S.L.P., México",Restaurante mexicano,,Soledad de Graciano Sánchez
Las Tres Marias,,None Found,,"Av. campestre #700 Ejido el zapote, 78430 Soledad de Graciano Sánchez, S.L.P., México",Restaurante,,Soledad de Graciano Sánchez
Pizzas Tito,m.facebook.com,None Found,+52 444 818 7701,"Valentín Gómez Farias 310, Bugambilias, 78436 Soledad de Graciano Sánchez, S.L.P., México",Pizzería, Abre a las 6p.m. del dom,Soledad de Graciano Sánchez
Tortas San Pedro,,None Found,,"República de Chile 580, San Francisco, 78435 Soledad de Graciano Sánchez, S.L.P., México",, Abre a las 10:30a.m. del lun,Soledad de Graciano Sánchez
"GORDITAS ""LAS DELICIAS""",,None Found,,"Prol. Melchor Ocampo 632, Soledad de Graciano Sanchez, 78430 Soledad de Graciano Sánchez, S.L.P., México",Restaurante mexicano, Abre a las 9a.m. del lun,Soledad de Graciano Sánchez
Los rebozos de Angelica,,None Found,+52 444 585 8283,"C. Porfirio Díaz 419, Soledad de Graciano Sanchez, 78430 Soledad de Graciano Sánchez, S.L.P., México",Restaurante, Abre a las 7a.m. del dom,Soledad de Graciano Sánchez
"""Las Supremas"" Tortas Gigantes",,None Found,+52 444 370 5846,"Ca. de Las Cigüeñas 515, Conjunto las Aves, 78434 Soledad de Graciano Sánchez, S.L.P., México",Tienda de alimentación, Abre a las 12p.m. del lun,Soledad de Graciano Sánchez
Restaurante La Gran Vía,lagranviaslp.com,Restaurante de lujo con decoración antigua donde se ofrece comida internacional y tradicional española.,+52 444 812 2899,"Av. Venustiano Carranza 560, Centro Historico, 78200 San Luis Potosí, S.L.P., México",Restaurante de cocina española, 12a.m. ,Soledad de Graciano Sánchez
Barbacoa EL JP,,None Found,+52 444 511 6013,"C. Porfirio Díaz 422, Soledad de Graciano Sanchez, 78430 Soledad de Graciano Sánchez, S.L.P., México",Restaurante especializado en barbacoa, Abre a las 7a.m. del dom,Soledad de Graciano Sánchez
Carnitas Las Chuletas,,None Found,+52 444 414 7557,"Miguel Hidalgo 104, Soledad de Graciano Sanchez, 78430 Soledad de Graciano Sánchez, S.L.P., México",Restaurante, Abre a las 10a.m. del dom,Soledad de Graciano Sánchez
Cocina Económica Estela,,None Found,+52 444 844 2959,"Av Libertad 791b, Providencia, 78434 Soledad de Graciano Sánchez, S.L.P., México",Restaurante mexicano, Abre a las 9a.m. del lun,Soledad de Graciano Sánchez
Las Chulas cenaduria,,None Found,+52 444 576 9614,"Jardín Hidalgo, Soledad de Graciano Sanchez, 78430 Soledad de Graciano Sánchez, S.L.P., México",Restaurante mexicano, Abre a las 4:30a.m. del dom,Soledad de Graciano Sánchez
Snack Attack,,None Found,+52 444 336 1129,"Negrete 207-A, Soledad de Graciano Sanchez, 78430 Soledad de Graciano Sánchez, S.L.P., México",Restaurante de comida rápida, Abre a las 7:30p.m. del dom,Soledad de Graciano Sánchez
Capizza La Pizza,capizzalapizza.helpinapps.com,None Found,+52 444 211 9681,"Calz. de las Haciendas 96c, Privadas de La Hacienda, Privadas de las haciendas, 78438 Soledad de Graciano Sánchez, S.L.P., México",Pizzería, Abre a las 12p.m. del dom,Soledad de Graciano Sánchez
Boar Hat Pizza,,None Found,,"Negrete 207, Villas del Sol, 78430 Soledad de Graciano Sánchez, S.L.P., México",Pizzería, Abre a la 1:30p.m. del dom,Soledad de Graciano Sánchez
Gorditas Angeles,,None Found,+52 444 545 3917,"Soledad de Graciano Sanchez, 78430 Soledad de Graciano Sánchez, S.L.P., México",Restaurante mexicano, Abre a las 8:30a.m. del lun,Soledad de Graciano Sánchez
Corazón de melón,facebook.com,None Found,+52 444 436 3233,"Chapultepec 557, El Morro, 78434 Soledad de Graciano Sánchez, S.L.P., México",Restaurante de brunch, Abre a las 9a.m. del dom,Soledad de Graciano Sánchez
Burger King,burgerking.com.mx,"Conocida cadena de comida rápida que ofrece hamburguesas a la parrilla, papas fritas y batidos.",,"Lat. Carr. San Luis - Matehuala 3600, Soledad de Graciano Sanchez, 78430 Soledad de Graciano Sánchez, S.L.P., México",Restaurante de comida rápida, Abre a las 9a.m. del dom,Soledad de Graciano Sánchez
KFC,kfc.com.mx,"Cadena de restaurantes conocida por sus cubos de pollo frito, combinaciones de comidas y acompañamientos.",+52 55 1515 4747,"Carretera a Matehuala esquina con, C. Blas Escontria 3600, San Andres, 78433 Soledad de Graciano Sánchez, S.L.P., México",Restaurante de comida rápida,,Soledad de Graciano Sánchez
La Casa de la Arrachera,casadelaarrachera.com,"Local de carretera con buffet de tenedor libre de sopas, estofados y carne a la parrilla estilo mexicano.",+52 444 824 0777,"Av. Julián de los Reyes, Calle Centerario Villa de Pozos 415, 78421 San Luis Potosí, S.L.P., México",Restaurante, Abre a las 11a.m. del dom,Soledad de Graciano Sánchez
El Apapacho,,None Found,,"Negrete 121, Soledad de Graciano Sanchez, 78430 Soledad de Graciano Sánchez, S.L.P., México",Cafetería,,Soledad de Graciano Sánchez
Little Caesar´s Pizza,littlecaesars.com.mx,"Cadena de comida para llevar que ofrece alitas de pollo, palitos de pan y pizza hecha con masa casera.",+52 444 201 3568,"Av. Acceso Nte. 5, Industrial Mexicana, 78436 Soledad de Graciano Sánchez, S.L.P., México",Pizzería, Abre a las 10a.m. del dom,Soledad de Graciano Sánchez
Pollo Chulo MX Las Hadas,,None Found,,"Av Bellavista 128, Las Hadas, Soledad de Graciano Sanchez, 78433 Soledad de Graciano Sánchez, S.L.P., México",Restaurante especializado en pollo,,Soledad de Graciano Sánchez
Cenaduría Candelas,,None Found,,"Durango 1085, Popular, 78300 San Luis Potosí, S.L.P., México",Restaurante mexicano, Abre a las 6:30p.m. del dom,Soledad de Graciano Sánchez
Pizza Clásica,pizzaclasica.com,None Found,+52 444 100 7131,"Ignacio Aldama 101-E, Soledad de Graciano Sanchez, 78430 Soledad de Graciano Sánchez, S.L.P., México",Pizzería, Abre a la 1p.m. del dom,Soledad de Graciano Sánchez
Finca Los Abuelos,,None Found,+52 444 845 5369,"78439 Soledad de Graciano Sánchez, S.L.P., México",Recinto para eventos, Abre a las 8a.m. del dom,Soledad de Graciano Sánchez
Pizza Hut Citadina,pizzahut.com.mx,"Cadena de comida para llevar y a domicilio, conocida por sus pizzas, alitas, pasta, postres y guarniciones.",+52 444 834 0060,"Plaza Citadina, Lat. Carr. San Luis - Matehuala No. 3600, Centro Historico, 78430 Soledad de Graciano Sánchez, S.L.P., México",Pizzería, Abre a las 12p.m. del dom,Soledad de Graciano Sánchez
Pizza Hut Citadina,pizzahut.com.mx,"Cadena de comida para llevar y a domicilio, conocida por sus pizzas, alitas, pasta, postres y guarniciones.",+52 444 834 0060,"Plaza Citadina, Lat. Carr. San Luis - Matehuala No. 3600, Centro Historico, 78430 Soledad de Graciano Sánchez, S.L.P., México",Pizzería, Abre a las 12p.m. del dom,Soledad de Graciano Sánchez
Gorditas y Menudo Soledad,,None Found,,"C. Blas Escontria 513, Soledad de Graciano Sanchez, 78430 Soledad de Graciano Sánchez, S.L.P., México",Restaurante, Abre a las 8a.m. del dom,Soledad de Graciano Sánchez
Gorditas y Menudo Soledad,,None Found,,"C. Blas Escontria 513, Soledad de Graciano Sanchez, 78430 Soledad de Graciano Sánchez, S.L.P., México",Restaurante, Abre a las 8a.m. del dom,Soledad de Graciano Sánchez
TAQUERIA DON PONCHO,,None Found,,"Jardín Hidalgo 133, Soledad de Graciano Sanchez, 78430 Soledad de Graciano Sánchez, S.L.P., México",Taquería, Abre a las 7a.m. del dom,Soledad de Graciano Sánchez
Las Brasas Rico Pollo Asado,,None Found,,"C. Benito Juárez 215, Soledad de Graciano Sanchez, 78430 Soledad de Graciano Sánchez, S.L.P., México",Restaurante especializado en pollo,,Soledad de Graciano Sánchez
Hamburguesas Alex,facebook.com,None Found,+52 444 133 1272,"Miguel Hidalgo 319, Soledad de Graciano Sanchez, 78430 Soledad de Graciano Sánchez, S.L.P., México",Hamburguesería, 12a.m. ,Soledad de Graciano Sánchez
"Gorditas ""El Gato""",,None Found,,"Miguel Hidalgo 421, Soledad de Graciano Sanchez, 78430 Soledad de Graciano Sánchez, S.L.P., México",Restaurante, Abre a las 9a.m. del dom,Soledad de Graciano Sánchez
Antojitos Mexicanos Yeye,m.facebook.com,None Found,+52 444 114 0095,"Los Ebanos 164, Los Fresnos, 78433 Soledad de Graciano Sánchez, S.L.P., México",Restaurante mexicano, Abre a las 9a.m. del dom,Soledad de Graciano Sánchez
Tortas El Rey,,None Found,+52 444 505 3988,"Av Bellavista 190, Las Hadas, Soledad de Graciano Sanchez, 78433 Soledad de Graciano Sánchez, S.L.P., México",, Abre a las 10:30a.m. del lun,Soledad de Graciano Sánchez
Sunset ️,,None Found,+52 444 425 7111,"2a P. Libertad 216, Colonia, 78430 Soledad de Graciano Sánchez, S.L.P., México",Cafetería, 12a.m. ,Soledad de Graciano Sánchez
El Pollo Felíz,pollofelizslp.com,None Found,+52 444 100 7342,"Carr. a Matehuala 12500, La Raza, 78433 Soledad de Graciano Sánchez, S.L.P., México",Restaurante especializado en pollo,,Soledad de Graciano Sánchez
"tacos ""el moreno""",,None Found,+52 444 538 4536,"Av. Soledad 1403, Urbana San Felipe, 78433 Soledad de Graciano Sánchez, S.L.P., México",Taquería, Cierra a las 2a.m.,Soledad de Graciano Sánchez
