Names,Website,Introduction,Phone Number,Address,Type,Opens At,Municipio
Oc√©ano Dorado,eloceanodorado.com,Extenso jard√≠n con comedor abierto bajo una palapa en el que se ofrecen mariscos en un ambiente familiar.,+52 777 326 6657,"C. Fortalecimiento Municipal s/n, Las Animas, 62583 Temixco, Mor., M√©xico",Marisquer√≠a, Abre a las 11a.m.,Temixco
Mariscos T√≠a Licha Suc.Temixco,,None Found,+52 777 326 6372,"C. Fortalecimiento Municipal 107, Las Animas, 62583 Temixco, Mor., M√©xico",Marisquer√≠a,,Temixco
La Mestiza,,None Found,+52 777 563 4965,"Calle 5 de mayo S/N Plaza Pabell√≥n Temixco Local 4 Col, Miguel Hidalgo, 62580 Temixco, Mor., M√©xico",, Cierra a las 8p.m.,Temixco
Refin restaurante y parrilla mexicana,,None Found,+52 777 130 8670,"C. Canal 27, Miguel Hidalgo, 62585 Temixco, Mor., M√©xico",Restaurante familiar, Abre a las 8a.m.,Temixco
El Lagarto Marinero,,None Found,+52 777 244 7852,"C. Fortalecimiento Municipal 37, Las Animas, 62583 Temixco, Mor., M√©xico",Bar restaurante, Abre a las 11a.m.,Temixco
Taquer√≠a EL PASO Acatlipa Temixco,,None Found,+52 777 435 9509,"Adolfo Lopez Mateos Carr. Federal Mexico - Acapulco 107, La Ribera, 62586 Temixco, Mor., M√©xico",Taquer√≠a, Cierra a las 12:30p.m. ,Temixco
El Campestre de Acatlipa,facebook.com,None Found,+52 777 385 1475,"Taxco - Cuernavaca 185, Centro, 62507 Temixco, Mor., M√©xico",Restaurante, Abre a las 8:30a.m.,Temixco
El apancle,,None Found,,"5 de Mayo 6, Miguel Hidalgo, 62585 Temixco, Mor., M√©xico",Restaurante, Abre a las 8:20a.m.,Temixco
Taquer√≠a El Primo,,None Found,+52 777 242 8540,"Calle Emiliano Zapata Km 84, Centro, 62580 Temixco, Mor., M√©xico",Taquer√≠a, Cierra a las 12:30a.m.,Temixco
El Rinc√≥n De Las Alitas,ueniweb.com,None Found,+52 55 4133 1827,"Fco. I Madero 37, Centro, 62580 Temixco, Mor., M√©xico",Restaurante de alas de pollo, Abre a las 9a.m.,Temixco
Sanborcito de la tia Mine,,None Found,,"5 de Mayo 6, Miguel Hidalgo, 62585 Temixco, Mor., M√©xico",Restaurante, Abre a las 8a.m.,Temixco
Restaurante de Mariscos Jhon Camaron,,None Found,,"Avenida Emiliano Zapata 1290, Centro, 62586 Temixco, Mor., M√©xico",Marisquer√≠a, Abre a las 11a.m.,Temixco
Mundo's Place,,None Found,+52 777 385 0323,"Primera Priv. Adolfo L√≥pez Mateos 6, Acatlipa Centro, 62586 Temixco, Mor., M√©xico",Marisquer√≠a, Abre a las 11:30a.m.,Temixco
Comida Artesanal Yucateca,,None Found,+52 777 563 4965,"Boulevard del DIEZ Plaza Pabellon Temixco local 4 y 5 Frente a Walmart Para√≠so, 62585 Temixco, Mor., M√©xico",Restaurante mexicano, Abre a las 8a.m.,Temixco
La Coc,,None Found,,"62507 Temixco, Mor., M√©xico",Restaurante de comida r√°pida, Abre a las 9:30a.m.,Temixco
Barbacoa la Remilgoza,,None Found,+52 777 207 5154,"Libramiento al 10, Miguel Hidalgo, 62592 Temixco, Mor., M√©xico",Restaurante especializado en barbacoa, Cierra a las 3:30p.m.,Temixco
D'Luxe Restaurante/Bar,facebook.com,None Found,+52 777 168 3023,"Miguel Alem√°n 117, Las Rosas, 62586 Temixco, Mor., M√©xico",Restaurante, Abre a las 3p.m.,Temixco
"Cocina Econ√≥mica ""Los Compadres""",,None Found,+52 777 232 3327,"Av. Miguel Hidalgo 42, 62580 Temixco, Mor., M√©xico",Restaurante, Abre a las 9a.m.,Temixco
KalaMarDo,facebook.com,None Found,+52 777 325 0187,"AUTOPISTA LIBRAMIENTO AL DIEZ, Emiliano Zapata - Cuernavaca 656, 62580 Temixco, Mor., M√©xico",Marisquer√≠a, Abre a las 12p.m.,Temixco
Turquesa Restaurante Caf√©,,None Found,+52 777 296 7774,"Av Emiliano Zapata Lote1 Mz3, Calandrias 7, Los Arcos, 62586 Temixco, Mor., M√©xico",Restaurante mexicano, Abre a las 9a.m.,Temixco
El Rey de la Arrachera Temixco,facebook.com,None Found,+52 777 385 8438,"Blvd. Apatlaco 145, 62590 Temixco, Mor., M√©xico",Restaurante especializado en filetes, Abre a las 12:15p.m.,Temixco
Los estanques de Mojarras,,None Found,+52 734 251 0583,"Carretera Federal Atetlama Los estanques S/N, 62594 Temixco, Mor., M√©xico",Marisquer√≠a, Abre a las 8a.m.,Temixco
"El Paladar, Restaurant & Bar Temixco",facebook.com,None Found,,"Vicente Guerrero 108, Pueblo Viejo, 62588 Temixco, Mor., M√©xico",Bar restaurante, Abre a las 9a.m.,Temixco
Restaurante bar Brisas Terra Mar,,None Found,+52 777 133 8177,"Brisas de temixco, Brisas de Cuernavaca 15, 62584 Temixco, Mor., M√©xico",Restaurante, Abre a las 9a.m.,Temixco
La Chiluda - Suc. Temixco,linktr.ee,None Found,+52 777 268 3204,"Emiliano Zapata - Cuernavaca 23-A, Miguel Hidalgo, 62585 Tres de Mayo, Mor., M√©xico",Marisquer√≠a, Abre a las 11a.m.,Temixco
snacks con sabor de hogar,,None Found,+52 777 134 2487,"Calle Emiliano Zapata 6, Morelos, 62588 Temixco, Mor., M√©xico",Restaurante, Abre a las 12p.m.,Temixco
Pancita Guerrero,,None Found,,"C. Francisco Villa 17, Pueblo Viejo, 62588 Temixco, Mor., M√©xico",Restaurante, Abre a las 8a.m.,Temixco
El Trapiche Restaurante,,None Found,+52 777 245 3651,"Avenida Emiliano Zapata Municipio de Temixco, Temixco Centro, 62580 Temixco, Mor., M√©xico",Restaurante mexicano, Abre a las 8a.m. del lun,Temixco
Taquer√≠a La Gringa 3,,None Found,+52 777 312 9935,"Pabellon temixco Emiliano zapata, C. Canal, 62585 Temixco, Mor., M√©xico",Taquer√≠a, Abre a las 12p.m.,Temixco
"ALITAS ""EL TIO"" TEMIXCO",,None Found,+52 777 594 9764,"Ej√©rcito Trigarante 27, Ruben Jaramillo, 62587 Temixco, Mor., M√©xico",Restaurante, Abre a las 2p.m.,Temixco
Las Cazuelas,,None Found,,"Av Gral Marcelino Garc√≠a Barragan 643, Azteca, 62588 Temixco, Mor., M√©xico",Restaurante, Abre a las 8a.m.,Temixco
ü´ïüçúüç≤La Cocina De Yoliüç≤üçúü´ï,,None Found,+52 777 903 7786,"Mercado Unidad Morelos Independencia, Independencia Local 11-12, Centro, 62580 Temixco, Mor., M√©xico",Restaurante, Abre a las 8:30a.m.,Temixco
Taquer√≠a la Carpa,,None Found,+52 777 480 8390,"Brisas Florida, Brisas, 62584 Temixco, Mor., M√©xico",Taquer√≠a, Abre a las 2p.m.,Temixco
Taquer√≠a tacoyoacan Temixco Km. 84,,None Found,+52 777 365 9141,"Calle Emiliano Zapata Km 84, Centro, 62580 Temixco, Mor., M√©xico",Taquer√≠a, Abre a las 9a.m.,Temixco
"Carnitas ""La Delicia""",,None Found,+52 777 779 9981,"Avenida General Marcelino Garc√≠a Barragan esquina con C. Juan Aldama Azteca, 62588 Temixco, Mor., M√©xico",Restaurante mexicano, Abre a las 8:30a.m.,Temixco
Restaurante Quiubole,,None Found,+52 777 385 0397,"Taxco - Cuernavaca, Acatlipa Centro, 62586 Temixco, Mor., M√©xico",Restaurante mexicano, Abre a las 8a.m.,Temixco
Kirrio's Wings,facebook.com,None Found,,"Venustiano Carranza 16, Centro, 62580 Temixco, Mor., M√©xico",Bar restaurante, Abre a las 3p.m.,Temixco
Taquer√≠a el paraiso Temixco,,None Found,+52 777 192 8669,"Z, libramiento el D.I.E, Miguel Hidalgo, 62585 Temixco, Mor., M√©xico",Taquer√≠a, Abre a las 4p.m.,Temixco
Taqueria El Primo 2,,None Found,+52 735 246 4263,"62586 Temixco, Mor., M√©xico",Taquer√≠a, Cierra a las 12p.m. ,Temixco
TemixBurguer,,None Found,+52 777 325 0710,"C. Aldama 6, Lomas del Carril, 62583 Temixco, Mor., M√©xico",Restaurante, Abre a las 6p.m.,Temixco
Taqueria el Carboncito,,None Found,+52 777 244 4918,"Benito Ju√°rez 20, Morelos, 62588 Temixco, Mor., M√©xico",Restaurante, Abre a las 4p.m.,Temixco
Taquer√≠a Porfi,,None Found,,"C. Amapolas 14, Lomas del Carril, 62583 Temixco, Mor., M√©xico",Taquer√≠a, Abre a las 6:45p.m.,Temixco
Taquer√≠a El Maracuyo,,None Found,,"Calz de Guadalupe 43, Lomas del Carril, 62583 Temixco, Mor., M√©xico",Taquer√≠a,,Temixco
La Playa Restaurante y albercas.,,None Found,+52 777 306 8168,"Av. Miguel Hidalgo 1900, 62585 Temixco, Mor., M√©xico",Restaurante, Abre a las 10a.m.,Temixco
Cocina Econ√≥mica Rosita,,None Found,+52 777 433 4392,"Av Gral Marcelino Garc√≠a Barragan 141, Azteca, 62588 Temixco, Mor., M√©xico",Restaurante, Abre a las 9a.m.,Temixco
Allegro Caf√©,m.facebook.com,None Found,+52 777 513 0355,"C. Azucenas LB, Lomas del Carril, 62583 Temixco, Mor., M√©xico",Restaurante, Abre a las 9a.m. del lun,Temixco
La Guladera,,None Found,+52 777 725 0597,"Libramiento al DIEZ, sin n√∫mero, 62765 Mor., M√©xico",Restaurante, Abre a las 8a.m.,Temixco
"Pozoleria ""Do√±a Mica"" Col. Azteca",,None Found,+52 17771908279,"Calle 17 de Abril s/n, Azteca, 62587 Temixco, Mor., M√©xico",Restaurante mexicano, Abre a las 12p.m. del vie,Temixco
Homero Ranchero Temixco,facebook.com,None Found,+52 777 502 8636,"Plaza solaz, Blvd. Apatlaco 145, Acatlipa Centro, 62590 Temixco, Mor., M√©xico",Restaurante,,Temixco
"Cocina Econ√≥mica y Antojitos ""Caty""",,None Found,+52 777 866 1747,"Av Gral Marcelino Garc√≠a Barragan 342, Azteca, 62588 Temixco, Mor., M√©xico",Restaurante mexicano, Abre a las 8a.m. del lun,Temixco
Yo Amo las Crepas,,None Found,+52 777 244 6627,"Plaza Paraiso, Libramiento al Diez 656, Local 6, Miguel Hidalgo, 62585 Temixco, Mor., M√©xico",Creper√≠a,,Temixco
"Antojitos Mexicanos ""Lucy""",,None Found,+52 777 930 0471,"Av. Del Trabajo 959, Rio Escondido, 62586 Temixco, Mor., M√©xico",Restaurante mexicano, Abre a las 8a.m.,Temixco
Pozoler√≠a Do√±a Mica,,None Found,+52 777 325 1548,"Copa de Oro 8, Lomas del Carril, 62583 Temixco, Mor., M√©xico",Sala de banquetes, Abre a las 8a.m. del s√°b,Temixco
Carnitas Fer Temixco,linktr.ee,None Found,+52 777 609 6202,"Calle Emiliano Zapata, Centro, 62586 Temixco, Mor., M√©xico",Restaurante, Abre a las 9a.m.,Temixco
La Parcela,,None Found,,"Calle Emiliano Zapata 171, Campo del Rayo, 62590, Campo del Rayo, 62590 Temixco, Mor., M√©xico",Bar, Abre a la 1p.m.,Temixco
Taqueria Aguigol,,None Found,+52 777 325 2476,"Av Gral Marcelino Garc√≠a Barragan 336, Azteca, 62588 Temixco, Mor., M√©xico",Taquer√≠a, Abre a las 8a.m.,Temixco
"Marisqueria ""El Guamuchil""",,None Found,,"62588 Temixco, Mor., M√©xico",Marisquer√≠a, Cierra a las 6p.m.,Temixco
Taquer√≠a Tacoyoac√°n,,None Found,+52 777 351 0528,"Av Gral Marcelino Garc√≠a Barragan 285, Azteca, 62588 Temixco, Mor., M√©xico",Taquer√≠a, Abre a las 10a.m.,Temixco
Club Center Temixco,goherbalife.com,None Found,,"62580, Ejido 24, Centro, 62580 Temixco, Mor., M√©xico",Restaurante, 7:30a.m.,Temixco
BOSSA NOVA CAF√â,facebook.com,None Found,+52 777 790 1214,"Junto Al R√≠o 1, Lomas de Cuernavaca, 62584 Temixco, Mor., M√©xico",Cafeter√≠a, Abre a las 8:30a.m.,Temixco
Mariscos El Faro,elfaromariscos.com,None Found,+52 777 390 7218,"Carr. a Aeropuerto de Cuernavaca 12, Cuauhtemoc, 62795 Chiconcuac, Mor., M√©xico",Marisquer√≠a, Abre a las 8a.m.,Temixco
Antojitos Mexicnos Rosy,,None Found,+52 777 106 5877,"Ignacio Allende, Casa Blanca, 62587 Temixco, Mor., M√©xico",Restaurante mexicano, Abre a las 9a.m.,Temixco
Pulpa Pi√±a,facebook.com,None Found,+52 449 401 4973,"Av Gral Marcelino Garc√≠a Barragan, Marcelino Garc√≠a Barrag√°n, 62582 Temixco, Mor., M√©xico",Restaurante, Abre a las 3p.m.,Temixco
"Antojitos Mexicanos ""El Castillo""",,None Found,+52 777 250 6947,"Primero de Mayo 640, Ruben Jaramillo, 62587 Temixco, Mor., M√©xico",Restaurante mexicano, Abre a las 8:30a.m. del lun,Temixco
Taquer√≠a Kariyaca,,None Found,+52 777 325 1997,"Calz de Guadalupe, Lomas del Carril, 62583 Temixco, Mor., M√©xico",Taquer√≠a,,Temixco
Sushi Nito temixco,facebook.com,None Found,+52 777 232 2516,"C. Para√≠so Escondido s/n, Lomas de Guadalupe, 62583 Temixco, Mor., M√©xico",Restaurante de sushi, Abre a las 10a.m.,Temixco
Fonda El BON'ETE,,None Found,+52 777 494 2375,"Av Miguel Hidalgo y Costilla, Pueblo Viejo, 62588 Temixco, Mor., M√©xico",Restaurante, Abre a las 9a.m.,Temixco
Par√≠s pizza,,None Found,+52 777 383 1228,"Temixco, 62580 Mexico, Mor., M√©xico",Pizzer√≠a, Abre a la 1p.m.,Temixco
La Barbacha,,None Found,,"Ignacio Allende 33, Lomas del Carril, 62520 Temixco, Mor., M√©xico",Restaurante, Cierra a las 12a.m.,Temixco
Taquer√≠a Nueva Morelos.,,None Found,,"Av Gral Marcelino Garc√≠a Barragan 410-Local B, Azteca, 62588 Temixco, Mor., M√©xico",Taquer√≠a, Abre a la 1p.m.,Temixco
La Fontana Pizza Para√≠so,lafontanapizzamx.com,None Found,+52 777 325 1635,"Libramiento al D.I.E.Z. 656 Local 1 Plaza Para√≠so, Miguel Hidalgo, 62585 Temixco, Mor., M√©xico",Pizzer√≠a, Abre a las 10a.m.,Temixco
LOS PINITOS,,None Found,,"Av Gral Marcelino Garc√≠a Barragan 285, Azteca, 62588 Temixco, Mor., M√©xico",Restaurante, Abre a las 10a.m. del lun,Temixco
Rosticeria Laura,,None Found,+52 777 710 5943,"Calz de Guadalupe 65, Lomas del Carril, 62583 Temixco, Mor., M√©xico",Restaurante especializado en pollo, Abre a las 10a.m.,Temixco
Helados Frody - Cuernavaca Temixco,frody.com.mx,None Found,+52 55 2615 8840,"Calle Emiliano Zapata Manzana y 3 Lote 2-Local 3, Los Arcos, 62580 Temixco, Mor., M√©xico",Helader√≠a, Abre a las 12p.m.,Temixco
Chino's Burguer,,None Found,+52 777 294 9503,"62588, Av Gral Marcelino Garc√≠a Barragan 352, Azteca, Temixco, Mor., M√©xico",Hamburgueser√≠a, Abre a las 5p.m.,Temixco
Tamales Oaxaque√±os De Castro,,None Found,,"Brisas Florida 18, Brisas, 62584 Temixco, Mor., M√©xico",Tienda de tamales, Cierra a las 9:45p.m.,Temixco
Fonda Lety,,None Found,,"Calle 17 de Abril 23, Azteca, 62588 Temixco, Mor., M√©xico",Restaurante especializado en soul food, Abre a las 9a.m.,Temixco
Fonda Flor Mar√≠a,,None Found,,"Av Gral Marcelino Garc√≠a Barragan 224, Azteca, 62588 Temixco, Mor., M√©xico",Restaurante familiar, Abre a las 8a.m.,Temixco
Taquer√≠a El Circo Temixco,taqueriaelcirco.com,None Found,+52 777 853 5604,"Blvd. Apatlaco 17, Campo Del Rayo, 62590 Temixco, Mor., M√©xico",Taquer√≠a, Abre a las 2p.m.,Temixco
Taqueria Ram√≠rez,,None Found,+52 777 367 4708,"Adolfo L√≥pez Mateos#13, Adolfo L√≥pez Mateos #6258, Alta Palmira, 62583 Temixco, Mor., M√©xico",Taquer√≠a, Abre a las 6p.m.,Temixco
Almorzadero Succ. Temixco,menuhello.com,None Found,+52 777 203 4268,"Emiliano Zapata - Cuernavaca 9, Miguel Hidalgo, 62585 Temixco, Mor., M√©xico",Restaurante, Abre a las 8a.m.,Temixco
Antojitos Yuyo,,None Found,,"Av Gral Marcelino Garc√≠a Barragan 372-Local 2, Morelos, 62588 Temixco, Mor., M√©xico",Restaurante mexicano, Abre a las 8a.m. del lun,Temixco
Sushi&More,,None Found,+52 777 325 0135,"Blvd Apatlaco 145, Plaza Solaz, Temixco C.P. 62586, 62585 Temixco, Mor., M√©xico",Restaurante de sushi, Abre a la 1p.m.,Temixco
"Antojitos Mexicanos ""Las abuelas""",,None Found,+52 777 683 6561,"Nicol√°s Bravo 56Acatlipa, Centro62586 Temixco, Mor., M√©xico",, Abre a las 9a.m.,Temixco
Chicken Krunch Temixco,,None Found,+52 777 213 2273,"Adolfo L√≥pez Mateos 3, Centro, 62580 Temixco, Mor., M√©xico",Restaurante, Abre a las 11a.m.,Temixco
Domino's Temixco,dominosmx.app.link,Cadena de comida a domicilio o para llevar con gran variedad de pizzas y otros platos y acompa√±amientos.,+52 777 325 4727,"Calle Emiliano Zapata 2, Centro, 62580 Temixco, Mor., M√©xico",Pizzer√≠a, Abre a las 11a.m.,Temixco
Hong Hua Comida China,,None Found,+52 777 533 1165,"Plaza Santa Rosa, Carretera Federal M√©xico - Cuernavaca Km. 88.5-Local 9, Centro, 62580 Temixco, Mor., M√©xico",Restaurante de cocina mandarina, Abre a las 9a.m.,Temixco
Busher Cocdril's Temixco Centro,bushercocdrils.com,None Found,,"Av. Emiliano Zapata 9, Centro, 62580 Temixco, Mor., M√©xico",Restaurante, Abre a la 1p.m.,Temixco
Fidencio Restaurante,,None Found,+52 777 559 0537,"Plaza solaz, Blvd. Apatlaco 145, 62590 Temixco, Mor., M√©xico",Restaurante, Abre a las 8:30a.m.,Temixco
COCINA Y ANTOJITOS BETTY,,None Found,+52 777 767 5432,"62300, Temixco, Mor., M√©xico",Restaurante,,Temixco
Lomas Burger,,None Found,+52 777 445 2463,"Rosas 73, Lomas del Carril, 62583 Temixco, Mor., M√©xico",Hamburgueser√≠a, Abre a las 6p.m.,Temixco
Carne & Pisto Boutique de Carnes y Parrilla,carneypisto.com,None Found,+52 777 113 2431,"Av. DIEZ esquina, 5 de Mayo, Miguel Hidalgo, 62585 Temixco, Mor., M√©xico",Carnicer√≠a, Abre a las 10a.m.,Temixco
Snack&Bar La China,,None Found,,"Av.17 de abril Colonia Morelos. Temixco, 62588 Cuernavaca, Mor., M√©xico",Bar restaurante, Abre a las 12p.m.,Temixco
Little Caesars Pizza,,None Found,,"Calle Emiliano Zapata 2, Centro, 62580 Temixco, Mor., M√©xico",Pizzer√≠a, Abre a las 9:30a.m.,Temixco
Carnitas Pitzo,,None Found,+52 777 235 4456,"Vicente Guerrero 4, Pueblo Viejo, 62588 Temixco, Mor., M√©xico",Restaurante mexicano, Abre a las 9a.m.,Temixco
Antojer√≠a/Antojitos Adela,,None Found,+52 777 293 8270,"El Mirador 985, Azteca, 62588 Temixco, Mor., M√©xico",Restaurante mexicano,,Temixco
Barbacoa,,None Found,,"Juan Jos√© Mart√≠nez 2, Pueblo Viejo, 62588 Temixco, Mor., M√©xico",Restaurante especializado en barbacoa, Abre a las 8a.m.,Temixco
Pozole Y Antojitos Lucy,,None Found,,"San Angel 50, Azteca, 62588 Temixco, Mor., M√©xico",, Abre a las 10a.m. del s√°b,Temixco
Hacienda Temixco,temixco.com.mx,None Found,+52 777 325 0355,"62580, 62582 Temixco, Mor., M√©xico",Hacienda tur√≠stica,,Temixco
"Taquer√≠a ""El Coquis""",,None Found,,"Girasoles 53, Lomas del Carril, 62583 Temixco, Mor., M√©xico",Taquer√≠a, Abre a las 9:30a.m.,Temixco
"Barbacoa ""LA HACIENDA"" Suc. Temixco",facebook.com,None Found,+52 722 131 8996,"62507, Centro, 62507 Temixco, Mor., M√©xico",Restaurante especializado en barbacoa, Abre a las 8a.m.,Temixco
Antojitos la poblana,,None Found,,"62583, C. Para√≠so Escondido 1, Lomas del Carril, Temixco, Mor., M√©xico",Restaurante mexicano, Abre a las 9a.m. del lun,Temixco
Cocina Economica Beny,,None Found,,"Av Gral Marcelino Garc√≠a Barragan 234, Azteca, 62588 Temixco, Mor., M√©xico",Restaurante,,Temixco
Rancho el Mezcal Morelos,facebook.com,None Found,+52 777 377 6148,"Ignacio Allende 49, Acatlipa Centro, 62586 Temixco, Mor., M√©xico",Bar, Abre a las 12p.m.,Temixco
Carnitas Kima,,None Found,,"C. Reforma, Lomas de Guadalupe, 62583 Temixco, Mor., M√©xico",Restaurante mexicano, Abre a las 8:30a.m.,Temixco
Pizzas Maxi,,None Found,+52 777 787 3863,"Calz de Guadalupe 219, Lomas del Carril, 62583 Temixco, Mor., M√©xico",Pizzer√≠a, Abre a las 2p.m.,Temixco
Gorditas y Pozoleria Estelita,,None Found,+52 777 135 2918,"C. Amapolas 19, Lomas del Carril, 62583 Temixco, Mor., M√©xico",Restaurante, Abre a las 6p.m. del lun,Temixco
Carnitas Tuy√≠n,,None Found,,"Calz de Guadalupe 36, Lomas del Carril, 62583 Temixco, Mor., M√©xico",Restaurante mexicano, Abre a las 8a.m. del lun,Temixco
Cecina de Yecapixtla,,None Found,+52 777 183 1884,"Mexico-Acapulco 13-25, Alta Palmira, 62583 Temixco, Mor., M√©xico",Taquer√≠a, Abre a las 8a.m.,Temixco
El Campestre Restaurante Bar,,None Found,+52 777 449 4759,"Libramiento a Aeropuerto Tepetzingo 223 Chiconcuac, 62790 Tezoyuca, Mor., M√©xico",Restaurante, Abre a las 9a.m.,Temixco
Comida China HONG KONG Temixco,,None Found,+52 777 254 2794,"Centro, 62580 Temixco, Mor., M√©xico",Restaurante chino, Abre a las 12a.m. del lun,Temixco
El rincon de la torta gigante,,None Found,+52 777 283 6119,"Av Gral Marcelino Garc√≠a Barragan 15, Morelos, 62588 Temixco, Mor., M√©xico",Restaurante, Abre a las 9a.m.,Temixco
La Fontana Pizza Solaz,lafontanapizzamx.com,None Found,+52 777 246 1862,"Col, Blvd. Apatlaco 145 Local 9 P.B, Acatlipa Centro, 62583 Temixco, Mor., M√©xico",Pizzer√≠a, Abre a las 11a.m.,Temixco
Pizzas En Temixco,,None Found,+52 777 161 6678,"Girasoles 10, Las Rosas, 62586 Temixco, Mor., M√©xico",Pizzer√≠a, Abre a las 12:30p.m.,Temixco
Pozole Para Llevar Violeta,,None Found,+52 777 141 9583,"Ejido 7, Centro, 62580 Temixco, Mor., M√©xico",,,Temixco
Doraditas pizza sabor de casa,,None Found,+52 777 787 4888,"Av Gral Marcelino Garc√≠a Barragan S/N, Azteca, 62588 Temixco, Mor., M√©xico",Pizzer√≠a,,Temixco
CARNITAS LAS DELICIAS DE CAMACHO,,None Found,+52 777 179 4967,"AV M, GARC√çA BARRAGAN COLONIA AZTECA TEMIXCO, 62588 Cuernavaca, Mor., M√©xico",Restaurante, Abre a las 8:30a.m.,Temixco
Restaurante El Zacatecano,,None Found,+52 777 325 5388,"Federal Mexico Acapulco 5A, Lazaro Cardenas, 62076 Cuernavaca, Mor., M√©xico",Restaurante mexicano, Cierra a las 5p.m.,Temixco
Tamales D Castro Temixco,,None Found,,"Blvd. Apatlaco, 62586 Mor., M√©xico",Restaurante, Cierra a la 1p.m.,Temixco
Ricos Tortas,,None Found,,"Brisas de Temixco, Brisas, 62584 Temixco, Mor., M√©xico",, Abre a las 11a.m.,Temixco
