Names,Website,Introduction,Phone Number,Address,Type,Opens At,Municipio
Restaurante La Ola,es-la.facebook.com,None Found,+52 311 133 0891,"Av del Valle 161, Cd del Valle, 63157 Tepic, Nay., M√©xico",Marisquer√≠a, Cierra a las 12a.m.,Tepic
Maya Bay Restaurant,mayabay.mx,"Restaurante alegre abierto todo el d√≠a con desayuno, platos internacionales y cerveza artesanal en un espacio ecl√©ctico.",+52 311 688 1211,"Calle mina s/n antes de salir a insurgentes, a un costado de la alameda, Centro, 63000 Tepic, Nay., M√©xico",Restaurante, Cierra a las 12a.m.,Tepic
Emiliano Comida y vino,emilianorestaurant.com,Platos tradicionales nayaritas y mexicanos que celebran la producci√≥n local en un entorno de estilo antiguo.,+52 311 216 2010,"Emiliano Zapata Ote. 91, Centro, 63000 Tepic, Nay., M√©xico",Restaurante de desayunos, Cierra a las 11p.m.,Tepic
Pizza a la le√±a en Tepic - Mi Lola,,"Cortes de carne, pizzas y recetas argentinas en un espacio ecl√©ctico con terraza llena de antig√ºedades.",+52 311 210 1010,"Av. Universidad 121, Cd del Valle, 63157 Tepic, Nay., M√©xico",Pizzer√≠a, Cierra a las 12a.m.,Tepic
Las pampas Grill,m.facebook.com,None Found,+52 311 216 9656,"De Los Insurgentes Pte. 734, El Rodeo, 63060 Tepic, Nay., M√©xico",Restaurante argentino, Cierra a las 11p.m.,Tepic
‚úÖLa Gloria Bar & Grill- Restaurante en Tepic,laglorabargrill.com,None Found,+52 311 315 6377,"Av. M√©xico Nte. 212-altos, Centro, 63000 Tepic, Nay., M√©xico",Bar restaurante, Cierra a la 1a.m.,Tepic
Marlin de Tepic,facebook.com,Restaurante sencillo que ofrece platos tradicionales de mariscos en un comedor discreto con bar.,+52 311 214 6050,"Del Pante√≥n 45, Centro, 63000 Tepic, Nay., M√©xico",Marisquer√≠a, Abre a las 10a.m. del dom,Tepic
Huasteca Tepic,facebook.com,None Found,+52 311 124 9229,"Calle Av. Iturbide 340, Cd del Valle, 63180 Tepic, Nay., M√©xico",Restaurante, Cierra a las 12a.m.,Tepic
La Trattoria,,None Found,+52 311 213 3494,"Av Jacarandas 322-A, Versalles Sur, 63138 Tepic, Nay., M√©xico",Restaurante italiano,,Tepic
Restaurant Roberto's,robertosrestaurant.com.mx,None Found,+52 311 213 3005,"Av. Paseo de la Loma 457, Centro, 63000 Tepic, Nay., M√©xico",Restaurante, Cierra a las 11:30p.m.,Tepic
Restaurante El diamante,,None Found,+52 311 211 5242,"Libramiento km 239 Colonia, Puente de San Cayetano, 63194 Tepic, Nay., M√©xico",Marisquer√≠a, Abre a las 11a.m. del dom,Tepic
Restaurante Argentino El Quincho,,None Found,+52 311 210 8283,"Calle Av Preparatoria 33, Cd del Valle, 63157 Tepic, Nay., M√©xico",Restaurante argentino, Cierra a las 12a.m.,Tepic
Restaurante Real de Don Juan,,None Found,+52 311 212 1377,"Ju√°rez 30, Centro, 63000 Tepic, Nay., M√©xico",Restaurante, Cierra a las 11p.m.,Tepic
Loma 42 Tepic,loma42.com,None Found,+52 311 133 6026,"Av. Paseo de la Loma 239, Centro, 63000 Tepic, Nay., M√©xico",Restaurante,,Tepic
Dos De Asada,facebook.com,None Found,+52 311 133 5889,"G√©nova 47, Cd del Valle, 63157 Tepic, Nay., M√©xico",Taquer√≠a, Cierra a las 11:50p.m.,Tepic
ùëπùíÜùíîùíïùíÇùíñùíìùíÇùíèùíïùíÜ ùë¨ùíç ùë¨ùíîùíïùíÜùíìùíê,m.facebook.com,None Found,+52 311 181 2002,"C. R√≠o Suchiate 701, Caminera, 63196 Tepic, Nay., M√©xico",Marisquer√≠a, Abre a las 12p.m. del dom,Tepic
Restaurante Capistrano,hotelesfray.com,None Found,+52 311 215 4671,"Calle Lerdo 15a, Centro, 63000 Tepic, Nay., M√©xico",Restaurante, 10:30p.m. ,Tepic
El Chapalilla Restaurante Mexicao - En Tepic Nayarit,facebook.com,"Restaurante tradicional de bocadillos, platos principales y postres t√≠picos con ambiente informal al aire libre.",+52 311 243 2805,"Portugal 59, Cd del Valle, 63157 Tepic, Nay., M√©xico",Restaurante mexicano, Abre a las 7a.m. del dom,Tepic
Restaurant La Ganadera,,None Found,+52 311 160 3236,"Blvrd Luis Donaldo Colosio 552, Ageuan los Limones, 63175 Tepic, Nay., M√©xico",Marisquer√≠a, Abre a las 12:30p.m. del dom,Tepic
Las Brasas,,None Found,+52 311 160 5579,"63130, Av Jacarandas 525, Versalles, Tepic, Nay., M√©xico",Restaurante, 10p.m. ,Tepic
Restaurante bar Las palmitas,,None Found,+52 311 160 1246,"Av M√©xico Nte 326, Centro, 63000 Tepic, Nay., M√©xico",Bar restaurante de ostras, Cierra a las 11p.m.,Tepic
La estancia horno parrilla y cava,facebook.com,None Found,+52 311 181 4723,"Emiliano Zapata 134, Puente de San Cayetano, 63194 Tepic, Nay., M√©xico",Parrilla, Cierra a las 12a.m.,Tepic
Condesa Tepic,,None Found,+52 311 147 3242,"Arq. Antonio Rivas Mercado Ote. 68, Centro, 63000 Tepic, Nay., M√©xico",Restaurante, 10p.m. ,Tepic
Mitos Tepic,,None Found,+52 311 397 6666,"Blvrd Luis Donaldo Colosio 148, Centro, 63000 Tepic, Nay., M√©xico",Restaurante, Cierra a las 3a.m.,Tepic
Almac√©n M√©xico,facebook.com,None Found,+52 311 133 6538,"La Pe√±ita, Blvd. Tepic-Xalisco 136, Pe√±ita, 63167 Tepic, Nay., M√©xico",Restaurante, Cierra a la 1:30a.m.,Tepic
Restaurant Dutch's,,Amplio men√∫ que incluye desde pizzas hasta arracheras y alitas en un restaurante casual con acogedor patio.,+52 311 213 7272,"Javier Mina 285, Centro, 63000 Tepic, Nay., M√©xico",Restaurante, 10p.m. ,Tepic
Restaurante El Verde,,None Found,+52 311 456 1466,"Av. M√©xico Nte. 39, Centro, 63000 Tepic, Nay., M√©xico",Restaurante mexicano, Abre a las 7:30a.m. del dom,Tepic
Restaurant 57,,None Found,+52 311 181 0949,"Florencia 12, Cd del Valle, 63157 Tepic, Nay., M√©xico",Restaurante familiar, Cierra a las 11p.m.,Tepic
Moira Restaurante todo incluido,,None Found,+52 311 890 8082,"Javier Mina 371-371Centro, Centro, 63000 Tepic, Nay., M√©xico",Restaurante, Cierra a las 11p.m.,Tepic
Caf√© del Chef Restaurante,cafedelcheftepic.com,None Found,+52 311 210 8080,"Av. Universidad 2-Int. 6, Cd del Valle, 63157 Tepic, Nay., M√©xico",Restaurante, 10p.m. ,Tepic
Matsuri Koi Restaurant,,None Found,+52 311 210 5959,"Xalisco-Tepic 77-B, Caja de Agua, 63000 Tepic, Nay., M√©xico",Restaurante japon√©s, Cierra a las 11p.m.,Tepic
La Ola Cervecer√≠a,facebook.com,None Found,+52 311 169 3323,"De Los Insurgentes Pte. 233, Versalles, 63000 Tepic, Nay., M√©xico",Marisquer√≠a, Cierra a las 2a.m.,Tepic
Pepe Yus,facebook.com,None Found,+52 311 212 5138,"Calle San Luis Nte 294, Centro, 63000 Tepic, Nay., M√©xico",Restaurante, 10p.m. ,Tepic
Los Barandales,hotelvillalasrosas.com,None Found,+52 311 213 1800,"De Los Insurgentes Pte. 100, Centro, 63000 Tepic, Nay., M√©xico",Restaurante, 10:30p.m. ,Tepic
Restaurante German,,None Found,+52 311 214 4424,"Av Jacarandas 186b, San Juan, 63130 Tepic, Nay., M√©xico",Restaurante mexicano, Cierra a las 11p.m.,Tepic
Tango y Milonga,,None Found,+52 311 456 9207,"C. Country Club 12, Versalles, 63139 Tepic, Nay., M√©xico",Restaurante familiar, Cierra a las 11p.m.,Tepic
La Casa Del Valle,lacasadelvalletepic.com,"Restaurante tranquilo en el que se sirven platos internacionales, desayunos y pasteles.",+52 311 378 0399,"Atenas 31, Cd del Valle, 63157 Tepic, Nay., M√©xico",Restaurante, Abre a las 7:30a.m. del dom,Tepic
El arguende,elarguende.com.mx,None Found,+52 311 162 5710,"Av. Lagos del Country 35, Lagos del Country, 63175 Tepic, Nay., M√©xico",Restaurante, Abre a las 7:30a.m. del dom,Tepic
LAS CORONA,facebook.com,None Found,+52 311 180 8144,"Javier Mina 389, Versalles, 63000 Tepic, Nay., M√©xico",Restaurante, Cierra a las 2a.m.,Tepic
Si Nos Dejan - Cocina & Trago,,None Found,+52 311 392 0064,"Sebasti√°n Lerdo de Tejada Ote. 96, Centro, 63000 Tepic, Nay., M√©xico",Restaurante, Cierra a la 1a.m.,Tepic
Mam√° Lupita,facebook.com,"Lugar extravagante con decoraci√≥n colorida sirve comida internacional, hamburguesas, tacos y cocteles.",+52 311 162 2562,"R√≠o Ingenio 98, Electricistas, 63160 Tepic, Nay., M√©xico",Restaurante, Abre a las 8a.m. del dom,Tepic
Restaurant Puerto Nuevo... A veces Armando,,None Found,+52 311 133 2050,"Calle Revoluci√≥n Soc 218, Menchaca, 63150 Tepic, Nay., M√©xico",Marisquer√≠a, Abre a las 10a.m. del dom,Tepic
Restaurante INsurgente,insurgenterestaurante.com,None Found,+52 311 141 4509,"De Los Insurgentes Pte. 278 Altos, Estadios, 63109 Tepic, Nay., M√©xico",Restaurante, 10p.m. ,Tepic
Restaurante Chile Verde Tepic,,None Found,+52 311 213 2080,"Av. Paseo de la Loma 199, Fray Jun√≠pero Serra, 63169 Tepic, Nay., M√©xico",Restaurante, Abre a las 7:30a.m. del dom,Tepic
Restaurante vegetariano Quetzalcoatl sucursal centro,,None Found,+52 311 212 9966,"Le√≥n Nte. 224, Centro, 63000 Tepic, Nay., M√©xico",Restaurante vegetariano, Abre a las 8:15a.m. del dom,Tepic
El Farall√≥n Del Pac√≠fico,elfarallondelpacifico.com,None Found,+52 311 213 1124,"De Los Insurgentes Pte. 282, Centro, 63000 Tepic, Nay., M√©xico",Restaurante, Abre a las 11a.m. del dom,Tepic
La More Restaurant,,None Found,+52 311 173 0812,"Calle Revoluci√≥n Soc 263, Menchaca, 63150 Tepic, Nay., M√©xico",Restaurante, Abre a las 12p.m. del dom,Tepic
Los Golovanes,facebok.com,None Found,+52 311 177 1201,"63196, Vicente Su√°rez 44, Caminera, 63196 Tepic, Nay., M√©xico",Restaurante, Abre a las 7:30a.m. del dom,Tepic
Restaurant La Terraza,,None Found,+52 311 213 2180,"De Los Insurgentes Pte. 166, Centro, 63000 Tepic, Nay., M√©xico",Restaurante, Abre a las 8:10a.m. del dom,Tepic
Restaurante La U,,None Found,+52 311 170 4436,"Av Jacarandas 286-A, Versalles Sur, 63130 Tepic, Nay., M√©xico",Restaurante, Abre a la 1p.m. del dom,Tepic
Restaurante Cucinela,facebook.com,None Found,+52 311 909 6625,"C. Quer√©taro 382, Centro, 63000 Tepic, Nay., M√©xico",Restaurante mexicano, Abre a las 8a.m. del dom,Tepic
Furtivo - Restaurante en Tepic,facebook.com,None Found,+52 311 265 4084,"Av. de la Cultura 69, Cd del Valle, 63157 Tepic, Nay., M√©xico",Restaurante, Abre a las 8a.m. del dom,Tepic
Restaurante La Noria Centro,facebook.com,None Found,+52 311 169 4080,"Calle Veracruz Nte 331, Centro, 63000 Tepic, Nay., M√©xico",Marisquer√≠a, Abre a las 9a.m. del dom,Tepic
Restaurant La sopa,vehiculos.mercadolibre.com.mx,C√°lida cafeter√≠a con patio y ambiente familiar en donde se sirven desayunos y antojitos mexicanos cl√°sicos.,+52 311 214 7983,"Av Insurgentes 165, Centro, 63000 Tepic, Nay., M√©xico",Restaurante, Abre a las 7a.m. del dom,Tepic
Restaurante Mam√° Rosa,,None Found,+52 13112138885,"De Los Insurgentes Pte. 225, Centro, 63000 Tepic, Nay., M√©xico",Buffet libre, Abre a las 7:30a.m. del dom,Tepic
Las Banderillas,,None Found,+52 311 213 2503,"63000, De Los Insurgentes Pte. 194, Centro, 63000 Tepic, Nay., M√©xico",Restaurante, Abre a la 1p.m. del dom,Tepic
EL NAVEGANTE,m.facebook.com,None Found,+52 311 688 3881,"C. 5 79, El Rodeo, 63060 Tepic, Nay., M√©xico",Marisquer√≠a, Abre a las 12p.m. del dom,Tepic
Estaci√≥n Sushi Tepic (Cd. Del Valle),estacionsushi.com,None Found,+52 311 160 3752,"Av. Universidad 107, Cd del Valle, 63157 Tepic, Nay., M√©xico",Restaurante de sushi, Cierra a las 11p.m.,Tepic
LA ESQUINA DEL AGUACHILE,facebook.com,None Found,+52 311 275 7784,"Emilio M. Gonz√°lez 18, lomas de la cruz, R√≠o, Tepic, Nay., M√©xico",Marisquer√≠a, Abre a las 11:30a.m. del dom,Tepic
Casa Coyoac√°n Restaurante,facebook.com,None Found,+52 311 169 8414,"C. Brasil 261, Moctezuma, 63180 Tepic, Nay., M√©xico",Restaurante mexicano, Abre a las 7:30a.m. del dom,Tepic
Casa Coyoac√°n Restaurante,facebook.com,None Found,+52 311 169 8414,"C. Brasil 261, Moctezuma, 63180 Tepic, Nay., M√©xico",Restaurante mexicano, Abre a las 7:30a.m. del dom,Tepic
Asadero El Novillo Original,m.facebook.com,None Found,+52 311 267 6906,"C. I 56, 15 de Mayo, 63190 Tepic, Nay., M√©xico",Restaurante mexicano, Cierra a las 11p.m.,Tepic
Restaurante Brule,,None Found,+52 311 213 7904,"Valpara√≠so 40, Cd del Valle, 63530 Tepic, Nay., M√©xico",Restaurante, 10p.m. ,Tepic
El Tentempi√©,eltentempie.net,None Found,+52 311 281 2760,"A. Juan Escutia 200 esq. con, Sebasti√°n Lerdo de Tejada Pte., Centro, 63000 Tepic, Nay., M√©xico",Restaurante, Cierra a las 12a.m.,Tepic
La fragata,facebook.com,None Found,+52 311 214 0156,"Narciso Mendoza 13, Gardenias, Insurgentes, 63185 Tepic, Nay., M√©xico",Bar restaurante, Abre a las 12p.m. del dom,Tepic
Cielito rico Restaurante Mexicano en Tepic,facebook.com,None Found,+52 311 181 5584,"Av. Revoluci√≥n 197, El Tecolote, 63135 Tepic, Nay., M√©xico",Restaurante mexicano, Abre a las 8a.m. del dom,Tepic
La Madalena LM,,None Found,+52 311 181 1985,"Av Jacarandas 63, San Juan, 63130 Tepic, Nay., M√©xico",Restaurante, Abre a las 8a.m. del dom,Tepic
Zoo Asador,facebook.com,None Found,+52 311 216 1451,"Ju√°rez 262 B, Centro, 63000 Tepic, Nay., M√©xico",Parrilla, Abre a las 9a.m. del dom,Tepic
La isla,,None Found,+52 311 224 3651,"Av Prisciliano Sanchez 266, Centro, 63000 Tepic, Nay., M√©xico",Restaurante, Abre a las 12p.m. del dom,Tepic
La isla,,None Found,+52 311 224 3651,"Av Prisciliano Sanchez 266, Centro, 63000 Tepic, Nay., M√©xico",Restaurante, Abre a las 12p.m. del dom,Tepic
Restaurante campestre La fortuna,facebook.com,None Found,+52 311 180 2633,"carretera libre a mazatlan km 6 63517, Lo de Lamedo, 63505 Tepic, Nay., M√©xico",Bar restaurante,,Tepic
Restaurante Jard√≠n Los Tulipanes,hoteltepic.com.mx,None Found,+52 311 260 0489,"Rep√∫blica de Chile #44, Menchaca, 63150 Tepic, Nay., M√©xico",Restaurante de brunch, Abre a las 7a.m. del dom,Tepic
Restaurante Jard√≠n Los Tulipanes,hoteltepic.com.mx,None Found,+52 311 260 0489,"Rep√∫blica de Chile #44, Menchaca, 63150 Tepic, Nay., M√©xico",Restaurante de brunch, Abre a las 7a.m. del dom,Tepic
Mi Eskuinapa,,None Found,+52 311 163 8672,"63000, Sebasti√°n Lerdo de Tejada Pte. 210, Centro, Tepic, Nay., M√©xico",Marisquer√≠a, Abre a las 9a.m. del dom,Tepic
Restaurant El Compa Beto,,None Found,+52 311 212 7100,"Ignacio Zaragoza Ote. 40, Centro, 63000 Tepic, Nay., M√©xico",Marisquer√≠a, Abre a las 9a.m. del dom,Tepic
Pedro el Pescador,,None Found,+52 311 212 2065,"Calle Veracruz Nte 309, Centro, 63000 Tepic, Nay., M√©xico",Restaurante, Abre a las 9a.m. del dom,Tepic
El Naranjito,,None Found,+52 311 213 5266,"C. Fernando Espinoza 118, Castilla, 63196 Tepic, Nay., M√©xico",Restaurante, Abre a las 7a.m. del dom,Tepic
Varadero Restaurant Bar,,None Found,+52 311 124 9080,"Calle Av. Iturbide 442, Menchaca, 63150 Tepic, Nay., M√©xico",Marisquer√≠a, Abre a las 12:30p.m. del dom,Tepic
Rinc√≥n de Mar√≠a,facebook.com,None Found,+52 311 160 7460,"Av Jacarandas 47, Versalles, 63139 Tepic, Nay., M√©xico",Restaurante, Abre a las 8a.m. del dom,Tepic
El Jalisciense,,None Found,+52 311 211 5558,"3 de Mayo 22416, Nuevas Palomas, 63194 Tepic, Nay., M√©xico",Restaurante, Abre a las 6a.m. del dom,Tepic
RESTAURANTE LA MARUKA,facebook.com,None Found,+52 311 119 9798,"San Blas-Tepic km 1, Guadalupe, 63114 Tepic, Nay., M√©xico",Restaurante, Abre a las 7:30a.m. del dom,Tepic
Gorditas Amordidas,negocio.site,None Found,+52 311 740 3262,"Av Jacarandas 39, Versalles, 63160 Tepic, Nay., M√©xico",Restaurante mexicano, 10p.m. ,Tepic
"Mariscos ""Don Juan""",mariscosdonjuan.com,"Local colorido donde se sirven platos mexicanos cl√°sicos, como tacos de desayuno, enchiladas y carne asada.",+52 311 160 5678,"Javier Mina 330, Centro, 63000 Tepic, Nay., M√©xico",Marisquer√≠a, Abre a las 11a.m. del dom,Tepic
Restaurante Se√∫l,facebook.com,None Found,+52 311 132 3257,"Calle Av. Iturbide 343, Menchaca, 63150 Tepic, Nay., M√©xico",Restaurante coreano, Abre a la 1p.m. del dom,Tepic
Restaurante Se√∫l,facebook.com,None Found,+52 311 132 3257,"Calle Av. Iturbide 343, Menchaca, 63150 Tepic, Nay., M√©xico",Restaurante coreano, Abre a la 1p.m. del dom,Tepic
Olivos fusi√≥n Restaurant,,None Found,+52 311 210 1210,"San Luis Sur 76, Centro, 63000 Tepic, Nay., M√©xico",Restaurante de desayunos, Abre a las 7:30a.m. del dom,Tepic
Querido Capit√°n,fb.me,None Found,+52 311 100 0336,"Av. Lagos del Country 161, Lagos del Country, 63175 Tepic, Nay., M√©xico",Marisquer√≠a, Abre a las 12p.m. del dom,Tepic
Querido Capit√°n,fb.me,None Found,+52 311 100 0336,"Av. Lagos del Country 161, Lagos del Country, 63175 Tepic, Nay., M√©xico",Marisquer√≠a, Abre a las 12p.m. del dom,Tepic
El Asadero,,None Found,+52 311 746 5691,"Av Del Ej√©rcito 254, Fray Jun√≠pero Serra, 63169 Tepic, Nay., M√©xico",Restaurante especializado en filetes, 10p.m. ,Tepic
La Morenita,facebook.com,None Found,+52 311 688 4420,"Libertad 220, Heriberto Casas, 63080 Tepic, Nay., M√©xico",Restaurante, Abre a las 7:30a.m. del dom,Tepic
Yuri‚Äôik√∫,,None Found,+52 311 220 8903,"C. Zapata Pte. 66, Centro, 63000 Tepic, Nay., M√©xico",Restaurante, Abre a las 8:30a.m. del lun,Tepic
Antojitos Mexicanos Nony,,None Found,+52 311 213 2145,"Eulogio Parra 223, San Antonio, 63159 Tepic, Nay., M√©xico",Restaurante mexicano, Abre a la 1p.m. del dom,Tepic
Restaurant Itu borrego,,None Found,+52 311 107 6547,"Libramiento Tepic Mazatlan2793, Nueva Alemania, 63190 Tepic, Nay., M√©xico",Restaurante,,Tepic
D' Garibaldi,,None Found,+52 311 106 2930,"De Los Insurgentes Pte. 87-A, Centro, 63000 Tepic, Nay., M√©xico",Restaurante, Cierra a las 11p.m.,Tepic
Casa Mangle,facebook.com,"Cafeter√≠a elegante y restaurante hotelero con comida de fusi√≥n francomexicana y postres, con patio.",+52 311 284 6378,"Prisciliano Sanchez 267, Menchaca, 63150 Tepic, Nay., M√©xico",Centro de acogida,,Tepic
Dos de Asada - Jacarandas,,None Found,+52 311 170 8519,"Av Jacarandas 314, Versalles Sur, 63135 Tepic, Nay., M√©xico",Taquer√≠a, Cierra a las 11p.m.,Tepic
Dos de Asada - Jacarandas,,None Found,+52 311 170 8519,"Av Jacarandas 314, Versalles Sur, 63135 Tepic, Nay., M√©xico",Taquer√≠a, Cierra a las 11p.m.,Tepic
Restaurante Vegetariano Girasol,facebook.com,None Found,+52 311 214 3959,"Av Jacarandas 172, San Juan, 63130 Tepic, Nay., M√©xico",Buffet libre, Abre a las 8:30a.m. del dom,Tepic
El Punto Caf√© & Cocina,,None Found,+52 311 160 1111,"Av. Universidad 137, Cd del Valle, 63157 Tepic, Nay., M√©xico",Cafeter√≠a, 10p.m. ,Tepic
Restaurant Tirayan,,None Found,+52 311 216 3023,"C. Zaragoza Pte. 20, Centro, 63000 Tepic, Nay., M√©xico",Restaurante mexicano, Abre a las 7a.m. del dom,Tepic
Tower Caf√©,,None Found,+52 311 217 3000,"C. Zapata Pte. 16, Centro, 63700 Tepic, Nay., M√©xico",Cafeter√≠a, Cierra a las 11p.m.,Tepic
Restaurante Los borrados,facebook.com,None Found,+52 311 171 3533,"Cerro de San Juan 12, Lindavista, 63110 Tepic, Nay., M√©xico",Restaurante de desayunos, Abre a las 8a.m. del dom,Tepic
Restaurant y Menuderia Chayito,,None Found,+52 311 210 5969,"Javier Mina 22, Centro, 63000 Tepic, Nay., M√©xico",Restaurante mexicano, Abre a las 7a.m. del dom,Tepic
Mariscos Deivy's,,None Found,+52 311 202 6378,"C. Zaragoza Pte. 713, Heriberto Casas, 63080 Tepic, Nay., M√©xico",Marisquer√≠a, Abre a las 11a.m. del dom,Tepic
Fukai sushi en Tepic,,Luminoso comedor con grandes ventanales y vista a un jard√≠n que sirve comida japonesa con toque mexicano.,+52 311 213 1918,"Del Parque 92, Cd del Valle, 63157 Tepic, Nay., M√©xico",Restaurante de sushi, 10p.m. ,Tepic
El T√≠o,,None Found,+52 311 213 2525,"Rep√∫blica de Chile 30, Menchaca, 63000 Tepic, Nay., M√©xico",Marisquer√≠a, Abre a las 10:30a.m. del dom,Tepic
FUGU sushi & comida japonesa,fugusushi.com.mx,None Found,+52 311 181 2023,"Av Jacarandas 206, San Juan, 63130 Tepic, Nay., M√©xico",Restaurante japon√©s, Cierra a las 11p.m.,Tepic
El Toloache,,None Found,+52 311 258 1867,"Le√≥n Nte. 69A, Centro, 63000 Tepic, Nay., M√©xico",Restaurante de desayunos, Abre a las 8a.m. del dom,Tepic
‚úÖRinc√≥n Japon√©s- Sushi en Tepic,rinconjapones.com,None Found,+52 311 124 6680,"Av del Valle 147-A, Cd del Valle, 63157 Tepic, Nay., M√©xico",Restaurante de sushi, 10p.m. ,Tepic
RUB BBQ TEPIC,,None Found,+52 311 103 6742,"Av. Universidad 120, Cd del Valle, 63157 Tepic, Nay., M√©xico",Restaurante, Cierra a las 11:15p.m.,Tepic
RUB BBQ TEPIC,,None Found,+52 311 103 6742,"Av. Universidad 120, Cd del Valle, 63157 Tepic, Nay., M√©xico",Restaurante, Cierra a las 11:15p.m.,Tepic
Los zarandeaditos Tepic,facebook.com,None Found,+52 311 223 2330,"Blvrd Luis Donaldo Colosio 158, Dr S√°nchez Ibarra, 63058 Tepic, Nay., M√©xico",Restaurante, Abre a las 12p.m. del dom,Tepic
Juventus,,None Found,+52 311 216 4172,"C. Zacatecas 81, Centro, 63000 Tepic, Nay., M√©xico",Restaurante, Cierra a las 11p.m.,Tepic
Restaurante Campo Real,,None Found,+52 311 141 4440,"Av Insurgentes 1171-B Oriente, Los Llanitos, 63170 Tepic, Nay., M√©xico",Marisquer√≠a, Abre a las 8a.m. del dom,Tepic
Taquer√≠a Y Loncher√≠a Del Valle,,None Found,+52 311 234 4340,"Tur√≠n 93, Cd del Valle, 63157 Tepic, Nay., M√©xico",Restaurante, Cierra a las 12a.m.,Tepic
La Sierra,,None Found,+52 311 456 3867,"Sebasti√°n Lerdo de Tejada Ote. 14, Centro, 63000 Tepic, Nay., M√©xico",Restaurante, Abre a las 8a.m. del dom,Tepic
Comal | Desayunos,,None Found,+52 311 340 9762,"Ju√°rez 226, Centro, 63000 Tepic, Nay., M√©xico",Restaurante, Abre a las 7a.m. del dom,Tepic
Pezcallito Tepic,,None Found,+52 311 244 1122,"Av del Valle 162, Cd del Valle, 63157 Tepic, Nay., M√©xico",Marisquer√≠a, Cierra a las 12a.m.,Tepic
Restaurante La cosalteca - Cd del Valle,,None Found,+52 311 688 3344,"Av. de la Cultura #44, Cd del Valle, 63157 Tepic, Nay., M√©xico",Restaurante, 10:30p.m. ,Tepic
San Juan Terraza,,None Found,+52 311 218 6408,"Av Jacarandas 205, San Juan, 63130 Tepic, Nay., M√©xico",Restaurante mexicano, Abre a las 8a.m. del dom,Tepic
