Names,Website,Introduction,Phone Number,Address,Type,Opens At,Municipio
Restaurante Casa Luna,facebook.com,"Bello local de estilo hacienda con terraza, filete de carne, sopa de mariscos y el popular mole de pollo.",+52 33 1592 2061,"Calle Independencia 211, Centro, 45500 San Pedro Tlaquepaque, Jal., México",Restaurante mexicano, Cierra a las 12:30a.m.,Tlaquepaque
El Parián de Tlaquepaque,,"Bar con patio conocido por sus churros, carne a la parrilla tradicional y mariachis.",+52 33 1310 2614,"Calle Progreso 15, Centro, 45500 San Pedro Tlaquepaque, Jal., México",Bar restaurante, Cierra a la 1a.m.,Tlaquepaque
Real San Pedro,realsanpedro.mx,Delicias tradicionales y desayuno en un local del viejo mundo con decoración artística.,+52 33 3659 3631,"Calle Independencia 163, Centro, 45500 San Pedro Tlaquepaque, Jal., México",Restaurante, Cierra a las 11p.m.,Tlaquepaque
TlaquePasta Restaurant,quintadonjose.com,"Local informal y alegre con terraza donde se sirven pizza, pasta y otros clásicos italianos.",+52 33 3657 2483,"C. Reforma 139, Centro, 45500 San Pedro Tlaquepaque, Jal., México",Restaurante italiano, Cierra a las 10p.m.,Tlaquepaque
La Mata Tinta,lamatatinta.com,"Restobar moderno con platos locales y pasta, además de una variedad de vinos y tequila.",+52 33 3659 0207,"C. Juárez 145-interior 13, Centro, 45500 San Pedro Tlaquepaque, Jal., México",Bar restaurante, Cierra a las 11p.m.,Tlaquepaque
Barolo 71,,None Found,+52 33 2300 0470,"C. Prisciliano Sánchez 71-C, Centro, 45500 San Pedro Tlaquepaque, Jal., México",Restaurante italiano, Cierra a las 11p.m.,Tlaquepaque
El Abajeño Tlaquepaque,abajeno.com,Casona colonial con espacio para grupos y patio para probar sus platillos mexicanos clásicos al aire libre.,+52 33 3635 9015,"C. Juárez 231, Centro, 45500 San Pedro Tlaquepaque, Jal., México",Bar restaurante, Cierra a las 11p.m.,Tlaquepaque
Río San Pedro,facebook.com,None Found,+52 33 3659 6136,"C. Juárez 300, Centro, 45500 San Pedro Tlaquepaque, Jal., México",Restaurante mexicano, Cierra a las 12a.m.,Tlaquepaque
Restaurante Casa Fuerte,facebook.com,None Found,+52 33 3639 6474,"Calle Independencia 224, Centro, 45500 San Pedro Tlaquepaque, Jal., México",Restaurante, 9p.m. ,Tlaquepaque
1910 Cocina De México,facebook.com,None Found,+52 33 3140 1503,"C. Prisciliano Sánchez 4, Centro, 45500 San Pedro Tlaquepaque, Jal., México",Restaurante, Cierra a las 12a.m.,Tlaquepaque
Agave Restaurante & Bar,instagram.com,None Found,+52 33 2204 0766,"Calle Independencia 280, Centro, 45500 San Pedro Tlaquepaque, Jal., México",Restaurante, Cierra a las 10p.m.,Tlaquepaque
Bravo Cocina y Agave,,None Found,+52 33 1574 8385,"C. Morelos 206, Centro, 45500 San Pedro Tlaquepaque, Jal., México",Restaurante, Cierra a las 11p.m.,Tlaquepaque
Carbón Parrilla de Barrio - Tlaquepaque,carbonparrilladebarrio.com,None Found,+52 33 3160 1359,"C. Juárez 144b, Centro, 45500 San Pedro Tlaquepaque, Jal., México",Parrilla, Cierra a las 2a.m.,Tlaquepaque
El Patio Tlaquepaque,elpatio.com.mx,"Espacio animado con mariachis en vivo, tacos, enchiladas, platos mexicanos de mariscos y cocteles.",+52 33 3635 1108,"Calle Independencia 186, Centro, 45500 San Pedro Tlaquepaque, Jal., México",Restaurante mexicano, 9p.m. ,Tlaquepaque
El Tacote,facebook.com,None Found,+52 33 1578 0135,"C. Reforma 263, De Santa María, 45500 San Pedro Tlaquepaque, Jal., México",Bar restaurante, 9p.m. ,Tlaquepaque
Restaurante Massi,,None Found,+52 33 3860 0804,"Calz. Lázaro Cárdenas #340, El Alamo, 45560 San Pedro Tlaquepaque, Jal., México",Restaurante, Cierra a las 11p.m.,Tlaquepaque
El Rincón de La Abuela,,None Found,+52 33 1578 0194,"Calle Independencia 131, Centro, 45500 San Pedro Tlaquepaque, Jal., México",Restaurante mexicano, 9:30p.m. ,Tlaquepaque
Restaurante La Hermana María,lahermanamaria.com,None Found,+52 33 3150 7991,"C. Herrera y Cairo 53, Centro, 45500 San Pedro Tlaquepaque, Jal., México",Restaurante mexicano, Abre a las 8a.m. del dom,Tlaquepaque
La Gusguería Papas and Grill,lagusgueria.com,"Cafetería amigable que sirve hamburguesas, alitas y batidos, con bar de ensaladas y área de juegos infantiles.",+52 33 1578 0960,"Calle Matamoros 100, Centro, 45500 San Pedro Tlaquepaque, Jal., México",Parrilla, Cierra a las 11:45p.m.,Tlaquepaque
Restaurante Cielito Lindo,instagram.com,None Found,+52 33 2204 1765,"Calle Independencia 208, Centro, 45500 San Pedro Tlaquepaque, Jal., México",Restaurante,,Tlaquepaque
"Los 7 Pozoles Suc. ""Revolución""",,None Found,+52 33 3860 4782,"C. Batalla de Celaya 3149, Fraccionamiento Revolución, 45589 San Pedro Tlaquepaque, Jal., México",Restaurante de desayunos, Cierra a las 11p.m.,Tlaquepaque
El Gorderon Asador Libre,elgorderonasadorlibre.com,None Found,+52 33 3926 0664,"Calle Contreras Medellín 167, San Juan, 45500 San Pedro Tlaquepaque, Jal., México",Restaurante de desayunos, Cierra a las 11p.m.,Tlaquepaque
TLAQUEPULQUE,facebook.com,None Found,+52 33 3659 6199,"Calle Independencia 336, Centro, 45500 San Pedro Tlaquepaque, Jal., México",Restaurante,,Tlaquepaque
CASA DOLORES - Tlaquepaque,casadolores.mx,None Found,+52 33 1653 9390,"Calle Independencia 111, Centro, San Pedro, 45500 San Pedro Tlaquepaque, Jal., México",Restaurante mexicano, Cierra a las 12a.m.,Tlaquepaque
Cafe Chai Tlaquepaque,chai.com.mx,None Found,+52 33 1653 9401,"Calle Independencia 176, Centro, 45500 San Pedro Tlaquepaque, Jal., México",Restaurante, Cierra a las 11p.m.,Tlaquepaque
Mariscos Puerto San Pedro,,None Found,+52 33 3659 2229,"Calle Independencia 156, Centro, 45500 San Pedro Tlaquepaque, Jal., México",Marisquería, Abre a las 9a.m. del dom,Tlaquepaque
Cenaduría Los Merequetengues,losmerequetengues.com,"Restaurante antiguo, colorido y animado, donde se sirve abundante comida casera mexicana.",+52 33 3639 3814,"C. Florida 83, San Juan, 45500 San Pedro Tlaquepaque, Jal., México",Restaurante mexicano, Cierra a las 11p.m.,Tlaquepaque
Café San Pedro - Tlaquepaque,cafesanpedro.com.mx,None Found,+52 33 3639 0616,"C. Juárez 85, Centro, 45500 San Pedro Tlaquepaque, Jal., México",Cafetería, Cierra a las 11p.m.,Tlaquepaque
La Rosetta Planta Alta,,None Found,+52 33 1657 7543,"Guillermo Prieto #71, Centro, 45500 San Pedro Tlaquepaque, Jal., México",Restaurante italiano, Cierra a las 12a.m.,Tlaquepaque
Ay María,,None Found,+52 33 4543 8259,"C. Juárez 17, Centro, 45500 San Pedro Tlaquepaque, Jal., México",Restaurante, Abre a las 8:30a.m. del dom,Tlaquepaque
CHILES & BEER,,None Found,+52 33 3238 7058,"C. Morelos 225, Centro, 45500 San Pedro Tlaquepaque, Jal., México",Marisquería, 9p.m. ,Tlaquepaque
DIRTY JACK,facebook.com,None Found,+52 33 1894 6459,"Blvd. Gral. Marcelino García Barragán 1909, San Pedro, 45500 San Pedro Tlaquepaque, Jal., México",Bar restaurante, Cierra a las 12a.m.,Tlaquepaque
Birriería El Chololo,facebook.com,"Restaurante informal con tazones caseros de chile, además de quesadillas y nachos clásicos.",+52 33 3670 0813,"Calle, San Antonio 288, Las Juntas, 45590 San Pedro Tlaquepaque, Jal., México",Restaurante mexicano, Abre a las 9a.m. del dom,Tlaquepaque
Casa de los Aguachiles,,None Found,+52 33 3666 1727,"Carretera, Carr. Guadalajara - Chapala 4176, Parque Industrial El Álamo, Alamo Industrial, 45593 San Pedro Tlaquepaque, Jal., México",Marisquería, Abre a las 12p.m. del dom,Tlaquepaque
Hacienda Canelos Tlaquepaque,,None Found,+52 33 2163 8124,"Calle Independencia 270, Centro, 45500 San Pedro Tlaquepaque, Jal., México",Restaurante mexicano, Cierra a las 12a.m.,Tlaquepaque
Ceviche Restaurante Tlaquepaque,,None Found,+52 33 5120 1673,"Calle Río Juárez 479, Col. La Loma, 44879 Guadalajara, Jal., México",Restaurante mexicano, Abre a las 12p.m. del dom,Tlaquepaque
Nola Grill,nolagrill.mx,None Found,+52 33 1598 3953,"C. Morelos 6, Centro, 45500 San Pedro Tlaquepaque, Jal., México",Restaurante especializado en chuletas, Cierra a las 11p.m.,Tlaquepaque
1000 Caguamas Tlaquepaque,1000caguamas.com,None Found,+52 33 1029 2503,"calle, Río Independencia 373, 45560 San Pedro Tlaquepaque, Jal., México",Marisquería, Cierra a las 12a.m.,Tlaquepaque
Sayulitros Tlaquepaque,,None Found,+52 33 1529 0887,"Calle Contreras Medellín 169, San Juan, 45500 San Pedro Tlaquepaque, Jal., México",Marisquería, Cierra a las 11p.m.,Tlaquepaque
LA CATALINA food and drink Tlaquepaque,,None Found,+52 33 4363 7881,"C. Zalatitán 652, Lindavista, 45520 San Pedro Tlaquepaque, Jal., México",Restaurante mexicano,,Tlaquepaque
D'Vitto's Pizzería,facebook.com,"Restaurante clásico con espaciosa terraza en donde se ofrece pizza a la leña, botanas y cervezas importadas.",+52 33 3657 6801,"C. Donato Guerra 169, Centro, 45500 San Pedro Tlaquepaque, Jal., México",Pizzería, Cierra a las 11p.m.,Tlaquepaque
tlaquejarros,tlaquejarros.com,None Found,+52 33 1083 1320,"Calle Independencia 286-2, Centro, 45500 San Pedro Tlaquepaque, Jal., México",Restaurante mexicano, Cierra a las 11p.m.,Tlaquepaque
Restaurante El Artesano Tlaquepaque,,None Found,+52 33 1001 0810,"C. Francisco I. Madero 70, Centro, 45500 San Pedro Tlaquepaque, Jal., México",Restaurante, Cierra a las 10p.m.,Tlaquepaque
El Gran Rodeo,,None Found,+52 33 3690 0965,"Libre a Zapotlanejo 5020, San Pedrito, 45625 San Pedro Tlaquepaque, Jal., México",Restaurante mexicano, Cierra a las 10p.m.,Tlaquepaque
Progreso Restaurante,mariscosprogreso.com.mx,None Found,+52 33 3657 4995,"Calle Progreso 80, Centro, 45500 San Pedro Tlaquepaque, Jal., México",Restaurante, Abre a las 12p.m. del dom,Tlaquepaque
Restaurante,,None Found,,"Guillermo Prieto 80, Centro, 45501 San Pedro Tlaquepaque, Jal., México",Restaurante,,Tlaquepaque
Riff Pub Tlaquepaque,,None Found,+52 33 3545 4250,"C. Constitución 11, Centro, 45500 San Pedro Tlaquepaque, Jal., México",Bar restaurante,,Tlaquepaque
Karne Garibaldi Sucursal Tlaquepaque,karnegaribaldi.com.mx,Un restaurante amplio y casual que ofrece recetas mexicanas y que se especializa en carne en su jugo.,+52 33 4737 4884,"Blvd. Gral. Marcelino García Barragán 1627, Cd Universitaria, 44840 Guadalajara, Jal., México",Restaurante mexicano, Cierra a las 10p.m.,Tlaquepaque
El Canelo,,"Sitio espacioso con carnes asadas al carbón estilo mexicano, mesas al aire libre y mariachis en vivo.",+52 33 3690 0904,"Carr. libre Guadalajara - Zapotlanejo 3852, Tateposco, 45630 Guadalajara, Jal., México",Restaurante, Abre a las 12p.m. del dom,Tlaquepaque
Kshitoo Sushi & Beer,facebook.com,None Found,+52 33 3838 0071,"C. Francisco de Miranda 26 A, Centro, 45500 San Pedro Tlaquepaque, Jal., México",Restaurante japonés, Cierra a las 10p.m.,Tlaquepaque
Cenaduría Victoria,,None Found,,"Santos degollado n,-182 San Pedro Tlaquepaque, 45500 Guadalajara, Jal., México",Restaurante mexicano, Cierra a las 11p.m.,Tlaquepaque
El Huachinango,,None Found,+52 33 2265 7138,"C. Rosales 57b, San Francisco, 45500 San Pedro Tlaquepaque, Jal., México",Marisquería, Abre a la 1p.m. del dom,Tlaquepaque
Gavilan Cantina,instagram.com,None Found,+52 33 1361 7441,"Calle Independencia 285, Centro, 45500 San Pedro Tlaquepaque, Jal., México",Cervecería, Cierra a las 2a.m.,Tlaquepaque
La Valentina Tlaquepaque Pizzas a La Leña,,"Pizzería sencilla con terraza en la azotea, comida al aire libre y vista a la ciudad.",+52 33 3657 2741,"C. Donato Guerra 165B, Centro, 45500 San Pedro Tlaquepaque, Jal., México",Pizzería, Cierra a la 1a.m.,Tlaquepaque
Birriería Chololo,facebook.com,None Found,+52 33 3838 0731,"Av Francisco Silva Romero 384, Lomas de Tlaquepaque, 45500 San Pedro Tlaquepaque, Jal., México",Restaurante mexicano, Abre a las 9a.m. del dom,Tlaquepaque
Carnes Navarrete Tlaquepatria,carnesnavarrete.com,None Found,+52 33 2257 6711,"Av. Patria 99, Residencial La Soledad, 45525 San Pedro Tlaquepaque, Jal., México",Restaurante mexicano, Cierra a las 10p.m.,Tlaquepaque
Carnes Navarrete Tlaquepatria,carnesnavarrete.com,None Found,+52 33 2257 6711,"Av. Patria 99, Residencial La Soledad, 45525 San Pedro Tlaquepaque, Jal., México",Restaurante mexicano, Cierra a las 10p.m.,Tlaquepaque
Centro de tlaquepaque el bno,,None Found,,"C. Morelos 55, Centro, 45500 San Pedro Tlaquepaque, Jal., México",Restaurante,,Tlaquepaque
La Valentina Pizza Santuario,facebook.com,"Local donde se sirven pizzas, pastas y hamburguesas creativas, con un patio lleno de plantas y una terraza en la azotea.",+52 33 1578 1483,"C. Morelos 207, Centro, 45500 San Pedro Tlaquepaque, Jal., México",Pizzería, Cierra a las 12a.m.,Tlaquepaque
La Valentina Pizza Santuario,facebook.com,"Local donde se sirven pizzas, pastas y hamburguesas creativas, con un patio lleno de plantas y una terraza en la azotea.",+52 33 1578 1483,"C. Morelos 207, Centro, 45500 San Pedro Tlaquepaque, Jal., México",Pizzería, Cierra a las 12a.m.,Tlaquepaque
Gorditas Doña Lola Tlaquepaque,facebook.com,None Found,+52 33 3100 1039,"C. Juárez 271, Centro, 45500 San Pedro Tlaquepaque, Jal., México",Restaurante mexicano, Abre a las 8a.m. del lun,Tlaquepaque
Bar Beto's,,None Found,+52 33 3639 0137,"Calle Independencia 77, Centro, 45500 San Pedro Tlaquepaque, Jal., México",Bar restaurante, Cierra a las 12a.m.,Tlaquepaque
Do Santos Restaurant,,None Found,+52 33 2632 4492,"C. Juárez 176, Centro, 45500 San Pedro Tlaquepaque, Jal., México",Restaurante brasileño, Cierra a las 10:30p.m.,Tlaquepaque
Rinconcito de San Peter,,None Found,+52 33 2032 5855,"C. Juárez #278, Centro, 45500 San Pedro Tlaquepaque, Jal., México",Restaurante de desayunos, Abre a las 9:15a.m. del dom,Tlaquepaque
Cafetería El Mirador,facebook.com,"Pizza, hamburguesas y otras comidas clásicas en un espacio único con temática de árbol y vista a la ciudad.",,"Constitución de 1857 3876, El Tapatío, 45580 Guadalajara, Jal., México",Cafetería, Cierra a las 11p.m.,Tlaquepaque
Paco's Restaurant & Bar,,None Found,+52 33 3330 5619,"Calle Progreso No. 15, Centro, 45500 San Pedro Tlaquepaque, Jal., México",Restaurante mexicano, Cierra a las 2a.m.,Tlaquepaque
Tejolote,instagram.com,None Found,+52 33 1796 5343,"Río Independencia 551, Col. La Loma, 45560 Guadalajara, Jal., México",Parrilla, Cierra a las 10p.m.,Tlaquepaque
Sayulita Grill,,None Found,+52 33 1721 3402,"Av. Marcos Montero Ruiz 971, Alamo Lomas, 45560 San Pedro Tlaquepaque, Jal., México",Taquería, Abre a las 8:30a.m. del lun,Tlaquepaque
Chimbombo's Grill,,None Found,+52 33 3657 0952,"C. Francisco I. Madero 80-A, Centro, 45500 San Pedro Tlaquepaque, Jal., México",Restaurante mexicano, Cierra a las 10p.m.,Tlaquepaque
La Rosetta Andador,,None Found,+52 33 3838 4487,"Calle Independencia 136, Centro, 45500 San Pedro Tlaquepaque, Jal., México",Restaurante italiano, Cierra a las 12a.m.,Tlaquepaque
Mexcatlan rio nilo,lamezcantina.mx,None Found,+52 33 1129 6616,"Rio Nilo 2329 Plaza cumbres tlaquepaque, La Paz, 44860 Guadalajara, Jal., México",Bar restaurante, Cierra a las 2:30a.m.,Tlaquepaque
Alebrijes Oaxaca,,None Found,+52 33 4105 9892,"Felipe, C. Carrillo Puerto 112, Centro, 45500 San Pedro Tlaquepaque, Jal., México",Restaurante, Cierra a las 10p.m.,Tlaquepaque
Danko Deep Dish Pizza,facebook.com,None Found,,"Calle Progreso 96, Centro, 45500 San Pedro Tlaquepaque, Jal., México",Pizzería, Cierra a las 11p.m.,Tlaquepaque
Mariscos Rojas,,None Found,+52 33 3657 8307,"C. Álvaro Obregón 83, Centro, 45500 San Pedro Tlaquepaque, Jal., México",Marisquería, Abre a las 12p.m. del dom,Tlaquepaque
Restaurante De Mariscos El Atoron,,None Found,+52 33 3601 1870,"Calle Adolf B Horn, Av. Adolf Bernard Horn Junior 3504, 45610 San Pedro Tlaquepaque, Jal., México",Marisquería, 9p.m. ,Tlaquepaque
La Antigua (Tlaquepaque),,None Found,+52 33 3155 0822,"Calle Independencia 142, Centro, 45000 San Pedro Tlaquepaque, Jal., México",Restaurante de brunch, Abre a las 8a.m. del dom,Tlaquepaque
Bahia Camaron,facebook.com,None Found,+52 33 2425 9175,"C. Donato Guerra 288-local 6, Prados del Nilo, 45500 San Pedro Tlaquepaque, Jal., México",Marisquería, Abre a las 12p.m. del dom,Tlaquepaque
Las Viandas Tlaquepaque,,None Found,+52 33 3659 6296,"C. Juárez 5, Centro, 45500 San Pedro Tlaquepaque, Jal., México",Restaurante, Abre a las 8:30a.m. del dom,Tlaquepaque
York Pub Tlaquepaque,yorkpub.com.mx,None Found,+52 33 3657 8122,"C. Juárez 225, Centro, 45500 San Pedro Tlaquepaque, Jal., México",Bar, Cierra a la 1a.m.,Tlaquepaque
Café Chai Fórum,chai.com.mx,None Found,+52 33 3659 1577,"Fórum Local R- PB 02 Boulevard General Marcelino García Barragán Guadalajara, Prados del Nilo, 44840 San Pedro Tlaquepaque, Jal., México",Restaurante, Cierra a las 11p.m.,Tlaquepaque
Veleros De Márquez restaurante,,None Found,+52 33 2046 8635,"Calle 5 de Mayo 414, Colonial Tlaquepaque, 45570 San Pedro Tlaquepaque, Jal., México",Marisquería, Abre a las 12p.m. del dom,Tlaquepaque
El Toreo,,None Found,+52 33 1578 1725,"Calle Independencia 63, Centro, 45500 San Pedro Tlaquepaque, Jal., México",Bar restaurante, Cierra a la 1a.m.,Tlaquepaque
La Casa del Waffle Río Nilo,lacasadelwaffle.com.mx,Sucursal de relajado restaurante con terraza que se especializa en clásicos desayunos mexicanos y waffles.,+52 33 1516 3760,"Patria #2206 Real Patria, 45510 San Pedro Tlaquepaque, Jal., México",Restaurante de desayunos, Abre a las 8a.m. del dom,Tlaquepaque
La Vid Restaurant,,"Restaurante animado con coloridos azulejos tradicionales, platos mexicanos clásicos y una terraza con sombra.",+52 33 1203 0327,"Av. Presidentes 1925, Lomas del Paradero, 44840 Guadalajara, Jal., México",Restaurante, Abre a las 9a.m. del dom,Tlaquepaque
El compa,,None Found,+52 33 3606 1255,"A Chapala 3494, La Micailita, 45596 San Pedro Tlaquepaque, Jal., México",Restaurante mexicano, Abre a las 7:30a.m. del dom,Tlaquepaque
Gordelicias - Boulevard,gordelicias.com.mx,None Found,+52 33 3838 0018,"Blvd. Gral. Marcelino García Barragán 1910, Atlas, 44870 Guadalajara, Jal., México",Restaurante,,Tlaquepaque
La Borra del Café,facebook.com,None Found,+52 33 3657 4038,"Andador Independencia Eje 132, San Pedro Apóstol, 45500 San Pedro Tlaquepaque, Jal., México",Cafetería, Cierra a las 11p.m.,Tlaquepaque
Tacos Progreso,,None Found,,"Calle Progreso 121, Centro, 45500 San Pedro Tlaquepaque, Jal., México",Taquería, Cierra a las 3a.m.,Tlaquepaque
Puro Pa Llevar Y Pa Aquí También Mariscos,ueniweb.com,None Found,+52 33 1872 0701,"C. Constitución de 1917 3253, Fraccionamiento Revolución, 45580 San Pedro Tlaquepaque, Jal., México",Marisquería, Abre a las 12p.m. del dom,Tlaquepaque
Parthenon,,None Found,+52 33 4535 3047,"Av. Camino al ITESO 8630-Local E, Paisajes del Tesoro, Sin Nombre, 45580 San Pedro Tlaquepaque, Jal., México",Restaurante griego, Abre a las 12p.m. del dom,Tlaquepaque
Cenaduria las atascadas de Ernie,facebook.com,None Found,+52 33 3485 6239,"C. Niños Héroes 1019, Residencial La Soledad, 45525 San Pedro Tlaquepaque, Jal., México",Restaurante mexicano, Cierra a las 11p.m.,Tlaquepaque
Cenaduría (antojitos mexicanos),cenaduriatlaquepaque.mx,None Found,+52 33 4526 7001,"C. Glendale 303 A, Centro, 45500 San Pedro Tlaquepaque, Jal., México",Restaurante, Cierra a las 12a.m.,Tlaquepaque
Salón Monterrey,facebook.com,None Found,+52 33 3639 6780,"Calle Progreso 21, Centro, 45500 San Pedro Tlaquepaque, Jal., México",Restaurante mexicano, Cierra a las 12a.m.,Tlaquepaque
Tacos Charly Marisqueria Suc.Tlaquepaque,facebook.com,None Found,+52 33 3860 2135,"Bulevar M Garcia, Blvd. Gral. Marcelino García Barragán 1924-4, 45560 San Pedro Tlaquepaque, Jal., México",Marisquería,,Tlaquepaque
La Sabroseria Tlaquepaque,,None Found,,"Calle Independencia, 299 a, Centro, 45500 San Pedro Tlaquepaque, Jal., México",Restaurante,,Tlaquepaque
TACOS DE BARBACOA MICKEY,,None Found,+52 33 1138 8553,"Av. Marcos Montero Ruiz 891, Alamo Lomas, 45560 San Pedro Tlaquepaque, Jal., México",Restaurante, Abre a las 8:45a.m. del dom,Tlaquepaque
Bendito Dogo,,None Found,+52 33 1447 9481,"Av. Patria 3586, Fraccionamiento Revolución, 45580 San Pedro Tlaquepaque, Jal., México",Restaurante de comida rápida, Cierra a las 11p.m.,Tlaquepaque
Tlaquepapas,order.top,None Found,+52 33 2687 0547,"Cruz verde 174 A Barrio Santa Maria, Cruz Verde 174, San Juan, 45500 San Pedro Tlaquepaque, Jal., México",Restaurante,,Tlaquepaque
Gordelicias - Mercado Tlaquepaque,,None Found,+52 33 1578 1573,"C. Morelos 85, Centro, 45500 San Pedro Tlaquepaque, Jal., México",Restaurante mexicano, Abre a las 8a.m. del dom,Tlaquepaque
VELMA TLAQUEPAQUE,,None Found,+52 33 3675 6699,"C. Nueva Galicia 11, Las Juntas, 45590 San Pedro Tlaquepaque, Jal., México",Restaurante de sushi, 9p.m. ,Tlaquepaque
Restaurante-Bar Mi Tierra,,None Found,+52 33 3635 6904,"C. Juárez 70, Centro, 45500 San Pedro Tlaquepaque, Jal., México",Bar restaurante, Cierra a las 12a.m.,Tlaquepaque
Hamburguesas y Dogos Joaquin,,None Found,+52 33 3635 3258,"C. Bartolomé de las Casas 27, Colonial Tlaquepaque, 45570 San Pedro Tlaquepaque, Jal., México",Hamburguesería, Cierra a las 11:30p.m.,Tlaquepaque
Antojitos mexicanos Ely,,None Found,+52 33 1599 9717,"C. Álvaro Obregón 25, Centro, 45500 San Pedro Tlaquepaque, Jal., México",Restaurante mexicano, Abre a las 8a.m. del dom,Tlaquepaque
Flautas PARKES,,None Found,+52 33 3667 7910,"C. San Francisco 2588, Parques del Palmar, 45655 San Pedro Tlaquepaque, Jal., México",Restaurante mexicano, Abre a la 1p.m. del lun,Tlaquepaque
Le Goûter Café Boutique,,None Found,+52 33 3336 2254,"C. Juárez 317, Rancho Blanco, 45500 San Pedro Tlaquepaque, Jal., México",Cafetería, Cierra a las 11p.m.,Tlaquepaque
Tokai San Pedro Tlaquepaque,tokaisushibarra.mx,None Found,+52 33 3852 0425,"C. Juárez 65, Centro, 45500 San Pedro Tlaquepaque, Jal., México",Restaurante japonés, Cierra a las 10:45p.m.,Tlaquepaque
Tacos Mario,,None Found,+52 33 1486 2709,"Calle Progreso 234, De Santiago, 45500 San Pedro Tlaquepaque, Jal., México",Taquería, Cierra a las 12a.m.,Tlaquepaque
Hamburguesas Tlaque,facebook.com,None Found,+52 33 2649 3035,"C. Miguel Hidalgo 294A, Centro, 45500 San Pedro Tlaquepaque, Jal., México",Hamburguesería, Cierra a las 11p.m.,Tlaquepaque
Arandas Tacos,,None Found,,"Antigua Carretera a Chapala 6075-C, La Ladrillera, 45619 San Pedro Tlaquepaque, Jal., México",Taquería, Cierra a las 2a.m.,Tlaquepaque
Tlahco's House,facebook.com,None Found,,"Av. Las Terrazas 301, Tlaquepaque, Las Terrazas, 45599 San Pedro Tlaquepaque, Jal., México",Restaurante, Cierra a las 11p.m.,Tlaquepaque
Casa del borrego,,None Found,+52 352 153 1006,"Anillo Perif. Sur Manuel Gómez Morín 5200, Artesanos, 45598 San Pedro Tlaquepaque, Jal., México",Restaurante mexicano, Abre a las 8a.m. del dom,Tlaquepaque
La CHILAQUILA Tlaquepaque,,None Found,+52 33 1640 9443,"Calle Tonala, C. Rio Seco #199, 45500 San Pedro Tlaquepaque, Jal., México",Restaurante mexicano, Abre a las 8a.m. del dom,Tlaquepaque
Jaiba Cajuncrab Tlaquepaque,facebook.com,None Found,+52 33 1653 9317,"Av Río Nilo 2329-Local 6, Prados del Nilo, 44840 Guadalajara, Jal., México",Restaurante, Cierra a las 10p.m.,Tlaquepaque
Casa Dely Tlaquepaque,instagram.com,None Found,+52 33 3425 4618,"C. Álvaro Obregón 178, San Juan, 45500 San Pedro Tlaquepaque, Jal., México",Restaurante, Abre a las 8a.m. del dom,Tlaquepaque
KFC,kfc.com.mx,None Found,+52 55 1515 4747,"Carr. Guadalajara - Chapala 4080, Alamo Industrial, 45593 San Pedro Tlaquepaque, Jal., México",Restaurante de comida rápida,,Tlaquepaque
Gorditas El Callejón,,None Found,+52 33 3675 3310,"C. Juan de la Barrera 5962, Las Juntas, 45590 San Pedro Tlaquepaque, Jal., México",Restaurante, Abre a las 7a.m. del dom,Tlaquepaque
Nieves de Garrafa Chapalita,instagram.com,None Found,+52 33 1608 9628,"C. Juárez 246, Centro, 45500 San Pedro Tlaquepaque, Jal., México",Heladería, 9p.m. ,Tlaquepaque
Chilaquiles La Chilaquila El Tapatío,,None Found,+52 33 2737 3048,"C. Batalla de Celaya 3029, Revolución, 45580 San Pedro Tlaquepaque, Jal., México",Restaurante mexicano, Abre a las 8a.m. del dom,Tlaquepaque
Wings & Ribs,facebook.com,None Found,+52 33 2902 5506,"C. Bartolomé de las Casas 70, Colonial Tlaquepaque, 45570 San Pedro Tlaquepaque, Jal., México",Restaurante familiar, Cierra a las 11p.m.,Tlaquepaque
Wings & Ribs,facebook.com,None Found,+52 33 2902 5506,"C. Bartolomé de las Casas 70, Colonial Tlaquepaque, 45570 San Pedro Tlaquepaque, Jal., México",Restaurante familiar, Cierra a las 11p.m.,Tlaquepaque
