Names,Website,Introduction,Phone Number,Address,Type,Opens At,Municipio
Los Farolitos,losfarolitos.com,Casona colonial con espacioso comedor familiar y salón de eventos en donde se ofrecen antojitos mexicanos.,+52 229 922 8850,"Av Jardines del Virginia 104, Jardines del Virginia, 94294 Boca del Río, Ver., México",Restaurante mexicano, Abre a las 7a.m.,Veracruz (municipio de Boca del Río)
Restaurante Paradise,facebook.com,"Lugar amplio con platos de mariscos, espacio para eventos, zona de juegos y vista al océano.",+52 229 986 3258,"Blvd Miguel Alemán 2706, Zona Centro, La Tampiquera, 94290 Boca del Río, Ver., México",Marisquería, Abre a las 9a.m.,Veracruz (municipio de Boca del Río)
Mariscos Villa Rica Mocambo,villa-rica.com,None Found,+52 229 922 2113,"C. Mocambo 527, Playa de Oro, 94290 Boca del Río, Ver., México",Marisquería, Abre a las 11a.m.,Veracruz (municipio de Boca del Río)
El Canda Boca del Río,elcandarestaurante.com,"Marisquería casual con terraza sobre el río y pantallas para ver deportes, con juegos y menú para niños.",+52 229 986 2490,"Zamora 7, Cabecera Municipal, 94290 Boca del Río, Ver., México",Restaurante mexicano, Abre a las 12p.m.,Veracruz (municipio de Boca del Río)
El Varadero,facebook.com,None Found,+52 229 986 1787,"Calle Orizaba Zamora &, Zamora &, Cabecera Municipal, 94290 Boca del Río, Ver., México",Restaurante mexicano, Abre a las 9a.m.,Veracruz (municipio de Boca del Río)
La Luna Sul Mare,facebook.com,Restaurante sencillo con terraza frente al mar donde se sirven pizzas y otros platos típicos mediterráneos.,+52 229 986 1971,"Zamora 309, Pescadores, 94290 Boca del Río, Ver., México",Restaurante mediterráneo, Abre a las 8a.m.,Veracruz (municipio de Boca del Río)
Madison Grill Boca del Río,,None Found,+52 229 922 9433,"Bv. Adolfo Ruíz Cortines A, De Las Americas, Las Américas, 94299 Veracruz, Ver., México",Restaurante, Abre a la 1p.m.,Veracruz (municipio de Boca del Río)
Restaurante de Mariscos Higuera Blanca Boca del Río,facebook.com,None Found,+52 229 476 4100,"De Los Reyes Católicos 65, De Las Americas, Fracc. Las Américas, 94298 Boca del Río, Ver., México",Restaurante, Abre a las 12p.m.,Veracruz (municipio de Boca del Río)
Mr. Pampas Veracruz,mrpampas.com,None Found,+52 229 915 2417,"Bv. Adolfo Ruíz Cortines 9, Costa Verde, 94294 Veracruz, Ver., México",Restaurante brasileño, Abre a las 12p.m.,Veracruz (municipio de Boca del Río)
La Isla del Amor,,None Found,+52 229 986 0146,"Blvd. Isla del Amor s/n, El Estero, 94290 Boca del Río, Ver., México",Marisquería, Abre a las 9:30a.m.,Veracruz (municipio de Boca del Río)
Mariscos Villa Rica Costa de Oro,villa-rica.com,Espaciosa palapa con servicio de bar que ofrece extenso menú de platillos preparados con pescados y mariscos.,+52 229 922 8002,"Boulevard #2184, Blvd. Manuel Ávila Camacho Fraccionamiento, Costa de Oro, 94299 Boca del Río, Ver., México",Marisquería, Abre a las 11a.m.,Veracruz (municipio de Boca del Río)
Asadero Cien - El Dorado Boca del Río,asaderocien.com,"Lugar urbano con piso de madera, cocina abierta y arte moderno que sirve carnes asadas y comida mexicana.",+52 229 931 6200,"Carr. Paso del Toro 4405, 94290 Veracruz, Ver., México",Parrilla, Abre a las 9a.m.,Veracruz (municipio de Boca del Río)
Restaurante de mariscos en Veracruz - Río De La Plata (Boca del Río),,None Found,+52 229 922 8734,"Calzada, Jesús Reyes Heroles 52, Costa Verde, 94294 Ver., México",Marisquería, Abre a las 12p.m.,Veracruz (municipio de Boca del Río)
El Tilingo Lingo,facebook.com,None Found,+52 229 130 7459,"Blvd Miguel Alemán S/N, Playa de Oro, 94298 Boca del Río, Ver., México",Marisquería, Abre a las 12p.m.,Veracruz (municipio de Boca del Río)
Restaurante El Maná,sites.google.com,None Found,+52 229 125 6566,"Av. Independencia 130, Zona Centro, Cabecera Municipal, 94290 Boca del Río, Ver., México",Restaurante mexicano, Abre a las 8a.m.,Veracruz (municipio de Boca del Río)
El Jaibón de Boca,eljaibon.com,None Found,+52 229 129 8054,"Escuela Médico Militar 637, Costa Verde, 94294 Veracruz, Ver., México",Marisquería, Abre a las 10a.m.,Veracruz (municipio de Boca del Río)
Gran Paladar,,None Found,+52 229 921 3444,"Bv. Adolfo Ruíz Cortines 3305, Costa de Oro, 94299 Boca del Río, Ver., México",Restaurante de cocina española, Abre a las 2p.m.,Veracruz (municipio de Boca del Río)
Mariscos el Bayo,mariscoselbayo.com,"Menú extenso de mariscos y pescados en un sitio con techo de palmas, mesas en el exterior y área infantil.",+52 229 130 4729,"Bv. Adolfo Ruíz Cortines 3456, Costa de Oro, 94299 Boca del Río, Ver., México",Marisquería, Abre a las 11a.m.,Veracruz (municipio de Boca del Río)
Harbor's Steakhouse & Rawbar,grupoestancia.mx,None Found,+52 229 688 2796,"Bv. Adolfo Ruíz Cortines 3500, Playa de Oro, 94298 Boca del Río, Ver., México",Restaurante especializado en filetes, Abre a la 1p.m.,Veracruz (municipio de Boca del Río)
IHOP Boca del Río,ihopmexico.com,Cadena de larga data que sirve gran variedad de panqueques y otras comidas de desayuno y cena estadounidenses.,+52 229 375 2735,"Boulevard Adolfo Ruíz Cortines 2931 esq, Av Paseo La Niña, De Las Americas, 94299 Boca del Río, Ver., México",Restaurante americano, Abre a las 8a.m.,Veracruz (municipio de Boca del Río)
El Cacharrito,elcacharrito.com,None Found,+52 229 688 0636,"Blvd. Manuel Ávila Camacho 5256-int. 9, Arrecifes, Ylang Ylang, 94298 Boca del Río, Ver., México",Restaurante argentino, Abre a la 1p.m.,Veracruz (municipio de Boca del Río)
Vacanora Restaurante,,"Local luminoso de comida casera, a orillas del río, con un ambiente tranquilo y terrazas.",+52 229 128 5552,"Miguel Hidalgo 623, Río Jamapa, 94290 Boca del Río, Ver., México",Marisquería, Abre a la 1p.m.,Veracruz (municipio de Boca del Río)
Gándara,,None Found,+52 229 922 2114,"Calle Calzada Mocambo #12 Fracc, Playa de Oro, 94293 Boca del Río, Ver., México",Marisquería, Abre a las 12p.m.,Veracruz (municipio de Boca del Río)
Fisher's Veracruz,fishers.com.mx,None Found,+52 229 986 4848,"Centro Comercial El Dorado, Carretera Federal Boca del Río, Antón Lizardo s/n, Locales, El Estero, 94292 Veracruz, Ver., México",Marisquería, Abre a las 9:30a.m.,Veracruz (municipio de Boca del Río)
Antojitos Anita Ruiz Cortinez,m.facebook.com,None Found,+52 229 130 2085,"Bv. Adolfo Ruíz Cortines 2952, Costa de Oro, 94299 Boca del Río, Ver., México",Restaurante, Abre a las 7a.m.,Veracruz (municipio de Boca del Río)
El Recreo,sointec.wixsite.com,None Found,+52 229 986 1145,"Av. Revolución 402, Zona Centro, Centro, 94290 Boca del Río, Ver., México",Marisquería, Abre a las 8a.m.,Veracruz (municipio de Boca del Río)
La Parroquia de Veracruz,laparroquiadeveracruz.com,None Found,+52 229 923 9623,"Local 11,12-14, Av. Las Américas S/N, Zona Hotelera, 94296 Boca del Río, Ver., México",Restaurante, Abre a las 7a.m.,Veracruz (municipio de Boca del Río)
Yitakyo Sushi Boca del Rio,,None Found,+52 229 590 9543,"Zamora 40- E Centro de Boca del rio, 94290 Veracruz, Ver., México",Restaurante japonés, Abre a la 1p.m.,Veracruz (municipio de Boca del Río)
Il Veneziano,,"Un lugar grande con decoraciones típicas, terrazas con vistas y cava de vinos que sirve gastronomía de Italia.",+52 229 213 9052,"Blvd. Manuel Ávila Camacho 1015, Costa de Oro, 94299 Boca del Río, Ver., México",Restaurante italiano, Abre a la 1p.m.,Veracruz (municipio de Boca del Río)
Coctelería y Mariscos Toño Bayon,,None Found,,"Hermenegildo Galeana 2, Pescadores, 94290 Boca del Río, Ver., México",Marisquería, Abre a las 10a.m.,Veracruz (municipio de Boca del Río)
El Llagar Costa de Oro,elllagar.com,None Found,+52 229 921 0375,"Blvd. Manuel Ávila Camacho 2200, Costa de Oro, 94299 Veracruz, Ver., México",Restaurante de cocina española, Abre a las 12p.m.,Veracruz (municipio de Boca del Río)
Plaza Pulpo,,None Found,,"Blvd. Manuel Ávila Camacho 10, Costa de Oro, 94299 Boca del Río, Ver., México",Restaurante,,Veracruz (municipio de Boca del Río)
Vips Américas Veracruz,vips.com.mx,None Found,+52 800 900 8477,"Bv. Adolfo Ruíz Cortines 3501, Mocambo, 94298 Boca del Río, Ver., México",Restaurante mexicano, Abre a las 7a.m.,Veracruz (municipio de Boca del Río)
Al Bahia,albahia.menudigital.menu,None Found,+52 229 531 3728,"Blvd. Riviera Veracruzana 4405, Plaza, El Dorado, 94290 Boca del Río, Ver., México",Restaurante libanés, Abre a la 1:30p.m.,Veracruz (municipio de Boca del Río)
El Bayo,,None Found,+52 229 986 3779,"Ignacio Zaragoza 23, Zona Centro, Cabecera Municipal, 94290 Boca del Río, Ver., México",Marisquería, Abre a las 11a.m.,Veracruz (municipio de Boca del Río)
La Estancia,grupoestancia.mx,None Found,+52 229 688 3704,"Bv. Adolfo Ruíz Cortines 4300, Mocambo, 94298 Veracruz, Ver., México",Restaurante argentino, Abre a la 1p.m.,Veracruz (municipio de Boca del Río)
Antojitos LA Casa,,None Found,+52 229 463 2434,"Av. Revolución 505, Zona Centro, Cabecera Municipal, 94290 Boca del Río, Ver., México",Restaurante mexicano, Abre a las 8a.m.,Veracruz (municipio de Boca del Río)
Sirloin,,None Found,+52 229 923 9303,"Jardines del Virginia, Manzana 2, Jardines del Virginia, 94294 Boca del Río, Ver., México",Restaurante familiar, Abre a las 7a.m.,Veracruz (municipio de Boca del Río)
El Cacharrito,elcacharrito.com.mx,None Found,+52 229 935 7288,"Privada Avila Camacho, Calz Costa Verde 71, 94298 Boca del Río, Ver., México",Restaurante argentino, Abre a la 1p.m.,Veracruz (municipio de Boca del Río)
Mondongo El Guero.,,None Found,+52 229 115 0836,"Av. Canales 421, Zona Centro, Cabecera Municipal, 94290 Boca del Río, Ver., México",Restaurante,,Veracruz (municipio de Boca del Río)
Puerto boca,facebook.com,None Found,+52 229 154 0524,"Zaragoza 106 B esq, Oviedo, centro, 94290 Boca del Río, Ver., México",Restaurante, Abre a la 1p.m.,Veracruz (municipio de Boca del Río)
La Parrilla Veracruzana,laparrillaveracruzana.mx,None Found,+52 229 260 9764,"Bv. Adolfo Ruíz Cortines 313, Costa Verde, 94294 Boca del Río, Ver., México",Taquería, Abre a las 12p.m.,Veracruz (municipio de Boca del Río)
El Lechón Cubano,menu.plick.app,None Found,+52 229 144 3716,"Calz Costa Verde 728, Costa Verde, 94294 Boca del Río, Ver., México",Restaurante familiar, Abre a las 9a.m.,Veracruz (municipio de Boca del Río)
El Picadón,,None Found,+52 229 590 4336,"Av. Canales, Zona Centro, Cabecera Municipal, 94290 Boca del Río, Ver., México",Restaurante mexicano, Abre a las 8:30a.m.,Veracruz (municipio de Boca del Río)
Mariscos Villa Rica Express,villa-rica.com,None Found,+52 229 922 0099,"Av Habaneras 450, Jardines del Virginia, 94294 Boca del Río, Ver., México",Marisquería, Abre a las 11a.m.,Veracruz (municipio de Boca del Río)
Taquería La Patrona,,None Found,+52 229 901 2209,"Esquina canales, Zamora 146, Zona Centro, Cabecera Municipal, 94290 Boca del Río, Ver., México",Restaurante, Abre a las 3p.m.,Veracruz (municipio de Boca del Río)
Higuera Blanca Boca,facebook.com,None Found,+52 229 927 3129,,Mayorista de marisco, Abre a las 12p.m.,Veracruz (municipio de Boca del Río)
Chulada Güero,facebook.com,None Found,+52 229 401 5581,"Bv. Adolfo Ruíz Cortines 230, Costa de Oro, 94299 Boca del Río, Ver., México",Restaurante, Abre a la 1p.m.,Veracruz (municipio de Boca del Río)
Birriería Casa Rendón Roca,,None Found,+52 229 219 4034,"Entre, Paseo Boca del Río, C. Minatitlan #63, La Tampiquera, 94290 Veracruz, Ver., México",Restaurante, Abre a las 9a.m.,Veracruz (municipio de Boca del Río)
Mardel,mardel.com.mx,Restaurante de platos mexicanos con ventanas envolventes en una sección construida sobre pilotes en el mar.,+52 229 984 2519,"Blvd. Manuel Ávila Camacho 2632, Zaragoza, 91910 Veracruz, Ver., México",Restaurante, Abre a las 8a.m.,Veracruz (municipio de Boca del Río)
Chavo Ruben,,None Found,+52 229 130 5238,"Calle Emiliano Zapata 59, Adalberto Tejeda, 94298 Veracruz, Ver., México",Marisquería, Abre a las 12p.m.,Veracruz (municipio de Boca del Río)
Julieta,facebook.com,None Found,+52 229 188 3757,"Oviedo 109, Zona Centro, Centro, 94290 Boca del Río, Ver., México",Marisquería, Abre a las 10a.m.,Veracruz (municipio de Boca del Río)
Corazones de Mar,,None Found,+52 229 524 9383,"Via Muerta 1468, Playa Hermosa, 94293 Boca del Río, Ver., México",Restaurante, Abre a las 10a.m.,Veracruz (municipio de Boca del Río)
Corazón de Amaranto,,None Found,+52 229 937 7949,"Bv. Adolfo Ruíz Cortines 128, Costa Verde, 94294 Boca del Río, Ver., México",Restaurante, Abre a las 8a.m.,Veracruz (municipio de Boca del Río)
La Jarocha,facebook.com,None Found,+52 229 334 3930,"Oviedo 205, Zona Centro, Centro, 94290 Boca del Río, Ver., México",Marisquería, Abre a las 10:30a.m.,Veracruz (municipio de Boca del Río)
MANZONI - Tratorria & Grill,manzonitrattoria.mx,None Found,+52 229 192 6995,"Bv. Adolfo Ruíz Cortines 3497, Ylang Ylang, 94298 Boca del Río, Ver., México",Restaurante, Abre a la 1p.m.,Veracruz (municipio de Boca del Río)
Paponas Boca del Rio,paponas.com.mx,None Found,+52 229 374 2540,"Blvd. Manuel Avila Camacho. 960 Mz. 51 Lt. 40, 41, Costa de Oro, 94299 Ver., México",Restaurante, Abre a las 2p.m.,Veracruz (municipio de Boca del Río)
Casona de boca Restaurant,,None Found,+52 229 690 9230,"Calle 8 Avenida 19 &, Av 19 &, Carranza 3ra Secc, 94297 Veracruz, Ver., México",Restaurante, Abre a la 1p.m.,Veracruz (municipio de Boca del Río)
La Cochinita de Boca,facebook.com,None Found,+52 229 986 4583,"Av. Canales 506, Zona Centro, Cabecera Municipal, 94290 Boca del Río, Ver., México",Taquería, Abre a las 8:30a.m.,Veracruz (municipio de Boca del Río)
El bufé Tacos de Guisado,elbufe.com.mx,"Restaurante informal con buffet y platos con guisos tradicionales mexicanos, incluidos tacos.",+52 229 780 9336,"Blvd Miguel Alemán 2957, Zona Centro, Camino Real, 94290 Boca del Río, Ver., México",Restaurante mexicano, Abre a las 8a.m.,Veracruz (municipio de Boca del Río)
Los Aguachiles,,None Found,+52 229 930 4806,"C. Donato Casas L-14, Primero de Mayo Sur, 94297 Boca del Río, Ver., México",Restaurante familiar, Abre a las 11a.m.,Veracruz (municipio de Boca del Río)
Estancia de Boca El Dorado,,None Found,,"Blvd. Riviera Veracruzana 4405, 94290 Boca del Río, Ver., México",Restaurante, Abre a las 8a.m.,Veracruz (municipio de Boca del Río)
Signorina Boca,facebook.com,None Found,+52 229 334 3260,"Escuela Médico Militar & Calle 14, Costa Verde, 94294 Boca del Río, Ver., México",Pizzería, Abre a las 2p.m.,Veracruz (municipio de Boca del Río)
La Casa de las Enchiladas Boca del Rio,,None Found,+52 229 112 6681,"Av Urano 6, entre Tampico y Campeche, Jardines de Mocambo, 94299 Boca del Río, Ver., México",Restaurante, Abre a las 9a.m.,Veracruz (municipio de Boca del Río)
"Mariscos Don Flauu ""El Pescador""",,None Found,+52 229 110 9935,"Allende No. 304 Casi esq. Xalapa Col. Centro, 94290 Boca del Río, Ver., México",Restaurante, Abre a las 10a.m.,Veracruz (municipio de Boca del Río)
Señor Bamboo,,None Found,+52 229 688 2781,"Bv. Adolfo Ruíz Cortines 4300, Mocambo, 94298 Veracruz, Ver., México",Restaurante de sushi, Abre a la 1p.m.,Veracruz (municipio de Boca del Río)
Madison Grill,madisongrill.mx,None Found,+52 229 130 0991,"Blvd. Ávila Camacho #61 Plaza View Fracc, Costa de Oro, 94299 Boca del Río, Ver., México",Restaurante, Abre a la 1p.m.,Veracruz (municipio de Boca del Río)
El Gaucho,elgaucho.com.mx,"Restaurante argentino con arcos y vigas a la vista donde se ofrecen carnes a la parrilla, filetes y empanadas.",+52 229 935 0411,"Av Cristóbal Colón 187, Reforma, 91919 Veracruz, Ver., México",Restaurante argentino, Abre a las 7a.m.,Veracruz (municipio de Boca del Río)
Antojitos Las Flores,,None Found,+52 229 436 1086,"Av. Revolución #512 Entre Allende e, independencia, 94290 Boca del Río, Ver., México",Restaurante, Abre a las 8a.m.,Veracruz (municipio de Boca del Río)
Los Farolitos,losfarolitos.com,"Comedor clásico con ambiente informal para probar antojitos veracruzanos, carnes y platillos internacionales.",+52 229 935 0439,"Av Cristóbal Colón 506, Reforma, 91919 Veracruz, Ver., México",Restaurante mexicano, Abre a las 7a.m.,Veracruz (municipio de Boca del Río)
El Jaibón,andamar.com.mx,None Found,+52 229 375 1708,"Bv. Adolfo Ruíz Cortines 4300, Arrecifes, Zona Hotelera, 94298 Veracruz, Ver., México",Marisquería, Abre a las 11a.m.,Veracruz (municipio de Boca del Río)
MOLCAXETE GRILL,wa.me,None Found,+52 229 399 7959,"Calz Costa Verde no. 123, Virginia, 94294 Boca del Río, Ver., México",Restaurante, Abre a la 1p.m.,Veracruz (municipio de Boca del Río)
Kochancle,es-es.facebook.com,None Found,+52 229 115 8435,"Netzahualcóyotl & Calle Echeven, Zona Centro, 91700 Veracruz, Ver., México",Restaurante, Abre a las 11a.m.,Veracruz (municipio de Boca del Río)
Kochancle,es-es.facebook.com,None Found,+52 229 115 8435,"Netzahualcóyotl & Calle Echeven, Zona Centro, 91700 Veracruz, Ver., México",Restaurante, Abre a las 11a.m.,Veracruz (municipio de Boca del Río)
La Palapa,facebook.com,None Found,+52 229 130 4217,"Blvd. Manuel Ávila Camacho 1102, Costa Verde, 94294 Veracruz, Ver., México",Marisquería, Abre a la 1p.m.,Veracruz (municipio de Boca del Río)
De Boca en Boca,,None Found,+52 229 133 4239,"Bv. Adolfo Ruíz Cortines 253, Costa Verde, 94294 Boca del Río, Ver., México",Restaurante, 6a.m. ,Veracruz (municipio de Boca del Río)
El Velero,,None Found,+52 229 106 7177,"C. Loma Bonita 35, La Tampiqueña, 94290 Boca del Río, Ver., México",Restaurante mexicano, Abre a las 8a.m. del lun,Veracruz (municipio de Boca del Río)
Mozzarella,m.facebook.com,None Found,+52 229 922 6773,"Av Costa de Oro 585, Costa de Oro, 94299 Boca del Río, Ver., México",Pizzería, Abre a las 2p.m.,Veracruz (municipio de Boca del Río)
Club de Playa Galería Plaza Veracruz by Brisas,,None Found,+52 229 989 0505,"C. Mocambo 6, Playa de Oro, 94293 Boca del Río, Ver., México",Restaurante, Abre a las 10a.m.,Veracruz (municipio de Boca del Río)
La Barbacoa de Boca,,None Found,+52 229 270 2837,"Av Veracruz 408, Zona Centro, Cabecera Municipal, 94290 Boca del Río, Ver., México",Restaurante especializado en barbacoa, Abre a las 8:30a.m.,Veracruz (municipio de Boca del Río)
Tacos El Indio,,None Found,,"Av. Benito Juárez 401, Zona Centro, Cabecera Municipal, 94290 Boca del Río, Ver., México",Taquería, Abre a las 9a.m.,Veracruz (municipio de Boca del Río)
El Rey Tiburón | Marisquería,,None Found,+52 229 922 0695,"C. Donato Casas 3A, Adalberto Tejeda, 94298 Veracruz, Ver., México",Marisquería, Abre a las 11a.m.,Veracruz (municipio de Boca del Río)
Café Davy John's,,None Found,+52 229 921 0141,"Bv. Adolfo Ruíz Cortines 3495-4D, Zona Hotelera, 94298 Boca del Río, Ver., México",Restaurante, Abre a las 8:30a.m.,Veracruz (municipio de Boca del Río)
El Desahogo - Restaurante,instagram.com,None Found,+52 951 228 7034,"C. Martín Alonso Pinzón #403, Reforma, 91919 Veracruz, Ver., México",Restaurante mexicano, Abre a las 2p.m.,Veracruz (municipio de Boca del Río)
La trajinera,instagram.com,None Found,+52 229 364 3152,"Av. Canales 407, Zona Centro, Cabecera Municipal, 94299 Boca del Río, Ver., México",Restaurante, Abre a las 10a.m.,Veracruz (municipio de Boca del Río)
Antojitos Doña Cruz,,None Found,+52 229 927 1532,"Calz. Lázaro Cárdenas 1042, Casas Tamsa, 94295 Veracruz, Ver., México",Restaurante mexicano, Abre a las 8a.m.,Veracruz (municipio de Boca del Río)
Jarrita De Oro - Punta Azul,jarritadeoro.com,None Found,+52 229 193 7493,"Blvd. Manuel Ávila Camacho s/n, Sutsem, 94299 Veracruz, Ver., México",Restaurante, Abre a las 7:30a.m.,Veracruz (municipio de Boca del Río)
Olive Garden,olivegardenmexico.com.mx,"Animada cadena apta para familias con platos italianos, como pastas y ensaladas.",+52 229 688 3745,"Bv. Adolfo Ruíz Cortines 4300, Arrecifes, Zona Hotelera, 94298 Veracruz, Ver., México",Restaurante italiano, Abre a las 11a.m.,Veracruz (municipio de Boca del Río)
Bokobá Restaurant & Bar,instagram.com,None Found,+52 229 221 7456,"Blvd Miguel Alemán, El Morro, 94293 Boca del Río, Ver., México",Marisquería, Abre a las 12p.m.,Veracruz (municipio de Boca del Río)
Tacos David Sucursal Boca del Rio,,None Found,+52 229 538 8485,"Independencia, Av. Canales 602 esq, Zona Centro, Centro, 94290 Boca del Río, Ver., México",Restaurante mexicano, Abre a las 9a.m.,Veracruz (municipio de Boca del Río)
Tacos David Sucursal Boca del Rio,,None Found,+52 229 538 8485,"Independencia, Av. Canales 602 esq, Zona Centro, Centro, 94290 Boca del Río, Ver., México",Restaurante mexicano, Abre a las 9a.m.,Veracruz (municipio de Boca del Río)
Groshi Express,groshiexpress.com,Restaurante simple y actual con creativa oferta de comida rápida japonesa disponible en buffet y a la carta.,+52 229 927 2318,"Av Urano 38- A, Hípico, 94296 Boca del Río, Ver., México",Restaurante de sushi, Abre a la 1p.m.,Veracruz (municipio de Boca del Río)
CORONELAS Cervesnack,facebook.com,None Found,+52 229 462 3923,"Miguel Hidalgo 20, Zona Centro, Cabecera Municipal, 94290 Boca del Río, Ver., México",Restaurante, Abre a las 2p.m.,Veracruz (municipio de Boca del Río)
Mola Molona,molamolona.com,None Found,+52 229 960 8503,"Plaza Andamar Lifestyle Center, Bv. Adolfo Ruíz Cortines 4300, 94298 Veracruz, Ver., México",Restaurante, Abre a la 1p.m.,Veracruz (municipio de Boca del Río)
Concepción Restaurante | Cocina de Cantina,,None Found,+52 229 367 6268,"Blvd. Manuel Ávila Camacho 453, Costa Verde, 94294 Boca del Río, Ver., México",Restaurante mexicano, Abre a las 9a.m.,Veracruz (municipio de Boca del Río)
La Terraza Palacio Veracruz,elpalaciodehierro.com,None Found,,"Bv. Adolfo Ruíz Cortines 4300, Zona Hotelera, 94299 Veracruz, Ver., México",Restaurante, Abre a las 11a.m.,Veracruz (municipio de Boca del Río)
Las Cazuelas Veracruz,,None Found,+52 229 133 0780,"94290, Priv. Tuxtepec 372, La Tampiquera, Boca del Río, Ver., México",Restaurante, Abre a la 1a.m. del vie,Veracruz (municipio de Boca del Río)
El Estridente boca,,None Found,+52 229 433 5546,"Miguel Hidalgo 307, Zona Centro, Centro, 94290 Boca del Río, Ver., México",Restaurante, Abre a las 2p.m. del lun,Veracruz (municipio de Boca del Río)
"*Palapa Mamá Lucha* Mariscos y Pescado,Cheladas,Micheladas,Clamachelas",,None Found,+52 229 191 6346,"Blvd. Vicente Fox Quesada, Playa Santa Ana, 94290 Boca del Río, Ver., México",Restaurante, Abre a las 9a.m.,Veracruz (municipio de Boca del Río)
Maria Maria Cocina de Origen,,None Found,+52 229 373 1638,"Bv. Adolfo Ruíz Cortines 4300, Mocambo, 94298 Veracruz, Ver., México",Restaurante, Abre a las 8:30a.m.,Veracruz (municipio de Boca del Río)
El Cui Cui,instagram.com,None Found,+52 229 127 7798,"Blvd Miguel Alemán 2957, Camino Real, 94290 Boca del Río, Ver., México",Restaurante mexicano,,Veracruz (municipio de Boca del Río)
Sr. Asadero,,None Found,+52 229 148 6792,"Blvd Miguel Alemán, Cabecera Municipal, 94290 Boca del Río, Ver., México",Restaurante mexicano, Abre a las 2p.m.,Veracruz (municipio de Boca del Río)
Los Mandiles,,None Found,+52 229 170 1050,"Costa Verde entre Mar de Arabia y Mar Báltico, esquina calle Ámericas, Fraccionamiento Costa Verde, 94294 Boca del Río, Ver., México",Restaurante mexicano, Abre a las 8a.m.,Veracruz (municipio de Boca del Río)
El Che Parrilla,,None Found,+52 229 293 1268,"Júpiter 31, Jardines de Mocambo, 94299 Veracruz, Ver., México",Restaurante argentino, Abre a las 12p.m.,Veracruz (municipio de Boca del Río)
Restaurante Alitas,lasalitas.com,None Found,+52 229 195 0099,"Av. Ejército Mexicano Ote. 1, Joyas de Mocambo, 94297 Veracruz, Ver., México",Restaurante de alas de pollo, Abre a las 12p.m.,Veracruz (municipio de Boca del Río)
Deli & Deli,,None Found,+52 229 688 3868,"Blvd. Manuel Ávila Camacho 1520, Costa de Oro, 94299 Boca del Río, Ver., México",Delicatessen, Abre a la 1p.m.,Veracruz (municipio de Boca del Río)
Tacos Santa Clara,,None Found,+52 229 453 2933,"94297, Av. Ejército Mexicano Ote. 309, Primero de Mayo Sur, Boca del Río, Ver., México",Restaurante, Abre a las 8a.m.,Veracruz (municipio de Boca del Río)
Coralinos,facebook.com,"Un espacio abierto, festivo y casual con techo alto para ver deportes y bailar música tropical en vivo.",+52 229 927 3782,"Blvd. Manuel Ávila Camacho 79, Costa de Oro, 94299 Boca del Rí­o, Ver., México",Bar restaurante, Abre a las 7p.m. del mié,Veracruz (municipio de Boca del Río)
La Fishque,,None Found,+52 229 763 3282,"Blvd. Manuel Ávila Camacho 703, Costa de Oro, 94299 Veracruz, Ver., México",Restaurante, Abre a las 10a.m.,Veracruz (municipio de Boca del Río)
La Fishque,,None Found,+52 229 763 3282,"Blvd. Manuel Ávila Camacho 703, Costa de Oro, 94299 Veracruz, Ver., México",Restaurante, Abre a las 10a.m.,Veracruz (municipio de Boca del Río)
Che Tango,,"Restaurante rústico con mesas de madera, donde se sirven empanadas, ensaladas y carnes al estilo argentino.",+52 229 932 1756,"Av. 16 de Septiembre 1938, Ricardo Flores Magón, 91900 Veracruz, Ver., México",Restaurante argentino, Abre a la 1p.m.,Veracruz (municipio de Boca del Río)
Los Taquechis de Camarón,instagram.com,None Found,+52 229 982 5150,"Zamora 180, Pescadores, 94290 Boca del Río, Ver., México",Restaurante, Abre a las 11a.m.,Veracruz (municipio de Boca del Río)
La Parroquia de Veracruz,laparroquiadeveracruz.com,None Found,+52 229 932 1855,"P.º Insurgentes Veracruzanos 340, Centro, 91700 Veracruz, Ver., México",Restaurante, Abre a las 7a.m.,Veracruz (municipio de Boca del Río)
La Frontera Food & Bar,,None Found,+52 229 950 0481,"Av 15, Venustiano Carranza, Carranza 2da Secc, 94298 Veracruz, Ver., México",Restaurante americano, Abre a la 1p.m.,Veracruz (municipio de Boca del Río)
Mariscos La Mantarraya,,None Found,+52 229 489 5192,"Calz. Lázaro Cárdenas 352, Marco A. Muñiz, 94295 Boca del Río, Ver., México",Marisquería, Abre a las 11a.m.,Veracruz (municipio de Boca del Río)
Restaurante El Tucán,,None Found,+52 229 923 2222,"Blvd. Manuel Ávila Camacho 702, Costa de Oro, 94299 Veracruz, Ver., México",Buffet libre, Abre a las 8a.m.,Veracruz (municipio de Boca del Río)
Restaurante Liverpool,liverpool.com.mx,None Found,+52 229 923 4300,"Carretera, Antón Lizardo 4405, Colonia El Novillero, 94290 Boca del Río, Ver., México",Buffet libre, Abre a las 11a.m.,Veracruz (municipio de Boca del Río)
Las Redes,lasredesmariscos.com,None Found,+52 229 109 9973,"Av. Benito Juárez 302, Zona Centro, Cabecera Municipal, 94290 Veracruz, Ver., México",Marisquería, Abre a las 9a.m.,Veracruz (municipio de Boca del Río)
Buffet de Mariscos Rey de reyes,,None Found,+52 229 253 2815,"Oviedo 111, Zona Centro, Centro, 94290 Boca del Río, Ver., México",Marisquería,,Veracruz (municipio de Boca del Río)
Los Bisquets Bisquets Obregón,bisquetsobregon.com,None Found,+52 229 130 0415,"Boulevard Adolfo Ruíz Cortines 1228 Mz. 108, lote 1, Sutsem, 94294 Veracruz, México",Restaurante, Abre a las 7:30a.m.,Veracruz (municipio de Boca del Río)
