Names,Website,Introduction,Phone Number,Address,Type,Opens At,Municipio
Restaurante El Edén,eledenrestaurante.com.mx,Platillos mexicanos a la carta o en bufé en una casona clásica con cuadros de arte y música de mariachis.,+52 993 153 7861,"Calle Paseo de la Choca 126, Tabasco 2000, Multiochenta, 86035 Villahermosa, Tab., México",Restaurante mexicano, Abre a las 7:30a.m. del dom,Villahermosa
Las Hijas de la Tostada Villahermosa,flow.page,None Found,+52 993 186 2444,"Plaza City Center Vh, Boulevard Adolfo Ruiz Cortines S/N, Atasta de la Serra, 86035 Villahermosa, Tab., México",Restaurante,,Villahermosa
Vuelve Carmela,vuelvecarmela.com,None Found,+52 993 316 3939,"Prolongacion 27 de Febrero 3303 Local PA01, Col Tabasco 2000, Club Campestre, 86035 Villahermosa, Tab., México",Restaurante, 11:30p.m. ,Villahermosa
Bravo Butchers,,None Found,+52 993 316 8029,"Perif. Carlos Pellicer Cámara Local 108, La Choca, 86035 Villahermosa, Tab., México",Parrilla, Cierra a las 2a.m.,Villahermosa
Restaurante Rodizio,rodiziorestaurante.com,"Rústico restaurante de carnes asadas en espadas al estilo Brasil, con amplia barra de ensaladas y entremeses.",+52 993 209 2682,"Av. Paseo La Choca 126, Centro, 86035 Villahermosa, Tab., México",Restaurante brasileño, Abre a las 12:30p.m. del dom,Villahermosa
La CevicherÍa Tabasco,lacevicheriatabasco.com,None Found,+52 993 195 3199,"Boulevard Adolfo Ruiz Cortines 1214, Oropeza, 86039 Villahermosa, Tab., México",Restaurante, Abre a las 12p.m. del dom,Villahermosa
MAR&Co.,marcompany.com.mx,None Found,+52 993 315 0505,"Av Paseo Tabasco 1101, Jesus Garcia, 86040 Villahermosa, Tab., México",Marisquería, Abre a las 12p.m. del dom,Villahermosa
Asador Castellano,asadorcastellano.com.mx,Espaciosa hacienda con terraza y refinado comedor en donde se ofrece comida española con toque internacional.,+52 993 316 9909,"Av. Paseo La Choca 120, Multiochenta, 86035 Villahermosa, Tab., México",Restaurante de cocina castellana, Abre a las 2p.m. del dom,Villahermosa
El Reyna Mariscos Villahermosa,instagram.com,"Especialidades del mar con cerveza en un lugar creativo con techo alto, murales y pantallas para ver deportes.",+52 993 316 5206,"Parque Turistico Recreativo, Perif. Carlos Pellicer Cámara 4000, La Choca, 86037 Villahermosa, Tab., México",Marisquería, Abre a las 12p.m. del dom,Villahermosa
El Teapaneco,facebook.com,None Found,+52 993 315 1395,"C. Quintín Arauz Carrillo 216, Primero de Mayo, 86190 Villahermosa, Tab., México",Restaurante, Abre a las 7a.m. del dom,Villahermosa
Restaurante Madan,madan.com.mx,None Found,+52 993 312 1650,"Av. Francisco I. Madero 408, Centro, 86000 Villahermosa, Tab., México",Restaurante mexicano, Abre a las 7a.m. del dom,Villahermosa
TORO BRAVO RESTAURANT,torobravo.mx,None Found,+52 993 315 4859,"Av Paseo Tabasco 1125, José Narciso Rovirosa, 86050 Villahermosa, Tab., México",Restaurante mexicano, 12a.m. ,Villahermosa
Mineiros Restaurante,facebook.com,Cálido comedor familiar con aire informal y amplia barra de ensaladas con variado buffet de cortes brasileños.,+52 993 131 0876,"C. Manuel Sánchez Mármol 302, Centro Delegacion Tres, 86000 Villahermosa, Tab., México",Restaurante brasileño,,Villahermosa
Pescados Y Mariscos,,None Found,+52 993 161 4246,"Felipe Carrillo Puerto 2502, Cuadrante II, Atasta de Serra, 86100 Villahermosa, Tab., México",Marisquería, Abre a las 9a.m. del dom,Villahermosa
"Restaurante ""El Puchero""",facebook.com,Local casual de ambiente familiar y casero que sirve comida tabasqueña tradicional a la carta y en buffet.,+52 993 403 9279,"Perif. Carlos Pellicer Cámara 614, Tulipanes, 86097 Villahermosa, Tab., México",Restaurante mexicano, Abre a las 8a.m. del dom,Villahermosa
Basilico Villahermosa,citycentervh.com,None Found,+52 993 316 1956,"Perú 9, Atasta de Serra, 86100 Villahermosa, Tab., México",Restaurante italiano, 12a.m. ,Villahermosa
Ginger Rabbit. Distillery + Kitchen,,None Found,+52 993 131 5935,"Av. Paseo Usumacinta, #1504, Av. Tabasco 2000, Zona Urbana Rio Tijuana, 86037 Villahermosa, Tab., México",Restaurante, Cierra a las 2a.m.,Villahermosa
Querrevé Villahermosa,querreve.com,None Found,+52 993 212 4583,"Boulevard Adolfo Ruiz Cortines S/N, Atasta de Serra, Villahermosa Tab Plaza City Center andador Bogotá, 86035 Villahermosa, Tab., México",Restaurante, 12a.m. ,Villahermosa
"La Estancia Del Bife, Paseo Usumacinta",facebook.com,None Found,+52 993 316 4024,"de Tabasco 2000, Prol. P.º Usumacinta 1108, Los Rios, 86035 Villahermosa, Tab., México",Restaurante argentino, Abre a la 1p.m. del dom,Villahermosa
El Matador (Sandino),elmatador.com.mx,"Restaurante de carnes con temática de toreros, famoso por sus filetes asados y platos mexicanos, como tacos.",+52 993 315 3564,"Av. Gral. Augusto César Sandino 101, Reforma, 86080 Villahermosa, Tab., México",Restaurante especializado en filetes, Abre a las 11a.m. del dom,Villahermosa
7:Quince | Rooftop Bar & Kitchen,7quincerooftop.com,None Found,+52 993 283 5357,"Av. Paseo La Choca 102, Col. Tabasco 2000, 86035 Villahermosa, Tab., México",Restaurante, Cierra a las 2a.m.,Villahermosa
Restaurante El Pez On,mimenumexico.org,None Found,+52 993 595 4336,"Plaza México, Prolongacion Avenida México 221-Local 17, Plutarco Elias Calles, 86170 Villahermosa, Tab., México",Marisquería, 12a.m. ,Villahermosa
Restaurante Colosso,facebook.com,None Found,+52 993 258 3606,"Av. Paseo la Choca #126, Tabasco 2000, 86035 Villahermosa, Tab., México",Restaurante italiano, Abre a la 1p.m. del dom,Villahermosa
El Ganadero Steak House 27 de Febrero,elganadero.com.mx,Carnes asadas y recetas mexicanas con una variedad de vinos en un espacio amplio con mesas de mantel rojo.,+52 993 315 5101,"Av. 27 de Febrero 1706, Gil y Saenz, 86080 Villahermosa, Tab., México",Restaurante especializado en filetes, Abre a las 9a.m. del dom,Villahermosa
Restaurante La Choquita Gourmet,,None Found,+52 993 161 4341,"Plaza Catedral, Av Paseo Tabasco 115, Jesus Garcia, 86040 Villahermosa, Tab., México",Restaurante mexicano, 12a.m. ,Villahermosa
Restaurante Condimento,marriott.com,None Found,+52 993 310 0201,"1407, Av Paseo Tabasco 2000, Los Rios, 86035 Villahermosa, Tab., México",Buffet libre,,Villahermosa
Levantina Parrilla Mar & Tierra,facebook.com,None Found,+52 993 265 1849,"Plaza Usuma Villahermosa, Tabasco 2000, 86035 Villahermosa, Tab., México",Restaurante, Cierra a las 2a.m.,Villahermosa
El Rincon Tabasqueño,,None Found,+52 993 350 3313,"Carretera villahermosa a Luis Gil perez km. 0.700 Ría. Ixtacomitan 1ra sección, 86143 Villahermosa, Tab., México",Restaurante, Abre a las 8a.m. del dom,Villahermosa
El Matador (Tabasco 2000),elmatador.com.mx,None Found,+52 993 316 6893,"2000, Prol. P.º Usumacinta 1504, Plaza Río, 86035 Villahermosa, Tab., México",Restaurante mexicano, Cierra a las 2a.m.,Villahermosa
La Estancia Parrilla Argentina,,None Found,+52 993 316 4024,"Prol. P.º Usumacinta, Los Rios, 86035 Villahermosa, Tab., México",Restaurante argentino, 12a.m. ,Villahermosa
Los Gordos Restorán,,None Found,+52 993 121 2929,"Locs. 13, 14 y 15 Plaza La Choca Av Paseo Usumacinta Tabasco 2000, Multiochenta, 86035 Villahermosa, Tab., México",Restaurante, Abre a las 7a.m. del dom,Villahermosa
T3RNA Bistro / TERNA,t3rnabistro.ola.click,None Found,+52 993 592 9945,"Av. Paseo Usumacinta 1504 Plaza Rio. Locales 1 al 4, Tabasco 2000, 86035 Villahermosa, Tab., México",Restaurante,,Villahermosa
Cielo Rojo,,None Found,+52 993 316 9439,"Plaza City Center, andador Colombia, Atasta de Serra, 86100 Villahermosa, Tab., México",Bar restaurante, Cierra a las 3a.m.,Villahermosa
Restaurante Los Tulipanes,,None Found,+52 993 352 0780,"Boulevard Adolfo Ruiz Cortines, Col Jesús García, 86040 Villahermosa, Tab., México",Buffet libre, Abre a las 8a.m. del dom,Villahermosa
Marea Brava,,None Found,+52 993 658 2307,"Plaza Ankor, Av. Prol. 27 de Febrero 3303, Club Campestre, 86035 Villahermosa, Tab., México",Marisquería, 12a.m. ,Villahermosa
La Estancia del Bife,estanciadelbife.com,None Found,+52 993 352 3636,"Av Paseo Tabasco 1105, José Narciso Rovirosa, 86050 Villahermosa, Tab., México",Restaurante, Abre a la 1p.m. del dom,Villahermosa
Restaurante familiar ¡Viva Tabasco!,,None Found,+52 993 165 1519,"Av. Francisco I. Madero 518, Centro Delegacion Dos, 86077ºº Villahermosa, Tab., México",Restaurante familiar, Abre a las 7:30a.m. del dom,Villahermosa
Almarina - Cocina de Mar,,None Found,+52 993 101 1453,"Av Samarkanda 116, Oropeza, 86035 Villahermosa, Tab., México",Restaurante, Cierra a las 3a.m.,Villahermosa
Restaurante El Ganadero,elganadero.com.mx,None Found,+52 993 316 8535,"Av. Paseo La Choca 101, La Choca, 86035 Villahermosa, Tab., México",Restaurante de platos de carne, Abre a la 1p.m. del dom,Villahermosa
La Calle,lacallerestaurante.com,Colorido restaurante con cocina tabasqueña típica ofrecida en un comedor familiar con atmósfera cálida.,+52 993 317 8020,"Av. Prol. 27 de Febrero 2809, Atasta de Serra, 86035 Villahermosa, Tab., México",Restaurante mexicano, Abre a las 9a.m. del dom,Villahermosa
Le Rêve,,None Found,+52 993 352 4659,"Plaza San Diego, Av Samarkanda 202, Bonanza, 86000 Villahermosa, Tab., México",Restaurante, Abre a la 1:30p.m. del dom,Villahermosa
Restaurante Los Casitos en villahermosa,loscasitos.com,None Found,+52 993 352 0030,"Av. Gral. Augusto César Sandino 250, Primero de Mayo, 86190 Villahermosa, Tab., México",Restaurante mexicano, Abre a las 9a.m. del dom,Villahermosa
Go Restaurantes (Deportiva),,None Found,+52 993 383 6555,"C. Quintín Arauz Carrillo 1011, Atasta de Serra, 86100 Villahermosa, Tab., México",Restaurante mexicano, Abre a las 7a.m. del dom,Villahermosa
El Ganadero Steak House Tabasco 2000,elganadero.com.mx,None Found,+52 993 316 8535,"Avenida Paseo La Choca 101, Tabasco 2000, 86035 Villahermosa, Tab., México",Restaurante especializado en filetes, Abre a la 1p.m. del dom,Villahermosa
La Casa del Chef,,None Found,+52 993 312 4743,"C. Regino Hernández Llergo 239, Nueva Villahermosa, 86070 Villahermosa, Tab., México",Restaurante, Abre a las 12p.m. del dom,Villahermosa
María Bonita Bistro & Bar,facebook.com,None Found,+52 993 413 4098,"Juan Estrada Torre 101-Local 25, Primero de Mayo, 86190 Villahermosa, Tab., México",Bar restaurante, Abre a las 8a.m. del dom,Villahermosa
Mistretta Steakhouse,,None Found,+52 993 382 3748,"Av Paseo Tabasco 1407, Los Rios, 86030 Villahermosa, Tab., México",Restaurante, Cierra a la 1a.m.,Villahermosa
La Tabasqueñita,,None Found,+52 993 306 4000,"Ernesto Malda 423A, Col. Lindavista, 86050 Villahermosa, Tab., México",Marisquería, Abre a las 9a.m. del dom,Villahermosa
El Che,,None Found,+52 993 496 9689,"C. Cedros 207, Lago Ilusiones, 86040 Villahermosa, Tab., México",Restaurante argentino, Abre a las 2p.m. del dom,Villahermosa
La 91 Restaurante de Mariscos,la91marisqueriatradicional.com,None Found,+52 993 300 6828,"Avenida prolongación 27 de febrero, Av Paseo Tabasco 1, 86035 Villahermosa, Tab., México",Marisquería, Abre a las 12p.m. del dom,Villahermosa
El Porteño,facebook.com,None Found,+52 993 352 0409,"Prolongación Quintín Arauz Carrillo 103, Primero de Mayo, 86100 Villahermosa, Tab., México",Restaurante, Abre a las 12p.m. del dom,Villahermosa
Pae-ya by Chef Noir,,None Found,+52 993 239 0257,"Retorno Via 5, 120, TABASCO 2000, 86030 Villahermosa, Tab., México",Restaurante mexicano, Abre a las 8a.m. del dom,Villahermosa
Toks Villahermosa,toks.com.mx,None Found,+52 993 315 9958,"Avenida Juan Estrada Torre manzana 2 lt, Calle C 2021, Primero de Mayo, 86190 Villahermosa, Tab., México",Restaurante mexicano, Abre a las 7a.m. del dom,Villahermosa
"La Hacienda, Alta Cocina y Tradición.",,None Found,,"Alvaro Obregon, 86050 Villahermosa, Tab., México",Restaurante, 12a.m. ,Villahermosa
Portón Villahermosa,porton.com.mx,None Found,+52 993 209 0831,"Boulevard Adolfo Ruiz Cortines 1902, Carrizal, 86038 Villahermosa, Tab., México",Restaurante mexicano, Abre a las 7a.m. del dom,Villahermosa
Salón Caimito,saloncaimito.com,None Found,+52 993 127 2934,"Perif. Carlos Pellicer Cámara, Multiochenta, 86037 Villahermosa, Tab., México",Restaurante, Abre a las 8a.m. del dom,Villahermosa
LARRABEZUA RESTAURANT,,None Found,+52 993 315 1977,"Av. Esperanza Iris 130, Reforma, 86080 Villahermosa, Tab., México",Restaurante mexicano, Abre a las 8a.m. del dom,Villahermosa
LARRABEZUA RESTAURANT,,None Found,+52 993 315 1977,"Av. Esperanza Iris 130, Reforma, 86080 Villahermosa, Tab., México",Restaurante mexicano, Abre a las 8a.m. del dom,Villahermosa
A Comer Villahermosa,,None Found,+52 993 302 8085,"Blvd. Bicentenario, Parque Tabasco, 86246 Villahermosa, Tab., México",Restaurante, Abre a las 8a.m. del dom,Villahermosa
Roma Norte Restaurante,romanorterestaurante.com,None Found,+52 993 308 5566,"Av. 27 de Febrero 3001, Fraccionamiento Galaxia, 86035 Villahermosa, Tab., México",Restaurante, 12a.m. ,Villahermosa
La Chela Marisquería,,None Found,+52 993 317 7943,"86035 Prolongación 27 de febrero 911, casi esq. Paseo Usumacinta, Tabasco 2000, 86035 Villahermosa, Tab., México",Marisquería, Abre a las 9a.m. del dom,Villahermosa
Merihnos Restaurante,m.facebook.com,None Found,,"C. Andrés García 239, Primero de Mayo, 86190 Villahermosa, Tab., México",Restaurante mexicano, Abre a las 10a.m. del dom,Villahermosa
El Chef de Sinaloa,facebook.com,None Found,+52 993 311 2148,"El Aguila 300, Atasta de Serra, 86100 Villahermosa, Tab., México",Marisquería, Abre a las 10a.m. del dom,Villahermosa
Mariscos La Lupita,,"Restaurante sencillo con ambiente clásico, especializado en platos tradicionales de pescado.",+52 993 354 3254,"C. Buena Vista 202, Cuadrante II, Atasta de Serra, 86100 Villahermosa, Tab., México",Marisquería, Abre a las 11a.m. del dom,Villahermosa
Chicago MX,chicagomx.com.mx,None Found,+52 993 316 4747,"Plaza City Center, Local F40, Atasta de Serra, 86100 Villahermosa, Tab., México",Pizzería, Cierra a la 1a.m.,Villahermosa
Genesis 1.29,,None Found,+52 993 212 8486,"Av. Prol. 27 de Febrero parque, Atasta de Serra, 86100 Villahermosa, Tab., México",Restaurante vegano,,Villahermosa
Go Restaurantes (Parque Tabasco),,None Found,+52 993 200 5664,"Blvd. Bicentenario, Parque Tabasco, 86037 Villahermosa, Tab., México",Restaurante de brunch, Abre a las 7a.m. del dom,Villahermosa
Velerito Choco,veleritochoco.com,None Found,+52 993 238 0992,"Av Niños Héroes 411 #103, Colonia, Atasta de Serra, 86100 Villahermosa, Tab., México",Restaurante, Abre a las 10:30a.m. del dom,Villahermosa
Bravo Sur (Ankor),,None Found,+52 993 175 6348,"Av. Prol. 27 de Febrero 3303, Club Campestre, 86035 Villahermosa, Tab., México",Restaurante, 12a.m. ,Villahermosa
Madalena Cocina + Bar,,None Found,+52 993 316 9283,"Perú 9, Atasta de Serra, 86100 Villahermosa, Tab., México",Marisquería, Cierra a las 2a.m.,Villahermosa
La Parroquia De Veracruz,laparroquiadeveracruz.com,None Found,+52 993 316 1998,"Boulevard Adolfo Ruiz Cortines 1214, Oropeza, 86030 Villahermosa, Tab., México",Cafetería, Abre a las 7a.m. del dom,Villahermosa
Grupo Leo,facebook.com,None Found,+52 993 110 6759,"Av Paseo Tabasco 429, Centro Delegacion Uno, 86077 Villahermosa, Tab., México",Restaurante familiar, Abre a las 12p.m. del dom,Villahermosa
El Lechoncito Dorado,,None Found,+52 993 316 5305,"Prolongación de, Av. 27 de Febrero 2750, Atasta de Serra, 86035 Villahermosa, Tab., México",Restaurante, Abre a las 7a.m. del dom,Villahermosa
Los Bisquets Obregón,bisquetsobregon.com,None Found,+52 993 315 5378,"Av, Heroico Colegio Militar 102, Atasta de Serra, 86100 Villahermosa, Tab., México",Restaurante, Abre a las 7a.m. del dom,Villahermosa
Galerías Tabasco,galerias.com,None Found,+52 993 316 0691,"Av Paseo Tabasco 1405, Colonia Desarrollo Urbano, 86035 Villahermosa, Tab., México",Centro comercial, Abre a las 11a.m. del dom,Villahermosa
Maiña.,,None Found,+52 993 317 7519,"Calle Vía 3 #120, Tabasco 2000-Local 6, 86035 Villahermosa, Tab., México",Restaurante brasileño, Abre a las 10a.m. del dom,Villahermosa
Restaurante Familiar ¡Viva Tabasco! II,,None Found,,"Av Pino Suárez 721, Centro Delegacion Cinco, 86000 Villahermosa, Tab., México",Restaurante familiar,,Villahermosa
Barrio Antiguo,bit.ly,None Found,+52 993 186 2474,"Dr. Cárdenas, Atasta de Serra, 86100 Villahermosa, Tab., México",Restaurante, Abre a la 1p.m. del dom,Villahermosa
Black club Villahermosa,,None Found,+52 993 320 5622,"Boulevard Adolfo Ruiz Cortines 1505, Loma Linda, 86050 Villahermosa, Tab., México",Bar restaurante, Cierra a las 4a.m.,Villahermosa
Taquería La Vaca de su Amigo Alex,,None Found,+52 993 430 9607,"Boulevard Adolfo Ruiz Cortines 1805, Cuadrante II, Atasta de Serra, 86100 Villahermosa, Tab., México",Taquería, Cierra a las 2a.m.,Villahermosa
RAICES,,None Found,+52 993 223 1903,"Av. Gral. Augusto César Sandino 309, Reforma, 86080 Villahermosa, Tab., México",Restaurante, Abre a las 9a.m. del lun,Villahermosa
Tina Cantina City Center,citycentervh.com,None Found,,"LOC 1 - 1 CDA ADOLFO RUIZ CORTINEZ, Dr. Cárdenas, Atasta de Serra, 86100 CENTRI, Tab., México",Bar restaurante, Cierra a la 1a.m.,Villahermosa
Las Alitas Villahermosa Tabasco,,None Found,,"Av Paseo Tabasco 1103, Jesus Garcia, 86040 Villahermosa, Tab., México",Restaurante, Abre a las 12p.m. del dom,Villahermosa
Las Conchas,,None Found,+52 993 354 6120,"Av Niños Héroes 225, Cuadrante II, Atasta de Serra, 86100 Villahermosa, Tab., México",Marisquería, Abre a las 10:30a.m. del dom,Villahermosa
Groshi Express,groshiexpress.com,None Found,+52 993 592 3048,"Boulevard Adolfo Ruiz Cortines 1214, Oropeza, 86030 Villahermosa, Tab., México",Restaurante de sushi, Abre a las 12p.m. del dom,Villahermosa
Restaurante La Ceiba,,None Found,,"Cda. La Ceiba 208, Primero de Mayo, 86100 Villahermosa, Tab., México",Marisquería, Abre a las 11a.m. del dom,Villahermosa
Anca La Yola,facebook.com,None Found,+52 993 232 7777,"Cactus 100, Cuadrante II, Jose Colomo, 86100 Villahermosa, Tab., México",Restaurante, Abre a las 9a.m. del lun,Villahermosa
Antojería de Barrio,antojeriadebarrio.mx,None Found,+52 993 315 6706,"Plaza Sol Velodromo de la, C. Rita Estrada 101, Primero de Mayo, 86190 Villahermosa, Tab., México",Restaurante de desayunos, Abre a las 8a.m. del dom,Villahermosa
GO Restaurantes,mimenumexico.org,None Found,+52 993 197 8497,"Argentina, Atasta de Serra, 86100 Villahermosa, Tab., México",Restaurante, Abre a las 7a.m. del dom,Villahermosa
Restaurante Familiar Mocambo,,None Found,+52 19931767110,"Av. 27 de Febrero 1919, Cuadrante II, Atasta de Serra, 86100 Villahermosa, Tab., México",Marisquería, Cierra a las 3a.m.,Villahermosa
Restaurant Estación Ganadera,,None Found,+52 938 100 5641,"Av. Adolfo Ruiz Cortines 2223, Cuadrante II, Atasta de Serra, 86100 Villahermosa, Tab., México",Restaurante familiar, Abre a las 8a.m. del dom,Villahermosa
Basilico Ankor,grupobasilico.com,None Found,+52 993 632 8199,"Avenida Prolongación 27 de Febrero 3303, Tabasco 2000, Club Campestre, 86035 Villahermosa, Tab., México",Restaurante, 12a.m. ,Villahermosa
Vips Villahermosa Ruiz Cortines,vips.com.mx,None Found,+52 33540393,"Boulevard Adolfo Ruiz Cortines 1906, Carrizal, 86038 Villahermosa, Tab., México",Restaurante mexicano, Abre a las 7a.m. del dom,Villahermosa
Waffle Chito Villahermosa,instagram.com,None Found,+52 993 227 9494,"Av Paseo Tabasco 306, Centro Delegacion Uno, 86077 Villahermosa, Tab., México",Restaurante de desayunos, Abre a las 8a.m. del dom,Villahermosa
La Organica,,None Found,+52 993 198 1686,"Av Pages Llergo 355-A, Nueva Villahermosa, 86070 Villahermosa, Tab., México",Tienda de ensaladas, Abre a las 7:30a.m. del lun,Villahermosa
Di Bari Pizzería suc. 27 de Febrero,dibaripizzeria.com,None Found,+52 993 315 7000,"Av. 27 de Febrero 1902, Centro, 86000 Villahermosa, Tab., México",Pizzería, 12a.m. ,Villahermosa
Arabe Bar,,None Found,+52 993 354 0062,"Boulevard Adolfo Ruiz Cortines 222b, Atasta, 86100 Villahermosa, Tab., México",Restaurante, Abre a las 12p.m. del dom,Villahermosa
Vips Villahermosa Centro,vips.com.mx,None Found,+52 33143971,"Av. Francisco I. Madero 402, Centro Delegacion Dos, 86038 Villahermosa, Tab., México",Restaurante mexicano, Abre a las 7a.m. del dom,Villahermosa
Carnes Asadas El Tapatio,facebook.com,None Found,+52 993 385 2980,"Av. de Las Americas 1364, Atasta de Serra, 86100 Villahermosa, Tab., México",Restaurante mexicano, Abre a las 7:30a.m. del dom,Villahermosa
PUNTO DE SAL,instagram.com,None Found,+52 993 230 5013,"Av Paseo Tabasco 1203-Local 3, Los Rios, 86035 Villahermosa, Tab TABASCO 2000, 86035 Villahermosa, Tab., México",Restaurante,,Villahermosa
Taquería El Niño,,None Found,,"Av. Gregorio Méndez Magaña 2616, Atasta de Serra, 86100 Villahermosa, Tab., México",Taquería, 12a.m. ,Villahermosa
Mariscos La Concordia,,None Found,+52 993 412 0065,"Perif. Carlos Pellicer Cámara #129, Real del Sur, Col. 1° de Mayo, 86190 Villahermosa, Tab., México",Marisquería,,Villahermosa
Vips Periférico Villahermosa,vips.com.mx,None Found,+52 31314117,"Prol. P.º Usumacinta 409, Guayabal, 86090 Villahermosa, Tab., México",Restaurante mexicano, Abre a las 7a.m. del dom,Villahermosa
"Pozolería y Antojitos ""Así es mi Tabasco""",facebook.com,None Found,+52 993 150 6011,"Cda. de Emilio Carranza 253, Cuadrante II, Atasta de Serra, 86100 Villahermosa, Tab., México",Restaurante mexicano, Abre a las 7a.m. del dom,Villahermosa
"Pozolería y Antojitos ""Así es mi Tabasco""",facebook.com,None Found,+52 993 150 6011,"Cda. de Emilio Carranza 253, Cuadrante II, Atasta de Serra, 86100 Villahermosa, Tab., México",Restaurante mexicano, Abre a las 7a.m. del dom,Villahermosa
SANTO PIKETE,linktr.ee,None Found,+52 993 354 9826,"hotel city express, av. ruiz cortines, Cuadrante II, Atasta de Serra, 86100 Villahermosa, Tab., México",Cafetería, Cierra a las 2a.m.,Villahermosa
FLAUTAS QUIQUE,,None Found,+52 993 314 9550,"Zaragoza, Cda. de Cuitláhuac 1186, carmen cadena, 86000 Villahermosa, Tab., México",Restaurante mexicano, Abre a las 10a.m. del dom,Villahermosa
Marbella Villahermosa,,None Found,+52 993 169 7752,"Boulevard Adolfo Ruiz Cortines 1840, Carrizal, 86108 Villahermosa, Tab., México",Restaurante, Cierra a las 2a.m.,Villahermosa
Koyobo Tequeños & Bites,tequenoskoyobo.com,None Found,+52 993 222 2420,"Al lado del Banco Santander sobre avenida, Calle Sagitario, Boulevard Adolfo Ruiz Cortines 101-local 10, Plaza, Loma Linda, 86050 Villahermosa, Tab., México",Restaurante,,Villahermosa
Restaurante Carnitas SA,,None Found,+52 993 315 0709,"Av. 27 de Febrero 1767, Atasta de Serra, 86100 Villahermosa, Tab., México",Restaurante de platos de carne, Abre a las 9a.m. del dom,Villahermosa
Capitolio Food Park,,None Found,,"Prolongación Av. 27 de Febrero #2908 Colonia, Tabasco 2000, 86035 Villahermosa, Tab., México",Restaurante, Abre a las 8a.m. del dom,Villahermosa
Botanero La María,instagram.com,None Found,+52 993 241 3819,"Av. paseo Tabasco 1203, Tabasco 2000-Local 4, 86035 Villahermosa, Tab., México",Restaurante mexicano, Cierra a las 2a.m.,Villahermosa
Maica Gastronomía Tradicional,instagram.com,None Found,+52 993 375 9255,"Avenida Paseo Tabasco 4002-4 Galaxia/ tabasco 2000, 86035 Villahermosa, Tab., México",Restaurante, Abre a las 8a.m. del dom,Villahermosa
Bisquets Atasta,,None Found,+52 993 106 2929,"Mercado de Atasta, C. Buena Vista, Atasta de Serra, 86100 Villahermosa, Tab., México",Restaurante,,Villahermosa
Lenchito Tortas,facebook.com,None Found,+52 993 354 0172,"La Vía 102, Cuadrante II, Atasta de Serra, 86100 Villahermosa, Tab., México",Restaurante de comida rápida, Abre a las 5p.m. del lun,Villahermosa
Barbacoa Villahermosa,,None Found,+52 993 333 9672,"Av. 27 de Febrero 1775, Atasta de Serra, 86100 Villahermosa, Tab., México",Restaurante especializado en barbacoa, Abre a las 8:30a.m. del dom,Villahermosa
Baggipasta,,None Found,+52 993 344 3401,"Cda. Revolución 120, Cuadrante II, Atasta de Serra, 86100 Villahermosa, Tab., México",Restaurante de comida para llevar, Abre a las 9a.m. del lun,Villahermosa
Leo A La Parrilla,,None Found,+52 993 135 6217,"Av Paseo de la Sierra 107, Reforma, 86080 Villahermosa, Tab., México",Hamburguesería, Abre a las 12p.m. del dom,Villahermosa
Leo,,None Found,+52 993 351 9889,"Mario, Av. Mario Brown Peralta 220, Pensiones, 86100 Villahermosa, Tab., México",Restaurante, Abre a las 11a.m. del dom,Villahermosa
La Pagoda,,None Found,+52 993 354 2751,"Prol. P.º Usumacinta 53, Col. Lindavista, 86035 Villahermosa, Tab., México",Restaurante chino, Abre a las 12p.m. del dom,Villahermosa
