Names,Website,Introduction,Phone Number,Address,Type,Opens At,Municipio
Restaurante El Sazón,restauranteelsazon.com,None Found,+52 55 5996 8973,"Av. Hidalgo 84, Hidalgo, 54420 Cdad. Nicolás Romero, Méx., México",Restaurante de desayunos, Abre a las 8a.m. del dom,Villa Nicolás Romero
King Monkey,,None Found,+52 729 616 1111,"Esquina con, Guadalupe Victoria, Primera Cda. Guadalupe Victoria, 54409 Cdad. Nicolás Romero, Méx., México",Restaurante, Cierra a la 1a.m.,Villa Nicolás Romero
Amanecer Ranchero,,None Found,+52 55 5823 1155,"Av. 1o. de Mayo 20, El Gavillero, 54459 Cdad. Nicolás Romero, Méx., México",Restaurante mexicano, Cierra a las 5a.m. del dom,Villa Nicolás Romero
Terraza Jr. Grill,,None Found,+52 55 2365 5461,"Francisco Villa Manzana 045, Libertad, 54407 Cdad. Nicolás Romero, Méx., México",Restaurante argentino, Abre a las 11a.m. del dom,Villa Nicolás Romero
Las arracheras,,None Found,+52 55 5828 0066,"Del Canal S/N, Col Morelos, 54455 Cdad. Nicolás Romero, Méx., México",Restaurante, Abre a las 10a.m. del dom,Villa Nicolás Romero
Sumo Buffet Nicolás Romero,sumobuffet.mx,None Found,,"20 de Noviembre Manzana 068, Vista Hermosa, 54414 Cdad. Nicolás Romero, Méx., México",Bar restaurante, 12a.m. ,Villa Nicolás Romero
MCCAÑAS,,None Found,,"C. Benito Juárez 94, Benito Juárez Barron, 54469 Cdad. Nicolás Romero, Méx., México",Restaurante, 12a.m. ,Villa Nicolás Romero
La Terraza De Villa,,None Found,,"Agua Caliente 1, Independencia, 54409 Cdad. Nicolás Romero, Méx., México",Restaurante, Cierra a las 2a.m.,Villa Nicolás Romero
Cantina el Sol,,None Found,+52 55 5823 1950,"Av. 16 de Septiembre 114, Centro, 54400 Cdad. Nicolás Romero, Méx., México",Pub restaurante, 12a.m. ,Villa Nicolás Romero
Restaurante Mi México Lindo,,None Found,+52 55 2168 5831,"Carretera A km 19, Carr. San Pedro Progreso 120, El Gavillero, 54459 Cdad. Nicolás Romero, Méx., México",Restaurante mexicano, Abre a las 9:30a.m. del dom,Villa Nicolás Romero
Restaurante Dennise,,None Found,,"Av la Colmena Manzana 040, Francisco Sarabia, 54473 Cdad. Nicolás Romero, Méx., México",Restaurante, Cierra a las 10a.m. del dom,Villa Nicolás Romero
Mariscos Chelo ll,,None Found,+52 55 5823 1395,"Calle 20 de Noviembre 8, Centro, 54400 Cdad. Nicolás Romero, Méx., México",Marisquería, Abre a las 10a.m. del dom,Villa Nicolás Romero
Marisquería veracruz,,None Found,+52 55 7226 4271,"Av. Hidalgo s/n, Los Manantiales, 54400 Cdad. Nicolás Romero, Méx., México",Marisquería, Cierra a las 8a.m. del dom,Villa Nicolás Romero
Santas Alitas Nicolás Romero,santasalitas.com,None Found,+52 56 4785 1703,"C. Juárez Manzana 028, Centro, 54400 Cdad. Nicolás Romero, Méx., México",Restaurante de alas de pollo, 12a.m. ,Villa Nicolás Romero
Los Sabores de México,losaboresdemexicof.wixsite.com,None Found,,"Atizapán 86, San Ildefonso, 54470 Cdad. Nicolás Romero, Méx., México",Restaurante mexicano, Abre a las 8a.m. del dom,Villa Nicolás Romero
Brother's Terraza,facebook.com,None Found,+52 55 3500 9977,"Av. de Los Pájaros 15B, Granjas Guadalupe, 54474 Cdad. Nicolás Romero, Méx., México",Restaurante, Abre a las 10a.m. del dom,Villa Nicolás Romero
La Celosa De Nicolas Romero,webnode.mx,None Found,+52 55 1510 6776,"Av. Hidalgo Manzana 018, Hidalgo, 54434 Cdad. Nicolás Romero, Méx., México",Bar restaurante, Cierra a las 2a.m.,Villa Nicolás Romero
The Munchies,facebook.com,None Found,+52 55 1624 7407,"Lirios 484, Vista Hermosa, 54414 Cdad. Nicolás Romero, Méx., México",Restaurante familiar, Cierra a las 11:36a.m. del dom,Villa Nicolás Romero
Los mamalones,,None Found,,"Emiliano Zapata s/n, Centro, 54435 Cdad. Nicolás Romero, Méx., México",Restaurante, Cierra a las 12p.m. del dom,Villa Nicolás Romero
Antojitos Mari Cecilia,,None Found,+52 55 2464 8295,"C. Lázaro Cárdenas 5, Independencia, 54409 Cdad. Nicolás Romero, Méx., México",Restaurante mexicano, Abre a las 8:30a.m. del lun,Villa Nicolás Romero
LA PALAPA,facebook.com,None Found,+52 55 6085 1908,"CDA. HIDALGO, Nicolás T Supermanzana BARRON, Benito Juárez Barron, 54469 Méx., México",Marisquería, Abre a las 2p.m. del dom,Villa Nicolás Romero
Restaurante Los Almendros,,None Found,+52 55 5823 0531,"Iturbide 50, Hidalgo, 54434 Cdad. Nicolás Romero, Méx., México",Restaurante familiar, Abre a las 12p.m. del dom,Villa Nicolás Romero
Fogonazo Parrilla y Amigos,facebook.com,None Found,+52 55 8908 9773,"Av. 16 de Septiembre 144, Himno Nacional, 54400 Cdad. Nicolás Romero, Méx., México",Restaurante familiar, Abre a las 2p.m. del dom,Villa Nicolás Romero
Birria Estilo Jalisco el primo,,None Found,+52 56 2746 8278,"Vía Corta a Morelia Manzana 029, Bosques de la Colmena, 54476 Cdad. Nicolás Romero, Méx., México",Restaurante de platos de carne, Abre a las 7:30a.m. del dom,Villa Nicolás Romero
"Restaurante Marisquero ""La Chocita""",,None Found,+52 55 5823 6977,"Guillermo Prieto 15, Centro, 54400 Cdad. Nicolás Romero, Méx., México",Marisquería, Abre a las 9a.m. del dom,Villa Nicolás Romero
Las Carboneras,,None Found,+52 55 9690 8877,"Col, C. Primera de Mayo 29, Hidalgo, 54434 Col Hidalgo, Méx., México",Restaurante, Abre a las 8a.m. del dom,Villa Nicolás Romero
Jonny El Rey de los Antojos,facebook.com,None Found,+52 56 1142 6991,"Boulevard Ignacio Zaragoza Número 16 colonia, Granjas Guadalupe, 54477 Cdad. Nicolás Romero, Méx., México",Restaurante, 12a.m. ,Villa Nicolás Romero
Casa Pachita. Restaurant Familiar,,None Found,+52 55 5823 1801,"54424, C. Mina 5650, Vicente Guerrero, Cdad. Nicolás Romero, Méx., México",Restaurante familiar, Abre a las 9a.m. del lun,Villa Nicolás Romero
Dave`S Garden,,None Found,,"Calle Niños Heroes 24, Independencia, 54409 Cdad. Nicolás Romero, Méx., México",Restaurante familiar, Abre a las 3p.m. del dom,Villa Nicolás Romero
Las alitas de charls,lasalitas.com,None Found,+52 55 4297 8765,"Av. 16 de Septiembre Manzana 021, Juarez centro, 54400 Cdad. Nicolás Romero, Méx., México",Restaurante de alas de pollo, Cierra a la 1a.m.,Villa Nicolás Romero
Restaurante el gloton,facebook.com,None Found,+52 55 8550 4125,"Cjon. del Charco Manzana 019, Hidalgo, 54434 Cdad. Nicolás Romero, Méx., México",Restaurante de comida rápida, Cierra a las 3a.m.,Villa Nicolás Romero
La Parrilla De Betos,,None Found,,"Manzana 021, Francisco I. Madero, 54467 Cdad. Nicolás Romero, Méx., México",Taquería, 12a.m. ,Villa Nicolás Romero
Que pozolizimo y algo más,facebook.com,None Found,+52 56 1567 0911,"Luis Procuna 3, San Isidro la Paz, 54477 Cdad. Nicolás Romero, Méx., México",Restaurante mexicano, Abre a las 9a.m. del dom,Villa Nicolás Romero
"Restaurante ""La Cabañita""",,None Found,,"Francisco I. Madero Manzana 034, Lomas de Guadalupe, 54417 Cdad. Nicolás Romero, Méx., México",Restaurante, Abre a las 5p.m. del dom,Villa Nicolás Romero
El Garage De La Güera,,None Found,+52 55 5158 9962,"Cda. Abasolo 4, 5 de Febrero, 54434 Cdad. Nicolás Romero, Méx., México",Restaurante, Cierra a la 1a.m.,Villa Nicolás Romero
AL PUNTO COCINA DE BARRIO,,None Found,,"Av. de Los Pájaros 1, Granjas Guadalupe, 54474 Cdad. Nicolás Romero, Méx., México",Restaurante, 12a.m. ,Villa Nicolás Romero
Sazón de Doña Tere,,None Found,,"Hermenegildo Galeana 4, Hidalgo, 54434 Cdad. Nicolás Romero, Méx., México",Restaurante mexicano, Abre a las 9a.m. del lun,Villa Nicolás Romero
El Jalisciense,,None Found,,"Nezahualcóyotl 9, Sta Anita la Bolsa, 54416 Cdad. Nicolás Romero, Méx., México",Restaurante, Abre a las 8a.m. del dom,Villa Nicolás Romero
Gausa 31,,None Found,+52 55 8075 2389,"Manzanillo 31, San Isidro la Paz, 54477 Cdad. Nicolás Romero, Méx., México",Restaurante familiar,,Villa Nicolás Romero
La chupeta Restaurante-Bar,m.facebook.com,None Found,,"Cda. de Lerdo de Tejada, Libertad, 54409 Cdad. Nicolás Romero, Méx., México",Bar, Abre a las 9a.m. del dom,Villa Nicolás Romero
Taquería el moreno,,None Found,+52 55 7612 2003,"Emiliano Zapata Manzana 049, El Trafico, 54435 Cdad. Nicolás Romero, Méx., México",Taquería, 12a.m. ,Villa Nicolás Romero
Marisquería Guayson,facebook.com,None Found,+52 55 8012 9174,"Manzana 016, Libertad, 54407 Cdad. Nicolás Romero, Méx., México",Marisquería, Abre a las 12p.m. del dom,Villa Nicolás Romero
El Pulpo Marisquería & Bar,facebook.com,None Found,+52 55 7938 0961,"Prolongación Juárez, 6 de Septiembre Esq, Benito Juárez, Centro, 54457 Cdad. Nicolás Romero, Méx., México",Marisquería, Abre a las 10a.m. del dom,Villa Nicolás Romero
Burger Factory Nicolás Romero,,None Found,+52 55 8751 7559,"Av. Hidalgo, Rtno. Hidalgo 55, Hidalgo, 54434 Cdad. Nicolás Romero, Méx., México",Hamburguesería, 12a.m. ,Villa Nicolás Romero
Restaurante El Fogon,,None Found,,"Calle 20 de Noviembre 10-Planta Alta, Centro, 54400 Cdad. Nicolás Romero, Méx., México",Restaurante mexicano, Cierra a la 1a.m.,Villa Nicolás Romero
"Ostionería ""Don Juan""",,None Found,+52 55 1660 5202,"Francisco González Bocanegra S/N, Independencia, 54457 Cdad. Nicolás Romero, Méx., México",Marisquería, Abre a las 10a.m. del dom,Villa Nicolás Romero
Matehual - Pozolería / Suc. El Charco,facebook.com,None Found,+52 55 3243 0138,"Av. Hidalgo 26, Hidalgo, 54434 Cdad. Nicolás Romero, Méx., México",Restaurante mexicano, Abre a las 10a.m. del dom,Villa Nicolás Romero
Tacos del Negro,,None Found,+52 55 3816 6684,"54413, Constitucionalistas 26, 5 de Febrero, Cdad. Nicolás Romero, Méx., México",Taquería, Cierra a la 1a.m.,Villa Nicolás Romero
Don chivo snack bar,,None Found,+52 55 7360 4921,"Arboledas Manzana 014, El Gavillero, 54459 Cdad. Nicolás Romero, Méx., México",Restaurante, Abre a las 10:30a.m. del lun,Villa Nicolás Romero
El Buen Comer Cocina Familiar,,None Found,,"Flores Manzana 038, San Isidro la Paz, 54477 Cdad. Nicolás Romero, Méx., México",Restaurante, Abre a las 8:30a.m. del lun,Villa Nicolás Romero
Taqueria Lucky,,None Found,+52 55 4453 0085,"Av. Hidalgo 80, Hidalgo, 54420 Cdad. Nicolás Romero, Méx., México",Taquería, 11:50p.m. ,Villa Nicolás Romero
La Esperanza,,None Found,+52 55 7603 4492,"Av. Nicolás Romero 8, Hidalgo, 54434 Cdad. Nicolás Romero, Méx., México",Restaurante, Abre a las 10a.m. del dom,Villa Nicolás Romero
El Fresno Cocina-Bar,,None Found,+52 55 9246 2460,"Vía Corta a Morelia S/N, Loma de la Cruz, 54407 Cdad. Nicolás Romero, Méx., México",Restaurante mexicano, Abre a las 9a.m. del dom,Villa Nicolás Romero
Mojitos mala fama,facebook.com,None Found,,"Prol Gardenias 12, Vista Hermosa, 54414 Cdad. Nicolás Romero, Méx., México",Restaurante familiar, Cierra a las 2a.m.,Villa Nicolás Romero
BOAR HAT Sushi & Ramen,facebook.com,None Found,+52 55 2948 7291,"Av. 16 de Septiembre, No. 63, Col. Miguel Hidalgo Plaza de la Tecnologia Nicolas Romero, Local 118, 120, 130 y 133, 54434 Cdad. Nicolás Romero, Méx., México",Restaurante japonés, Abre a las 12p.m. del dom,Villa Nicolás Romero
Hamburguesas Suspiro,,None Found,,"Av. 16 de Septiembre 79, Centro, 54400 Cdad. Nicolás Romero, Méx., México",Hamburguesería, Abre a las 10a.m. del dom,Villa Nicolás Romero
Mc. VIVI,,None Found,+52 55 7597 1807,"Cda. López Mateos 10, Vicente Guerrero, 54425 Cdad. Nicolás Romero, Méx., México",Restaurante, Abre a las 3p.m. del dom,Villa Nicolás Romero
Bufalos beer,,None Found,+52 55 6991 8137,"C. Juárez 1, Vista Hermosa, 54414 Cdad. Nicolás Romero, Méx., México",Bar, Cierra a la 1a.m.,Villa Nicolás Romero
Bendito Perrito,facebook.com,None Found,+52 55 4846 3338,"Av. México 959, Bulevares del Lago, 54476 Cdad. Nicolás Romero, Méx., México",, Abre a las 5p.m. del dom,Villa Nicolás Romero
Taqueria San Isidro,facebook.com,None Found,,"C. Rodolfo Gaona 13, San Isidro la Paz, 54477 Cdad. Nicolás Romero, Méx., México",Taquería, Cierra a la 1a.m.,Villa Nicolás Romero
Paulo's Pizza,facebook.com,None Found,+52 55 5821 0018,"Lago Bolsena 32, Centro, 54400 Cdad. Nicolás Romero, Méx., México",Pizzería, Abre a las 12p.m. del dom,Villa Nicolás Romero
Kasa Lily's,,None Found,+52 55 8751 1997,"Lago Bolsena Manzana 013, Los Manantiales, 54420 Cdad. Nicolás Romero, Méx., México",Restaurante, Abre a las 9a.m. del dom,Villa Nicolás Romero
Snak planet,,None Found,+52 55 1095 0188,"Av. Hidalgo 75, Hidalgo, 54434 Cdad. Nicolás Romero, Méx., México",Restaurante, Abre a la 1p.m. del dom,Villa Nicolás Romero
"Taqueria ""Los Grillos""",,None Found,+52 55 6741 0275,"54477, C. Rodolfo Gaona 120, San Isidro la Paz, Cdad. Nicolás Romero, Méx., México",Taquería, Cierra a las 2a.m.,Villa Nicolás Romero
En Boca de todos,facebook.com,None Found,+52 55 9144 0830,"C. Allende s/n, Hidalgo, 54434 Cdad. Nicolás Romero, Méx., México",Restaurante, Abre a las 9a.m. del lun,Villa Nicolás Romero
Las Cazuelas,negocio.site,None Found,+52 55 1188 3211,"Avenida barrón Barron, Centro, 54402 Cdad. Nicolás Romero, Méx., México",Restaurante, Abre a las 9a.m. del lun,Villa Nicolás Romero
Antojitos Mexicanos “Juan”,,None Found,,"Porfirio Díaz 5, Zaragoza, 54457 Cdad. Nicolás Romero, Méx., México",Restaurante, Abre a las 6:30p.m. del dom,Villa Nicolás Romero
Ombligo de la Luna Café,,None Found,+52 55 4082 5052,"C. Tlatelolco Manzana 004, Vista Hermosa, 54414 Cdad. Nicolás Romero, Méx., México",Restaurante, Abre a las 8a.m. del dom,Villa Nicolás Romero
Zona 5,,None Found,,"Cda. Monte Alto 14, 5 de Febrero, 54413 Cdad. Nicolás Romero, Méx., México",Restaurante,,Villa Nicolás Romero
Super Carnitas,,None Found,,"54434, Av. Nicolás Romero 29, Hidalgo, 54434 Cdad. Nicolás Romero, Méx., México",Taquería, Abre a las 9a.m. del dom,Villa Nicolás Romero
La Mansion Del Marisco,,None Found,+52 55 2901 7551,"Antigua Carr. a Nicolás Romero Manzana 042, Granjas Guadalupe, 54474 Cdad. Nicolás Romero, Méx., México",Marisquería, Abre a las 11a.m. del dom,Villa Nicolás Romero
El Tiburón,,None Found,+52 55 2168 0811,"Calle Ignacio Allende, Hidalgo, 54434, Nicolás romero, Edomex México 19.62303 N 99.31189 O, 54434 Mexico, Méx., México",Marisquería, Abre a las 11:30a.m. del dom,Villa Nicolás Romero
RESTAURANTE MT,mitakito.wordpress.com,None Found,,"De Las Flores 71, Vista Hermosa, 54414 Cdad. Nicolás Romero, Méx., México",Restaurante, Abre a las 9:30a.m. del dom,Villa Nicolás Romero
Tortas Eri,,None Found,,"Av. de Los Pájaros 78-B, Granjas Guadalupe, 54474 Cdad. Nicolás Romero, Méx., México",Restaurante de comida rápida, Abre a las 10a.m. del dom,Villa Nicolás Romero
La Cabaña Del Araña,,None Found,,"Manzana 034, San Isidro la Paz, 54477 Cdad. Nicolás Romero, Méx., México",Restaurante, Abre a las 10a.m. del lun,Villa Nicolás Romero
LOS MARTHO’S,,None Found,+52 55 6953 4798,"Av. Francisco I. Madero, Francisco I. Madero, 54467 Cdad. Nicolás Romero, Méx., México",Hamburguesería, Abre a las 2p.m. del dom,Villa Nicolás Romero
Azul Cafetería y Nevería,,None Found,,"Av la Colmena 13-B, Colmena Centro, 54475 Cdad. Nicolás Romero, Méx., México",Cafetería, Abre a las 3p.m. del lun,Villa Nicolás Romero
El Zar del Taco,,None Found,+52 55 1376 3087,"Emiliano Zapata 15 A, El Trafico, 54434 Cdad. Nicolás Romero, Méx., México",Taquería,,Villa Nicolás Romero
El sucio Dave,,None Found,+52 56 1856 1813,"C. Lázaro Cárdenas 147, Independencia, 54409 Cdad. Nicolás Romero, Méx., México",Restaurante, Abre a las 5p.m. del dom,Villa Nicolás Romero
EL CIELO,,None Found,,"C. Tepeyac 46, Guadalupe, 54413 Cdad. Nicolás Romero, Méx., México",Restaurante mexicano, 12a.m. ,Villa Nicolás Romero
EL CIELO,,None Found,,"C. Tepeyac 46, Guadalupe, 54413 Cdad. Nicolás Romero, Méx., México",Restaurante mexicano, 12a.m. ,Villa Nicolás Romero
La Rumbaaa,,None Found,+52 55 4584 8139,"Progreso 311, La Colmena, Colmena Centro, 54475 Cdad. Nicolás Romero, Méx., México",Restaurante,,Villa Nicolás Romero
"Antojitos Mexicanos ""Los Angeles""",,None Found,,"San Isidro la Paz, 54477 Cdad. Nicolás Romero, Méx., México",Restaurante, Cierra a las 4a.m.,Villa Nicolás Romero
Barbacoa Sabino,,None Found,+52 55 3008 6982,"Niños Heroes 12A, Hidalgo, 54434 Cdad. Nicolás Romero, Méx., México",Restaurante especializado en barbacoa, Abre a las 7a.m. del dom,Villa Nicolás Romero
Carnitas La Pilarica,,None Found,+52 56 2642 5337,"Cda. Monte Alto 10, 5 de Febrero, 54413 Cdad. Nicolás Romero, Méx., México",Restaurante, Abre a las 9a.m. del dom,Villa Nicolás Romero
mexico lindo,,None Found,,"Emiliano Zapata, El Trafico, 54400 Cdad. Nicolás Romero, Méx., México",Restaurante mexicano, Abre a las 10a.m. del dom,Villa Nicolás Romero
El Gran Dragón Rojo Restaurante,,None Found,,"Av. 16 de Septiembre 129-Primer Piso, Centro, 54400 Cdad. Nicolás Romero, Méx., México",Restaurante chino, Abre a las 11a.m. del dom,Villa Nicolás Romero
Little Caesars,,None Found,,"Av. 16 de Septiembre 28, Hidalgo, 54434 Cdad. Nicolás Romero, Méx., México",Pizzería, Abre a las 10a.m. del dom,Villa Nicolás Romero
BIGTACO,,None Found,+52 55 8467 7112,"Amado Nervo 1, Hidalgo, 54434 Cdad. Nicolás Romero, Méx., México",Taquería, Abre a las 2p.m. del dom,Villa Nicolás Romero
La papá con alas,,None Found,+52 55 4850 4534,"Av. Francisco I. Madero 120, Francisco I. Madero, 54467 Cdad. Nicolás Romero, Méx., México",Restaurante, Abre a la 1p.m. del dom,Villa Nicolás Romero
Gary gordas,,None Found,+52 56 3315 8194,"Fray Juan Zumarraga Manzana 010, San Ildefonso, 54470 Cdad. Nicolás Romero, Méx., México",Restaurante de comida rápida, Abre a las 11a.m. del dom,Villa Nicolás Romero
Lejano Oeste - Wild West,,None Found,,"Av. 16 de Septiembre 28, Zaragoza, 54435 Cdad. Nicolás Romero, Méx., México",Bar restaurante, Cierra a las 5p.m. del dom,Villa Nicolás Romero
El Sinaloense birrieria,sites.google.com,None Found,+52 55 8791 2572,"Lago Bolsena 4, Los Manantiales, 54420 Cdad. Nicolás Romero, Méx., México",Restaurante, Abre a las 9a.m. del dom,Villa Nicolás Romero
Tortas Charly,,None Found,+52 55 6989 2872,"C. Mariano Escobedo Manzana 018, Zaragoza, 54457 Cdad. Nicolás Romero, Méx., México",Restaurante de comida rápida, Abre a las 7a.m. del dom,Villa Nicolás Romero
La Ruta Fresca,facebook.com,None Found,+52 55 4268 1737,"Avenida La Comena, C. 24 de Febrero Esquina, 54473 Cdad. Nicolás Romero, Méx., México",Restaurante de brunch, Abre a las 6:30a.m. del lun,Villa Nicolás Romero
Betty's pizza,,None Found,+52 55 1844 7962,"Iturbide 65, Hidalgo, 54434 Cdad. Nicolás Romero, Méx., México",Pizzería, Abre a las 3p.m. del dom,Villa Nicolás Romero
Centro Marisquero Los Jarochos,,None Found,+52 55 2168 1074,"Lago Bolsena 22, Los Manantiales, 54420 Cdad. Nicolás Romero, Méx., México",Marisquería, Abre a las 10a.m. del dom,Villa Nicolás Romero
Sabor Casero,,None Found,+52 55 8706 3667,"Guillermo Prieto 10, Centro, 54400 Cdad. Nicolás Romero, Méx., México",Restaurante de brunch, Abre a las 12p.m. del dom,Villa Nicolás Romero
La Cabaña de Toño,facebook.com,None Found,+52 55 4516 3687,"Lago Zumpango Esquina con, Lago Bolsena, Los Manantiales, 54420 Cdad. Nicolás Romero, Méx., México",Restaurante de comida rápida, Abre a las 11a.m. del dom,Villa Nicolás Romero
"Pizzas y Empanadas ""Cheffcito""",,None Found,+52 55 1660 5280,"Cuevas 85, San Isidro la Paz, 54477 Cdad. Nicolás Romero, Méx., México",Pizzería, Abre a las 12p.m. del dom,Villa Nicolás Romero
Domino's Villa Nicolás,dominosmx.app.link,Cadena de comida a domicilio o para llevar con gran variedad de pizzas y otros platos y acompañamientos.,+52 55 5823 2323,"Av. Hidalgo 64 - A, Hidalgo 1A. Y 2A Sección, 54434 Cdad. Nicolás Romero, Méx., México",Pizzería, Abre a las 11a.m. del dom,Villa Nicolás Romero
Monkey Papas Nicolás Romero,,None Found,,"Supermanzana Ampliación Manzana 068, Vista Hermosa, 54414 Cdad. Nicolás Romero, Méx., México",Restaurante de comida rápida, Abre a las 10a.m. del dom,Villa Nicolás Romero
Hermano's Pizza,,None Found,+52 55 5821 4745,"Av. 16 de Septiembre 144, Himno Nacional, 54400 Cdad. Nicolás Romero, Méx., México",Pizzería, Abre a las 12p.m. del dom,Villa Nicolás Romero
Tortas Lupita II,,None Found,+52 55 3561 8543,"C. Juárez 30-B, Centro, 54400 Cdad. Nicolás Romero, Méx., México",Restaurante mexicano, Abre a las 9a.m. del dom,Villa Nicolás Romero
Comida China,,None Found,+52 56 2401 1345,"Lago de Patzcuaro 2, Los Manantiales, 54420 Cdad. Nicolás Romero, Méx., México",Restaurante chino, Abre a las 10a.m. del dom,Villa Nicolás Romero
Sushi Maki,sushicaliforniamaki.com,None Found,+52 55 4391 4438,"Av. 16 de Septiembre Manzana 042, Hidalgo, 54400 Cdad. Nicolás Romero, Méx., México",Restaurante de sushi, Abre a las 12p.m. del dom,Villa Nicolás Romero
Pizzas ''Maga'',,None Found,+52 55 5827 9710,"Revolución Manzana 021, San Juan Tlihuaca, 54466 Cdad. Nicolás Romero, Méx., México",Pizzería, Abre a las 12p.m. del dom,Villa Nicolás Romero
Al Chile Mole y Pozole,,None Found,,"Durango 3, Francisco I. Madero, 54467 Cdad. Nicolás Romero, Méx., México",Restaurante, 12a.m. ,Villa Nicolás Romero
Sushi Susai,facebook.com,None Found,+52 55 2210 9072,"Lago de Texcoco 25a, Cantaros III, Lomas de Guadalupe, 54416 Cdad. Nicolás Romero, Méx., México",Restaurante de sushi, Abre a las 2p.m. del dom,Villa Nicolás Romero
LA KASA DEL MOLE Y DON TEMO BEER,,None Found,+52 55 4949 8607,"Azahares Manzana 033, Vista Hermosa, 54414 Cdad. Nicolás Romero, Méx., México",Restaurante,,Villa Nicolás Romero
El Arte de hacer Sushi,facebook.com,None Found,+52 55 5821 9377,"Las Rosas, S. Juan Bernardino 3, 54413 Cdad. Nicolás Romero, Méx., México",Restaurante de sushi, Abre a las 2p.m. del dom,Villa Nicolás Romero
"Barbacoa de Borrego y Pollos ""El Viejito""",,None Found,,"Emiliano Zapata 57 Santa anita centro, 54434 Cdad. Nicolás Romero, Méx., México",Restaurante especializado en barbacoa, Abre a las 8a.m. del dom,Villa Nicolás Romero
Ramones pizza,,None Found,,"Cam. Real Manzana 001, Independencia, 54409 Cdad. Nicolás Romero, Méx., México",Pizzería, Abre a las 12p.m. del dom,Villa Nicolás Romero
Domino's Villa Nicolás Romero,dominosmx.app.link,Cadena de comida a domicilio o para llevar con gran variedad de pizzas y otros platos y acompañamientos.,+52 55 2210 9223,"Blvd. Arturo Montiel Rojas Ampliación-Km 10.7, Vista Hermosa, 54400 Cdad. Nicolás Romero, Méx., México",Pizzería, Abre a las 11a.m. del dom,Villa Nicolás Romero
"Rosticeria ""SAN ISIDRO""",,None Found,+52 55 8625 4421,"C. Rodolfo Gaona 235, San Isidro la Paz, 54477 Cdad. Nicolás Romero, Méx., México",Restaurante, Abre a las 8a.m. del dom,Villa Nicolás Romero
"Carnitas ""El Güero""",,None Found,,"Cda. López Mateos Manzana 043, Vicente Guerrero, 54424 Cdad. Nicolás Romero, Méx., México",Restaurante,,Villa Nicolás Romero
Pollos a la leña el charco,,None Found,+52 221 661 6939,"C. Primera de Mayo 10, Hidalgo, 54434 Cdad. Nicolás Romero, Méx., México",Restaurante, Abre a las 10a.m. del dom,Villa Nicolás Romero
Barbacoa JASSO,,None Found,+52 56 3257 1594,"54413, Girasoles 31, San Juan, 54413 Cdad. Nicolás Romero, Méx., México",Restaurante especializado en barbacoa,,Villa Nicolás Romero
"Taqueria ""El Primo""",,None Found,+52 55 1187 1964,"Emiliano Zapata 28, El Trafico, 54435 Cdad. Nicolás Romero, Méx., México",Taquería, Cierra a la 1a.m.,Villa Nicolás Romero
Don Taco,dontaco.com.mx,None Found,+52 55 2882 5633,"Av. 16 de Septiembre 94, Zaragoza, 54434 Cdad. Nicolás Romero, Méx., México",Taquería,,Villa Nicolás Romero
