Names,Website,Introduction,Phone Number,Address,Type,Opens At,Municipio
La Casona del Beaterio,,Pequeño y acogedor lugar con decorado colonial mexicano y patio interior que sirve cocina internacional.,+52 228 818 2119,"Ignacio Zaragoza 20, Zona Centro, Centro, 91000 Xalapa-Enríquez, Ver., México",Restaurante mexicano, Cierra a las 11:30p.m.,Xalapa-Enríquez
Asadero Cien Teatro,asaderocien.com,Cadena informal de restaurantes de comida a la parrilla con especialidades tradicionales y barbacoa.,+52 228 167 0797,"Av. Manuel Ávila Camacho 118, Centro, 91000 Xalapa-Enríquez, Ver., México",Restaurante mexicano, Cierra a las 11p.m.,Xalapa-Enríquez
Madison Grill Xalapa,madisongrill.mx,None Found,+52 228 813 7207,"Blvd. Europa 100, Balcones de Xalapa, 91193 Xalapa-Enríquez, Ver., México",Restaurante, Cierra a las 11p.m.,Xalapa-Enríquez
Postodoro,postodoro.com,"Sencillo comedor familiar con servicio de catering en donde se ofrece menú de ensaladas, pastas y pizzas.",+52 228 118 0008,"C. Primo Verdad 11, Zona Centro, Centro, 91000 Xalapa-Enríquez, Ver., México",Restaurante italiano, Cierra a las 11p.m.,Xalapa-Enríquez
Vadiro's Pastas & Grill,vadiros.mx,"Comedor clásico con toques hogareños, terraza y cava de vinos que presenta menú de mariscos, cortes y pastas.",+52 228 812 2976,"Calle Miguel Hidalgo 94, Zona Centro, Centro, 91000 Xalapa-Enríquez, Ver., México",Restaurante,,Xalapa-Enríquez
El Itacate Fonda,m.facebook.com,None Found,+52 228 165 0663,"Juan Soto N 4, Zona Centro, Centro, 91000 Xalapa-Enríquez, Ver., México",Restaurante mexicano, Abre a las 7:45a.m. del dom,Xalapa-Enríquez
La Central,facebook.com,None Found,+52 228 812 4006,"Jesús García 1, Zona Centro, Centro, 91000 Xalapa-Enríquez, Ver., México",Restaurante italiano, 10p.m. ,Xalapa-Enríquez
El Salto de Xala,,None Found,+52 228 236 0508,"Av Rafael Murillo Vidal 41, Ensueño, 91060 Xalapa-Enríquez, Ver., México",Restaurante mexicano, 10p.m. ,Xalapa-Enríquez
Estrela do Brasil,beacons.ai,None Found,+52 228 141 6149,"Encino 102, El Olmo, 91194 Xalapa-Enríquez, Ver., México",Restaurante brasileño,,Xalapa-Enríquez
Casa Vieja,,None Found,+52 228 812 0876,"González Ortega 10, Zona Centro, Centro, 91000 Xalapa-Enríquez, Ver., México",Pizzería, Cierra a las 12a.m.,Xalapa-Enríquez
Asadero Cien - Maestros Veracruzanos,asaderocien.com,"Lugar sofisticado de techo alto con filetes asados, costillas, hamburguesas, pizza y tacos.",+52 228 818 1181,"Maestros Veracruzanos 89, Modelo, 91040 Xalapa-Enríquez, Ver., México",Parrilla, Cierra a las 11p.m.,Xalapa-Enríquez
Cariño Mío Restaurante,facebook.com,None Found,+52 228 688 6243,"Gutiérrez Zamora 112-A, Zona Centro, Centro, 91000 Xalapa-Enríquez, Ver., México",Pizzería, 10:30p.m. ,Xalapa-Enríquez
La Moderna Xalapa,instagram.com,None Found,+52 228 857 2128,"Calle Miguel Hidalgo 67, colonia centro, Centro, 91000 Xalapa-Enríquez, Ver., México",Restaurante, Cierra a las 12a.m.,Xalapa-Enríquez
Asadero Cien Tejar,asaderocien.com,None Found,+52 228 841 0125,"Caxa #9, Alvaro Obregon, 91060 Xalapa-Enríquez, Ver., México",Parrilla, Cierra a las 11p.m.,Xalapa-Enríquez
Quinta Pico de Gallo,restaurantepicodegallo.com,None Found,,"Santos Degollado 81, Zona Centro, Centro, 91000 Xalapa-Enríquez, Ver., México",Restaurante mexicano, Cierra a las 12a.m.,Xalapa-Enríquez
Comida de Reyes,instagram.com,None Found,+52 228 112 3456,"Av. 20 de Noviembre 510-interior 7, Tatahuicapan, 91060 Xalapa-Enríquez, Ver., México",Restaurante mexicano, Cierra a las 11p.m.,Xalapa-Enríquez
La Estancia de los Tecajetes,tecajetes.com,"Lugar con vista al parque donde se sirven tacos, tortas, barbacoa, mariscos, jugos de frutas y cervezas.",+52 228 818 0732,"Manuel Ávila Camacho Tecajetes #90-12, Centro, 91000 Xalapa-Enríquez, Ver., México",Restaurante mexicano, Abre a las 7a.m. del dom,Xalapa-Enríquez
La Churreria de Xalapa,churreriadexalapa.com,None Found,+52 228 841 4961,"Guadalupe Victoria 158, Zona Centro, Centro, 91000 Xalapa-Enríquez, Ver., México",Restaurante mexicano, Cierra a las 12a.m.,Xalapa-Enríquez
El Asador,alacarta.mx,None Found,+52 228 812 2029,"Av. Manuel Ávila Camacho 60, Zona Centro, Centro, 91000 Xalapa-Enríquez, Ver., México",Restaurante mexicano, Cierra a las 2a.m.,Xalapa-Enríquez
La Cocina del Jey,facebook.com,None Found,+52 228 818 2521,"Corregidora, Ensueño, Centro, 91000 Xalapa-Enríquez, Ver., México",Pizzería, Cierra a las 12a.m.,Xalapa-Enríquez
MACARIO COCINA,macariococina.mx,None Found,+52 228 822 5521,"Insurgentes 3, Zona Centro, Centro, 91000 Xalapa-Enríquez, Ver., México",Restaurante mexicano, Cierra a las 11p.m.,Xalapa-Enríquez
Fogon do Brasil,,None Found,+52 228 420 4932,"2a Priv. Agua Santa 4, Col. Badillo, 91190 Xalapa-Enríquez, Ver., México",Parrilla, 10p.m. ,Xalapa-Enríquez
Vena Cava,facebook.com,None Found,+52 228 201 2744,"Av. Araucarias 139, Indeco Animas, 91190 Xalapa-Enríquez, Ver., México",Restaurante italiano, Cierra a las 11p.m.,Xalapa-Enríquez
Flor Catorce Centro,facebook.com,None Found,+52 228 812 0827,"José María Morelos 1, Zona Centro, Centro, 91000 Xalapa-Enríquez, Ver., México",Cafetería, Cierra a las 11p.m.,Xalapa-Enríquez
"New York, New York - Centro [ Xalapa ]",facebook.com,None Found,+52 228 839 1592,"Manlio Fabio Altamirano 37, Zona Centro, Centro, 91000 Xalapa-Enríquez, Ver., México",Hamburguesería, Cierra a las 11:30p.m.,Xalapa-Enríquez
El Llagar Xalapa,elllagar.com,None Found,+52 228 812 9395,"Local 8 Plaza del Sol, Av. Araucarias 56, Sipeh Animas, 91067 Xalapa-Enríquez, Ver., México",Restaurante de cocina española, Cierra a las 12a.m.,Xalapa-Enríquez
Doña Lucha Centro,solucionesmosaico.com,None Found,+52 228 319 3213,"C. José Joaquín Herrera 17, Zona Centro, Centro, 91000 Xalapa-Enríquez, Ver., México",Bar, Cierra a las 12a.m.,Xalapa-Enríquez
La Estancia Argentina Xalapa,grupoestancia.mx,None Found,+52 228 203 3231,"Prolongación Boulevard Europa. 100, Blvd. Europa 809, 91193 Xalapa-Enríquez, Ver., México",Restaurante argentino, Cierra a las 12a.m.,Xalapa-Enríquez
CHURRASCO Parrilla Argentina,churrasco.com.mx,None Found,+52 228 166 0999,"Maestros Veracruzanos 111, INFONAVIT Pomona, 91040 Xalapa-Enríquez, Ver., México",Restaurante argentino, Cierra a las 12a.m.,Xalapa-Enríquez
Vinissimo,,None Found,+52 228 812 9113,"Av. Araucarias 501-Local 1-A, Indeco Animas, 91067 Xalapa-Enríquez, Ver., México",Bar restaurante, Cierra a las 12a.m.,Xalapa-Enríquez
Asadero Cien Monte Magno,asaderocien.com,None Found,+52 228 688 5189,"Blvd. Europa 28, 91193 Xalapa-Enríquez, Ver., México",Parrilla, Cierra a las 11p.m.,Xalapa-Enríquez
Asadero Cien - Zaragoza,asaderocien.com,None Found,+52 228 817 7277,"Ignacio Zaragoza 8 Int. 1 A y 1 B, Nicolás Bravo 6, Centro, 91000 Xalapa-Enríquez, Ver., México",Restaurante mexicano, Cierra a las 11p.m.,Xalapa-Enríquez
Las Brasas Xalapa,,None Found,+52 229 457 2793,"Blvd. Europa 47, Residencial Monte Magno, 91193 Xalapa-Enríquez, Ver., México",Restaurante mexicano, Cierra a las 11p.m.,Xalapa-Enríquez
Jefe de Manzana,,None Found,+52 228 210 4516,"C. Antonio Pérez Rivera 92, El Mirador, 91170 Xalapa-Enríquez, Ver., México",Restaurante, Cierra a las 11:30p.m.,Xalapa-Enríquez
Restaurante Los Nopales,losnopalesrestaurant.com.mx,None Found,+52 228 233 1363,"Dr. Rafael Lucio 88, Zona Centro, Centro, 91000 Xalapa-Enríquez, Ver., México",Restaurante mexicano, Abre a las 9a.m. del dom,Xalapa-Enríquez
EL COMAL,,None Found,+52 228 814 5277,"Antonio Chedraui Caram 56B, Francisco Villa, 91150 Xalapa-Enríquez, Ver., México",Restaurante, 10p.m. ,Xalapa-Enríquez
Restaurante Apache Xalapa,apacherestaurante.com,"Carnes asadas y cocina mexicana en una palapa cálida con servicio al bar, música en vivo y atmósfera casual.",+52 228 377 9623,"Av Rafael Murillo Vidal 131, Cuauhtemoc, 91069 Xalapa-Enríquez, Ver., México",Restaurante mexicano, Abre a las 9a.m. del dom,Xalapa-Enríquez
Hosteria La Candela,pradodelrio.com,None Found,+52 228 812 1423,"Sebastián Camacho 6, Zona Centro, Centro, 91000 Xalapa-Enríquez, Ver., México",Restaurante, Abre a las 8a.m. del dom,Xalapa-Enríquez
Taquería Don Chema,facebook.com,None Found,+52 228 231 3798,"Av. Araucarias 81 A, Inmecafe, 91067 Xalapa-Enríquez, Ver., México",Taquería, Cierra a las 12a.m.,Xalapa-Enríquez
Vips Jalapa Centro,vips.com.mx,None Found,+52 800 900 8477,"Gutiérrez Zamora 4, Zona Centro, Centro, 91000 Xalapa-Enríquez, Ver., México",Restaurante mexicano, 10p.m. ,Xalapa-Enríquez
La Tasca del cantor Xalapa,,None Found,+52 228 132 6263,"Xicoténcatl 76, Zona Centro, Centro, 91000 Xalapa-Enríquez, Ver., México",Restaurante, Cierra a la 1:30a.m.,Xalapa-Enríquez
Ameyali Restaurante,ameyalirestaurante.com,None Found,+52 228 230 0687,"Art. 27 103, Agricola, 91195 Xalapa-Enríquez, Ver., México",Restaurante, Abre a las 8:30a.m. del dom,Xalapa-Enríquez
La Pérgola,,None Found,+52 228 817 4714,"Pergola 2, Lomas del Estadio, 91090 Xalapa-Enríquez, Ver., México",Restaurante de brunch, Abre a las 9a.m. del dom,Xalapa-Enríquez
La Gavia,lagaviarestaurante.com,"Establecimiento sencillo donde se sirven platos típicos, como chilaquiles, carnes asadas, enchiladas y mariscos.",+52 228 812 1368,"Maestros Veracruzanos 124, Col, INFONAVIT Pomona, 91049 Xalapa-Enríquez, Ver., México",Restaurante mexicano, Abre a las 8a.m. del dom,Xalapa-Enríquez
Restaurante La Güerita,,None Found,+52 228 201 0278,"Manlio Fabio Altamirano 43, Zona Centro, Centro, 91000 Xalapa-Enríquez, Ver., México",Restaurante mexicano, Abre a las 8a.m. del dom,Xalapa-Enríquez
Vips Xalapa Plaza Crystal,vips.com.mx,None Found,+52 800 900 8477,"C. Lázaro Cárdenas 321, El Encinar, 91800 Xalapa-Enríquez, Ver., México",Restaurante mexicano, 10p.m. ,Xalapa-Enríquez
La Enchiladería,,None Found,+52 228 251 9234,"Av Rafael Murillo Vidal 107, Ensueño, 91060 Xalapa-Enríquez, Ver., México",Restaurante mexicano, Abre a las 9a.m. del dom,Xalapa-Enríquez
Asadero Sonora,facebook.com,None Found,+52 228 129 7919,"Av. Adolfo Ruiz Cortines 3011, Virginia Cordero de Murillo Vidal, 91017 Xalapa-Enríquez, Ver., México",Restaurante de platos de carne, 10p.m. ,Xalapa-Enríquez
Cafe y Restaurante La Parroquia,,None Found,+52 228 817 4436,"Ignacio Zaragoza 18, Zona Centro, Centro, 91000 Xalapa-Enríquez, Ver., México",Restaurante mexicano, Abre a las 8:15a.m. del dom,Xalapa-Enríquez
Restaurante Mariscos VillaRica,villa-rica.com,"Concurrida marisquería familiar con platillos tradicionales de la región, decorado como palapa tropical.",+52 228 820 3025,"Av Rafael Murillo Vidal 31, Cuauhtemoc, 91069 Xalapa-Enríquez, Ver., México",Marisquería, Abre a las 8a.m. del dom,Xalapa-Enríquez
Sotelo El lado oscuro de la pizza,,None Found,+52 228 229 6245,"Juventino Rosas 1, Zona Centro, Centro, 91000 Xalapa-Enríquez, Ver., México",Pizzería, 10p.m. ,Xalapa-Enríquez
Mariscos Uscanga Xalapa,,None Found,+52 228 468 1990,"C. Carlos II 10, Revolucion, 91100 Xalapa-Enríquez, Ver., México",Marisquería, Abre a las 10a.m. del dom,Xalapa-Enríquez
Inanna Rooftop,facebook.com,None Found,+52 228 824 7802,"Principal 4, Pastoresa, 91193 Xalapa-Enríquez, Ver., México",Restaurante, Cierra a las 3a.m.,Xalapa-Enríquez
Inanna Rooftop,facebook.com,None Found,+52 228 824 7802,"Principal 4, Pastoresa, 91193 Xalapa-Enríquez, Ver., México",Restaurante, Cierra a las 3a.m.,Xalapa-Enríquez
Totomoxtle - Cocina,,None Found,+52 228 777 2403,"Plaza Gastronómica San José Local 9, 91000 Xalapa-Enríquez, Ver., México",Restaurante, 10p.m. ,Xalapa-Enríquez
La Cocina de Doña Clarita,facebook.com,None Found,+52 228 423 2521,"5 de febrero esquina Poeta Jesús Díaz Centro, 91000 Xalapa-Enríquez, Ver., México",Restaurante, Abre a las 9a.m. del dom,Xalapa-Enríquez
La Cava Catalana,,None Found,+52 228 817 4561,"Av Rafael Murillo Vidal 134, Ensueño, 91060 Xalapa-Enríquez, Ver., México",Restaurante de cocina española, 10p.m. ,Xalapa-Enríquez
Chiquitita Xalapa,linktr.ee,None Found,+52 228 497 2985,"Justino Sarmiento, C. Pablo Casals 40 Esq, 91140 Xalapa-Enríquez, Ver., México",Hamburguesería, Cierra a las 11p.m.,Xalapa-Enríquez
Picrecha,,None Found,+52 228 367 5806,"Xalapeños Ilustres 144, Zona Centro, Centro, 91000 Xalapa-Enríquez, Ver., México",Pizzería, Cierra a las 11p.m.,Xalapa-Enríquez
Los Arcos,,None Found,+52 228 817 6180,"Av. Pípila 122, Jose Cardel, 91030 Xalapa-Enríquez, Ver., México",Marisquería, Abre a las 10:30a.m. del dom,Xalapa-Enríquez
Trattoria Giovanni,facebook.com,"Cálido restaurante familiar con entrega a domicilio que ofrece pizzas a la leña, pastas y ensaladas.",+52 228 817 9717,"Gutiérrez Zamora 103, Zona Centro, Centro, 91000 Xalapa-Enríquez, Ver., México",Restaurante italiano, 10:30p.m. ,Xalapa-Enríquez
Restaurante Buffet Usileña Mía,facebook.com,None Found,+52 228 318 2190,"José Azueta 3-A, Zona Centro, Centro, 91000 Xalapa-Enríquez, Ver., México",Buffet libre, Abre a las 8:30a.m. del dom,Xalapa-Enríquez
Casa Elo,,None Found,+52 228 411 3988,"Nicolás Bravo 1, Zona Centro, Centro, 91000 Xalapa-Enríquez, Ver., México",Restaurante, Cierra a las 11p.m.,Xalapa-Enríquez
El Guajiro,,None Found,+52 228 817 4220,"Cayetano Rodríguez Beltrán 71, Zona Centro, Centro, 91000 Xalapa-Enríquez, Ver., México",Marisquería, Abre a las 11a.m. del dom,Xalapa-Enríquez
Don Churrasco,facebook.com,None Found,+52 228 303 5460,"Av. Pípila 231, El Mirador, 91170 Xalapa-Enríquez, Ver., México",Restaurante, 10p.m. ,Xalapa-Enríquez
Xalapeño Pepper Jardines,,None Found,+52 228 814 8925,"C. Joaquín Arroniz 7, 7 de Noviembre, 91150 Xalapa-Enríquez, Ver., México",Restaurante mexicano, Cierra a las 2a.m.,Xalapa-Enríquez
BACAN MACUT,facebook.com,None Found,+52 228 841 1516,"Av. 20 de Noviembre 532, Alvaro Obregon, 91066 Xalapa-Enríquez, Ver., México",Restaurante mexicano, Abre a las 9a.m. del dom,Xalapa-Enríquez
Los Portalitos,losportalitos.com,None Found,+52 228 688 5679,"Av. Araucarias 176, Indeco Animas, 91190 Xalapa-Enríquez, Ver., México",Restaurante mexicano, 10p.m. ,Xalapa-Enríquez
Mocafetos Restaurante,,None Found,+52 228 818 2222,"Guadalupe Victoria 163, Zona Centro, Centro, 91000 Xalapa-Enríquez, Ver., México",Restaurante mexicano, Abre a las 9a.m. del dom,Xalapa-Enríquez
La Tóxica Xalapa,,None Found,+52 228 234 1871,"Av. Granada 30A Colonia sumidero, Xalapa, Mexico, 91180 Xalapa-Enríquez, Ver., México",Restaurante americano, Cierra a las 11p.m.,Xalapa-Enríquez
La Ostra,,None Found,+52 228 830 6277,"C López Arias 101, Francisco Villa, 91173 Xalapa-Enríquez, Ver., México",Restaurante, Abre a las 8a.m. del dom,Xalapa-Enríquez
Noyolo Restaurante,facebook.com,None Found,+52 228 357 0760,"Francisco Javier Clavijero 239A, Zona Centro, Centro, 91000 Xalapa-Enríquez, Ver., México",Restaurante,,Xalapa-Enríquez
Parrilla Bifecito,,None Found,+52 228 469 3805,"Av Rafael Murillo Vidal 238, Cuauhtemoc, 91069 Xalapa-Enríquez, Ver., México",Restaurante argentino, Cierra a las 12a.m.,Xalapa-Enríquez
Barra de Alvarado,,None Found,+52 228 103 2712,"Encanto 29, Los Laureles, 91030 Xalapa-Enríquez, Ver., México",Marisquería, Abre a las 11:30a.m. del dom,Xalapa-Enríquez
Italianni's Xalapa,italiannis.com.mx,None Found,+52 228 813 9998,"Plaza San Marcos S/N-Local 6L, Pastoresa, 91193 Xalapa-Enríquez, Ver., México",Restaurante italiano, 10p.m. ,Xalapa-Enríquez
El MORRO,,None Found,+52 228 363 2190,"C. Revolución 324, Centro, 91000 Xalapa-Enríquez, Ver., México",Marisquería,,Xalapa-Enríquez
La Carcajada de Ray,,None Found,+52 228 103 0487,"C Rojano 29, Zona Centro, Centro, 91000 Xalapa-Enríquez, Ver., México",Restaurante mexicano, Abre a las 8:30a.m. del lun,Xalapa-Enríquez
Restaurante Zacahuilt Huasteco,,None Found,+52 228 100 8300,"Manuel D. Boza 15, Col del Maestro, 91130 Xalapa-Enríquez, Ver., México",Restaurante mexicano, Abre a las 9a.m. del dom,Xalapa-Enríquez
Restaurante Chiltepín,hotelklimtxalapa.com,None Found,+52 228 367 2613,"Av Miguel Alemán 310, Laderas del Macuiltepetl, 91133 Xalapa-Enríquez, Ver., México",Restaurante, Abre a las 7a.m. del dom,Xalapa-Enríquez
El Choro Avenida Xalapa,,None Found,+52 228 200 8097,"91130, Av. Xalapa 810, Progreso Macuiltepetl, Xalapa-Enríquez, Ver., México",Restaurante de comida rápida,,Xalapa-Enríquez
Los Jarochitos,,None Found,+52 228 853 5301,"Independencia, Los Laureles, 91037 Xalapa-Enríquez, Ver., México",Marisquería, Abre a las 9a.m. del dom,Xalapa-Enríquez
El Puerto de Alvarado,,None Found,+52 228 815 1401,"J. J. Coronado 301, Col del Maestro, 91030 Xalapa-Enríquez, Ver., México",Marisquería, Abre a las 11a.m. del dom,Xalapa-Enríquez
IHOP Xalapa,ihopmexico.com,Cadena de larga data que sirve gran variedad de panqueques y otras comidas de desayuno y cena estadounidenses.,+52 228 688 5705,"Centro Comercial Plaza Las Américas, Carretera Federal Xalapa – Veracruz Km. 2.6, LOC RS3, 253-A, Pastoresa, 91193 Xalapa-Enríquez, Ver., México",Restaurante americano, Abre a las 8a.m. del dom,Xalapa-Enríquez
Las Gordas Monte Magno,,None Found,+52 228 688 1007,"Europa 28 Int. 26, Monte Magno, 91193 Xalapa-Enríquez, Ver., México",Restaurante mexicano, Abre a las 9a.m. del dom,Xalapa-Enríquez
Tezcalli cocina mexicana,menu.plick.app,None Found,+52 228 321 0521,"C. Joaquín Arroniz 7, Jardines de Xalapa, 91150 Xalapa-Enríquez, Ver., México",Restaurante, 10p.m. ,Xalapa-Enríquez
Restaurante Habanero Xalapa,habaneromx.com.mx,None Found,+52 228 190 0110,"Carretera Xalapa Veracruz, Paseo de las Animas 271, Fuentes de las Animas, 91190 Xalapa-Enríquez, Ver., México",Restaurante mexicano,,Xalapa-Enríquez
Garibaldi Cocina Mexicana Xalapa,facebook.com,None Found,+52 228 424 2732,"Av Ferrocarril Interoceánico 121, El Mirador, 91170 Xalapa-Enríquez, Ver., México",Restaurante mexicano, Abre a las 9a.m. del dom,Xalapa-Enríquez
Maíz Restaurante,,None Found,,"Milán 30, Zona Centro, Centro, 91000 Xalapa-Enríquez, Ver., México",Restaurante mexicano, Abre a las 8:30a.m. del lun,Xalapa-Enríquez
Varadero Xalapa,,None Found,+52 228 367 1727,"C. Lázaro Cárdenas 302-Int 10, Ferrocarrilera, 91016 Xalapa-Enríquez, Ver., México",Restaurante, Abre a las 9a.m. del dom,Xalapa-Enríquez
El Tártaro Xalapa Restaurante-bar,,None Found,+52 228 272 8430,"C. Ignacio de la Llave 7, Represa del Carmen, 91050 Xalapa-Enríquez, Ver., México",Bar restaurante, Cierra a las 12a.m.,Xalapa-Enríquez
La Cevichería,,None Found,+52 667 315 7792,"C. Primavera 13, Los Ángeles, 91064 Xalapa-Enríquez, Ver., México",Marisquería, Abre a las 10:30a.m. del dom,Xalapa-Enríquez
Trattoria Romanelo,romanelo.com.mx,None Found,+52 228 688 5333,"Blvd. Europa 28, Monte Magno, 91193 Xalapa-Enríquez, Ver., México",Restaurante, Cierra a las 12a.m.,Xalapa-Enríquez
Tacos La Vecindad Suc. Enriquez,facebook.com,Oferta extensa de platos mexicanos y especialidad de tacos al pastor en un local acogedor con aire de barrio.,+52 228 818 3265,"Juan de La Luz Enríquez 12, Zona Centro, Centro, 91000 Xalapa-Enríquez, Ver., México",Taquería, Cierra a las 11p.m.,Xalapa-Enríquez
Don Rudo Xalapa Centro,,None Found,+52 228 318 2553,"C. Francisco I. Madero 38, Zona Centro, Centro, 91000 Xalapa-Enríquez, Ver., México",Hamburguesería, Cierra a las 11p.m.,Xalapa-Enríquez
Loving Hut Xalapa,facebook.com,Local de cadena vegana con servicio por mostrador y menús de estilo asiático que varían según la ubicación.,+52 228 843 5005,"Av. Orizaba 207-altos, Obrero Campesina, 91020 Xalapa-Enríquez, Ver., México",Restaurante vegano, Abre a las 10a.m. del dom,Xalapa-Enríquez
La Tampiqueña,,None Found,+52 228 307 0081,"Antonio Chedraui Caram 295, Salvador Diaz Miron, 91173 Xalapa-Enríquez, Ver., México",Taquería, Cierra a las 3a.m.,Xalapa-Enríquez
Mariscos México,,None Found,+52 228 165 1789,"Gral. Adalberto Tejeda 43, Pumar, 91040 Xalapa-Enríquez, Ver., México",Marisquería, Abre a las 9a.m. del dom,Xalapa-Enríquez
Nico´s,,None Found,+52 228 817 9985,"Eduardo Coronel 137, Dos de Abril, 91030 Xalapa-Enríquez, Ver., México",Marisquería, Abre a las 11a.m. del dom,Xalapa-Enríquez
Nico´s,,None Found,+52 228 817 9985,"Eduardo Coronel 137, Dos de Abril, 91030 Xalapa-Enríquez, Ver., México",Marisquería, Abre a las 11a.m. del dom,Xalapa-Enríquez
Azabache Terraza,facebook.com,None Found,+52 228 266 1144,"Av. Lázaro Cárdenas 302. Av. Lázaro Cárdenas, Esq. Andador Encanto 302, 91179 Xalapa-Enríquez, Ver., México",Restaurante, Cierra a las 12a.m.,Xalapa-Enríquez
Taquería Los Faroles,facebook.com,None Found,+52 228 165 3616,"Calle Pípila #161 casi esq con, Av. Américas, Jose Cardel, 91030 Xalapa-Enríquez, Ver., México",Taquería, Cierra a las 12a.m.,Xalapa-Enríquez
"Taqueria ""Servi-Tacos""",,None Found,+52 228 179 9995,"Circuito Palmeras #180 Esq, Calle Almendros, Arboledas de Xalapa, 91150 Xalapa-Enríquez, Ver., México",Restaurante, Cierra a las 12a.m.,Xalapa-Enríquez
La Bodega del Tiburón,,None Found,+52 228 817 4721,"Av. Pípila 336, El Mirador, 91170 Xalapa-Enríquez, Ver., México",Restaurante, Abre a las 8a.m. del dom,Xalapa-Enríquez
Antojitos Méxicanos,ueniweb.com,None Found,+52 228 841 9541,"C. Hernán Cortes 202, Dos de Abril, 91030 Xalapa-Enríquez, Ver., México",Restaurante mexicano, Cierra a las 12a.m.,Xalapa-Enríquez
Gorditas Monica,login.aplicacionespymes.com,None Found,+52 228 815 4697,"Monterrey 42, Progreso Macuiltepetl, 91030 Xalapa-Enríquez, Ver., México",Restaurante, Abre a las 8:30a.m. del dom,Xalapa-Enríquez
You He,,None Found,+52 228 817 3052,"Leandro Valle 3, Zona Centro, Centro, 91000 Xalapa-Enríquez, Ver., México",Restaurante chino, Abre a las 10:30a.m. del dom,Xalapa-Enríquez
El Famoso Jalapeño,facebook.com,None Found,+52 228 468 3944,"Insurgentes 138, Zona Centro, Centro, 91000 Xalapa-Enríquez, Ver., México",Restaurante, Abre a las 8a.m. del dom,Xalapa-Enríquez
El Pacífico,,None Found,+52 228 815 0687,"Manuel C. Tello 103, Col del Maestro, 91030 Xalapa-Enríquez, Ver., México",Marisquería, Abre a las 10a.m. del dom,Xalapa-Enríquez
La Mantarraya,,None Found,+52 228 201 7915,"Av Miguel Alemán 65B, Aguacatal, 91133 Xalapa-Enríquez, Ver., México",Restaurante, Abre a las 10a.m. del dom,Xalapa-Enríquez
Chilaquiles Amannin,m.facebook.com,None Found,+52 228 253 1219,"91030, Gral. Manuel Rincón 53, Dos de Abril, 91030 Xalapa-Enríquez, Ver., México",Restaurante, Abre a las 9a.m. del dom,Xalapa-Enríquez
Wabi-Sabi,facebook.com,None Found,+52 228 317 9199,"91170, Cándido Aguilar 76, El Mirador, Xalapa-Enríquez, Ver., México",Restaurante japonés, Abre a las 2p.m. del dom,Xalapa-Enríquez
LA Divina Xalapa,,None Found,+52 228 342 9193,"Av Venustiano Carranza 278, Felipe Carrillo Puerto, 91080 Xalapa-Enríquez, Ver., México",Parrilla,,Xalapa-Enríquez
Las Olivias,ubereats.com,None Found,+52 228 255 7773,"Av. 20 de Noviembre oriente 323, Los Laureles, 91037 Xalapa-Enríquez, Ver., México",Restaurante, Abre a las 8a.m. del lun,Xalapa-Enríquez
"La Birrieria Xalapa ""4 Rumbos""",facebook.com,None Found,+52 228 424 2325,"Francisco, C. Francisco Lagos Cházaro 2, El Mirador, 91037 Xalapa-Enríquez, Ver., México",Restaurante, Abre a las 9a.m. del dom,Xalapa-Enríquez
Restaurante Pelicano's,,None Found,+52 228 851 9463,"Av. Justino Sarmiento 34, Centro, 91000 Xalapa-Enríquez, Ver., México",Restaurante mexicano, Abre a las 10a.m. del dom,Xalapa-Enríquez
Shintai Paseo Jardines,,None Found,+52 228 420 6092,"C. Lázaro Cárdenas 306, INDEPENDENCIA NORTE, 91170 Xalapa-Enríquez, Ver., México",Restaurante japonés, 10p.m. ,Xalapa-Enríquez
La palapa del Pirata,facebook.com,None Found,+52 228 406 8145,"Av. Pípila 113, Jose Cardel, 91030 Xalapa-Enríquez, Ver., México",Marisquería, Abre a las 9a.m. del dom,Xalapa-Enríquez
Restaurant Catemaco,,None Found,+52 228 815 6582,"Av. Américas 111, Jose Cardel, 91133 Xalapa-Enríquez, Ver., México",Marisquería, Abre a las 12p.m. del dom,Xalapa-Enríquez
"Birrieria ""El Chivo Expiatorio""",,None Found,+52 228 848 5519,"Corregidora, Calle Josefa Ortiz de Domínguez #35, Zona Centro, 91000 Xalapa-Enríquez, Ver., México",Restaurante familiar, Abre a las 9a.m. del dom,Xalapa-Enríquez
Restaurante Nuevo Tamiahua,,None Found,+52 228 814 4973,"Av. Orizaba 38, Veracruz, 91020 Xalapa-Enríquez, Ver., México",Restaurante mexicano, Abre a las 11a.m. del dom,Xalapa-Enríquez
