Names,Website,Introduction,Phone Number,Address,Type,Opens At,Municipio
La Mendoza,lamendoza.com.mx,None Found,+52 351 512 3191,"Avenue Virrey de Mendoza Ote. 1, La Luneta Oriente, 59680 Zamora de Hidalgo, Mich., México",Restaurante, Abre a la 1p.m.,Zamora de Hidalgo
La Pantera Rosa,restaurantlapanterarosa.com,"Restaurante antiguo y colorido de gastronomía michoacana, como carne cocida en su jugo.",+52 351 512 1866,"C. Hidalgo Sur 234 Sur, Centro, 59600 Zamora de Hidalgo, Mich., México",Restaurante mexicano, Abre a las 9:30a.m.,Zamora de Hidalgo
CHILAO Restaurante,,None Found,+52 351 142 0170,"Av del Árbol 627, Las Fuentes, 59699 Zamora de Hidalgo, Mich., México",Pizzería, Abre a la 1p.m.,Zamora de Hidalgo
Lola de Mar Zamora,,None Found,,"Carretera Nacional 35 Km 5.7, 59724 Zamora de Hidalgo, Mich., México",Marisquería, Abre a las 11:30a.m.,Zamora de Hidalgo
Madonna Trattoria,madonnatrattoria.com.mx,None Found,+52 351 306 4035,"Av. Manuel Gómez Morín 252, Asentamientos Irregulares, 59683 Zamora de Hidalgo, Mich., México",Restaurante italiano, Abre a la 1p.m.,Zamora de Hidalgo
Puerto Barraco,puertobarraco.com,None Found,+52 351 512 3199,"Av. Manuel Gómez Morín 244, Santa Maria, 59684 Zamora de Hidalgo, Mich., México",Marisquería, Abre a la 1p.m.,Zamora de Hidalgo
La Lola - Cocktail Bar & Lounge,lalolabar.com.mx,None Found,+52 351 690 0686,"Vasco de Quiroga #50 Esquina, con República, 59670 Zamora de Hidalgo, Mich., México",Pub restaurante, Abre a la 1p.m.,Zamora de Hidalgo
Gordo Social Grill,gordogrill.mx,None Found,+52 351 182 4783,"Pino Suárez Sur. 515 A Colonia Centro de, 59600 Zamora de Hidalgo, Mich., México",Restaurante, Abre a la 1:30p.m.,Zamora de Hidalgo
Olivo Negro Bistro,olivonegrobistro.com,None Found,+52 351 512 1348,"Av. Manuel Gómez Morín 213, Bugambilias, Asentamientos Irregulares, 59684 Zamora de Hidalgo, Mich., México",Restaurante, Abre a la 1:30p.m.,Zamora de Hidalgo
Sonora A Las Brasas,,None Found,,"59660, 20 de Noviembre 434 3511367725, 59664 Zamora de Hidalgo, Mich., México",Restaurante, Abre a las 11a.m.,Zamora de Hidalgo
Arte y Carne Steak & Art,,None Found,+52 351 137 5653,"Dr. Verduzco Sur 1200, Los Laureles, 59674 Zamora de Hidalgo, Mich., México",Restaurante de platos de carne, Abre a la 1:30p.m.,Zamora de Hidalgo
Restaurante Doña Mary Desde 1955,,None Found,,"Morelos Sur 712, Jardinadas, 59680 Zamora de Hidalgo, Mich., México",Restaurante mexicano, Abre a las 9a.m.,Zamora de Hidalgo
Arracheras RC,,None Found,+52 351 512 5423,"Avenue Virrey de Mendoza Ote. 753, Jardinadas, 59680 Zamora de Hidalgo, Mich., México",Restaurante,,Zamora de Hidalgo
Carnes Toluca,,None Found,+52 351 515 0212,"5 de Mayo 103, Centro, 59670 Zamora de Hidalgo, Mich., México",Restaurante de platos de carne, Abre a las 12p.m.,Zamora de Hidalgo
Casa Carmelita,,None Found,+52 351 512 0180,"Francisco I. Madero Sur 313, Centro, 59680 Zamora de Hidalgo, Mich., México",Buffet libre, Abre a las 7a.m.,Zamora de Hidalgo
Villa del Mar,,None Found,+52 351 512 0687,"Avenue Virrey de Mendoza Ote. 196-A, Jardinadas, 59680 Zamora de Hidalgo, Mich., México",Marisquería, Abre a las 12:30p.m.,Zamora de Hidalgo
Nostra,,None Found,+52 351 515 2284,"Gral. Manuel Ávila Camacho Ote. 462, Jardines de Catedral, 59670 Zamora de Hidalgo, Mich., México",Restaurante japonés, Abre a la 1:30p.m.,Zamora de Hidalgo
Restaurante Paco's,,None Found,+52 351 512 2276,"Av. Ferrocarril Ote. 122, Nuevo, El Jerico, 59630 Zamora de Hidalgo, Mich., México",Marisquería, Abre a las 12p.m.,Zamora de Hidalgo
Diablo Wings,facebook.com,None Found,+52 351 136 2432,"Martínez de Navarrete 20-20, La Medallita, Centro, 59675 Zamora de Hidalgo, Mich., México",Bar, Abre a las 2p.m.,Zamora de Hidalgo
La Zanahoria Del Sol,,None Found,+52 351 512 2671,"C. Hidalgo Sur 204, Centro, 59600 Zamora de Hidalgo, Mich., México",Restaurante, Abre a las 9a.m.,Zamora de Hidalgo
Asador & Paparazzi,facebook.com,None Found,+52 351 512 1903,"Avenue Virrey de Mendoza Ote. 19-B, La Luneta Oriente, 59600 Zamora de Hidalgo, Mich., México",Parrilla, Abre a las 11a.m.,Zamora de Hidalgo
Magnolia lounge,,None Found,+52 351 183 2409,"Morelos, C. Michoacán esquina, El Teco, El Jerico, 59630 Zamora de Hidalgo, Mich., México",Restaurante, Abre a las 10a.m.,Zamora de Hidalgo
Garfield's,,None Found,+52 351 688 0289,"Francisco I. Madero Sur 418, Centro, 59600 Ejido del Centro, Mich., México",Hamburguesería, Abre a la 1:30p.m.,Zamora de Hidalgo
El Rincón de Frida,,None Found,,"Educación 998C, Issste, 59688 Zamora de Hidalgo, Mich., México",Restaurante, Abre a las 6p.m.,Zamora de Hidalgo
Toño y Charly's,tono-y-charly-s.ueniweb.com,None Found,+52 351 517 1134,"Francisco I. Madero Norte #400, Galeana, Colonia, 59610 Zamora de Hidalgo, Mich., México",Marisquería, Abre a las 10:30a.m.,Zamora de Hidalgo
Mr Hunter MX tacos&quesadillas,,None Found,+52 351 517 8574,"Prol. 5 de Mayo #464-A, El Jerico, 59630 Zamora de Hidalgo, Mich., México",Restaurante mexicano, Abre a la 1p.m.,Zamora de Hidalgo
Lonchería Mary Fer,,None Found,+52 351 515 7652,"C. Hidalgo Sur 308, Centro, 59600 Zamora de Hidalgo, Mich., México",Restaurante mexicano, 5a.m. ,Zamora de Hidalgo
La placita restaurante,,None Found,+52 351 118 2626,"Morelos Sur 155, Centro, 59600 Zamora de Hidalgo, Mich., México",Restaurante, Abre a las 8a.m. del lun,Zamora de Hidalgo
Restaurant Mar y Tierra,,None Found,+52 351 512 4453,"59699, Avenue Virrey de Mendoza Ote. 814, Las Américas, Zamora de Hidalgo, Mich., México",Marisquería, Abre a la 1p.m.,Zamora de Hidalgo
Los Pioneros,,None Found,+52 351 363 1002,"C. Hidalgo Sur 221, Centro, 59600 Zamora de Hidalgo, Mich., México",Restaurante mexicano, Abre a las 10a.m.,Zamora de Hidalgo
El Tridente Sinaloense,,None Found,+52 351 347 9246,"Av. Ferrocarril Ote. 145A, Ramírez, 59610 Zamora de Hidalgo, Mich., México",Restaurante, Abre a las 11:30a.m.,Zamora de Hidalgo
Tomahawk Tacos y Cortes,,None Found,+52 351 124 0405,"Pino Suárez Norte 509-A, Nueva Luneta, 59675 Zamora de Hidalgo, Mich., México",Taquería, Abre a las 9a.m.,Zamora de Hidalgo
El Marinero Loco Suc. Zamora,,None Found,+52 351 109 2057,"Ferrocarril Pte. 62, Revolución, 59633 Zamora de Hidalgo, Mich., México",Marisquería, Abre a las 11a.m.,Zamora de Hidalgo
Cenaduria Elvira,,None Found,,"Olmo 150, Arboledas, 59698 Zamora de Hidalgo, Mich., México",Restaurante mexicano, Abre a las 6:30p.m. del mar,Zamora de Hidalgo
Tres Puntos,,None Found,+52 351 520 8379,"Cam. del Jericó 55 Colonia, El Jerico, 59630 Zamora de Hidalgo, Mich., México",Restaurante familiar, Abre a la 1p.m.,Zamora de Hidalgo
La Última Cena,,None Found,+52 351 515 1131,"Francisco I. Madero Sur 460, La Medallita, Centro, 59600 Zamora de Hidalgo, Mich., México",Taquería, Abre a las 6p.m. del lun,Zamora de Hidalgo
Caldos Las Delicias,,None Found,,"C. Pino Suarez 465, La Medallita, Centro, 59675 Zamora de Hidalgo, Mich., México",Restaurante de desayunos, Abre a las 8a.m.,Zamora de Hidalgo
Taquería Tafoya,,None Found,+52 351 159 0166,"Av. Juárez Pte. 113, Centro, 59653 Zamora de Hidalgo, Mich., México",Taquería, Abre a las 7:10p.m.,Zamora de Hidalgo
Hopstock,,None Found,+52 351 235 1751,"Av. Ferrocarril Ote, C. del Teco 100, esquina, Jardines del Teco, 59633 Zamora de Hidalgo, Mich., México",Bar restaurante, Abre a las 6p.m. del lun,Zamora de Hidalgo
Mariscos Mi Chiva,,None Found,+52 351 150 0101,"Dr. Alonso Martínez, Jardines de Catedral, 59670 Zamora de Hidalgo, Mich., México",Marisquería, 5a.m. ,Zamora de Hidalgo
Restaurante AL CHILE GÜERO,,None Found,+52 351 517 3180,"Av. Ferrocarril Ote. 211, La Sandovaleña, 59635 Zamora de Hidalgo, Mich., México",Restaurante, Abre a las 12p.m.,Zamora de Hidalgo
La Carreta,,None Found,,"5 de Mayo 570, Jardines de Catedral, 59670 Zamora de Hidalgo, Mich., México",Restaurante especializado en pollo, Abre a las 9a.m. del lun,Zamora de Hidalgo
La Ventanita Desayunador - Desayunos en Zamora,laventanitadesayunador.com,None Found,+52 351 512 0217,"Aquiles Serdán Sur 226, Centro, 59600 Zamora de Hidalgo, Mich., México",Restaurante de desayunos, Abre a las 9a.m. del lun,Zamora de Hidalgo
Almuerzos La Camarena,,None Found,+52 351 517 1080,"Colonia, 59614 Zamora de Hidalgo, Mich., México",Restaurante, Abre a las 8a.m. del lun,Zamora de Hidalgo
Hi Burger,,None Found,+52 351 109 1122,"C. Ferrocarril 139A, Colonia, 59610 Zamora de Hidalgo, Mich., México",Restaurante,,Zamora de Hidalgo
La Tostacheria,instagram.com,None Found,+52 351 108 6203,"Francisco I. Madero Sur 372, Centro, 59600 Zamora de Hidalgo, Mich., México",Marisquería, Abre a las 12:30p.m.,Zamora de Hidalgo
Don Carbón,facebook.com,None Found,+52 351 167 4818,"Avenue Virrey de Mendoza Ote., Issste, 59680 Zamora de Hidalgo, Mich., México",Restaurante, Abre a la 1p.m.,Zamora de Hidalgo
Taqueria La Brasa,,None Found,,"Francisco I. Madero Norte 902, San José, Colonia, 59614 Zamora de Hidalgo, Mich., México",Taquería, Abre a las 5:30p.m.,Zamora de Hidalgo
Cenaduría Valdés,,None Found,+52 351 515 4371,"59670, Av. Martínez de Navarrete 281, Jardines de Catedral, Zamora de Hidalgo, Mich., México",Restaurante mexicano, Abre a las 2p.m. del lun,Zamora de Hidalgo
Victoria 75,,None Found,+52 351 126 3831,"59600, Francisco I. Madero Sur 73, Centro, Zamora de Hidalgo, Mich., México",Pizzería, Abre a la 1:30p.m.,Zamora de Hidalgo
La Paninera,,None Found,+52 351 512 1495,"Bajo escaleras, Pino suarez sur, Pl. las Palomas local 64-502, interior de, Nueva Luneta, 59674 Zamora de Hidalgo, Mich., México",Restaurante, Abre a las 8:30a.m. del lun,Zamora de Hidalgo
Mesón de San Fernando,,None Found,+52 351 515 0248,"Francisco I. Madero Sur 402 sur, Centro, 58600 Zamora de Hidalgo, Mich., México",Restaurante, Abre a las 9a.m.,Zamora de Hidalgo
Cenaduria “la Escondida Zamora”,facebook.com,None Found,+52 351 512 2146,"C. Francisco J. Múgica 19c, Centro, 59600 Zamora de Hidalgo, Mich., México",Restaurante mexicano, Abre a las 2:30p.m.,Zamora de Hidalgo
Mariscos La Playita,,None Found,+52 351 519 8074,"Francisco I. Madero Norte 511, Colonia, 59613 Zamora de Hidalgo, Mich., México",Marisquería, Abre a las 10a.m.,Zamora de Hidalgo
64 bits zamora,,None Found,+52 351 513 2752,"José María Morelos 38 norte, Centro, 59600 Zamora de Hidalgo, Mich., México",Bar restaurante, Abre a las 2p.m.,Zamora de Hidalgo
Sabores de mi Pueblo Zamora,,None Found,+52 351 124 6354,"Ocampo, 92, Allende Esq, Centro, 59600 Zamora de Hidalgo, Mich., México",Restaurante, Cierra a las 6a.m. ,Zamora de Hidalgo
Los Pioneros,,None Found,+52 351 515 8190,"Av. Martínez de Navarrete 320, El Duero, 59690 Zamora de Hidalgo, Mich., México",Restaurante, Abre a las 12p.m.,Zamora de Hidalgo
La cocina de doña queta,,None Found,+52 351 225 0046,"Carr. Nacional 574, La, 59724 Atecucario de la Constitución, Mich., México",Restaurante, Abre a las 8:30a.m.,Zamora de Hidalgo
Pajarito Café,facebook.com,None Found,+52 351 127 2041,"C. Hidalgo Sur 10, Centro, 59600 Zamora de Hidalgo, Mich., México",Restaurante, Abre a las 2p.m.,Zamora de Hidalgo
Hotel y Restaurante Los Pinos,,None Found,+52 351 515 0185,"Calle Benito Juárez 838, La Lima, 59680 Zamora de Hidalgo, Mich., México",,,Zamora de Hidalgo
LA VACA TUERTA,lavacatuerta.mx,None Found,+52 351 282 3002,"Av. Manuel Gómez Morín 221, Colonia, 59684 Zamora de Hidalgo, Mich., México",Restaurante, Abre a la 1p.m.,Zamora de Hidalgo
Cafetería Restaurant Madero,,None Found,+52 351 512 2038,"Francisco I. Madero Sur 33-25, Centro, 59600 Zamora de Hidalgo, Mich., México",Cafetería, Abre a las 9a.m.,Zamora de Hidalgo
La Birriería,,None Found,+52 351 305 5914,"Av, 20 de Noviembre #68, Zamora de Hidalgo, Mich., México",Restaurante, Abre a las 8:30a.m.,Zamora de Hidalgo
Ginger Sushi Rooftop,,None Found,+52 351 688 2366,"Calle Suiza #721, Avenue Virrey de Mendoza Ote. Esquina-Piso 4to, La Luneta, 59680 Zamora de Hidalgo, Mich., México",Restaurante de sushi, Abre a la 1:30p.m.,Zamora de Hidalgo
El barrio Comida Mexicana,,None Found,+52 351 122 8344,"Avenue Virrey de Mendoza Ote. 310, Colonia, 59680 Zamora de Hidalgo, Mich., México",Restaurante, Abre a las 11:30a.m.,Zamora de Hidalgo
Restaurant De Mariscos Corregidora,,None Found,,"Corregidora Ote. 186, Centro, 59600 Zamora de Hidalgo, Mich., México",Marisquería, Abre a las 11a.m.,Zamora de Hidalgo
Restaurante Casa Si Bon,instagram.com,None Found,+52 55 1685 0362,"Morelos Sur 122, Centro, 59600 Zamora de Hidalgo, Mich., México",Restaurante francés, Abre a las 9a.m.,Zamora de Hidalgo
Taqueria La Poblanita,,None Found,+52 351 515 5809,"Avenue Virrey de Mendoza Ote. 10, La Luneta Oriente, 59680 Zamora de Hidalgo, Mich., México",Taquería, Abre a las 2p.m.,Zamora de Hidalgo
Restaurante Hotel Terrass,hotelterrass.com,None Found,+52 351 515 4899,"Morelos Sur 135, Centro, 59600 Zamora de Hidalgo, Mich., México",Restaurante, Abre a las 7a.m.,Zamora de Hidalgo
EL TAQUITO,,None Found,+52 351 126 5693,"Santa Cecilia, 59665 Zamora de Hidalgo, Mich., México",Taquería, Abre a las 8a.m. del lun,Zamora de Hidalgo
Buona Pizza,buonapizza.com.mx,Colorido y sencillo restaurant familiar italiano especialista en pizzas al horno de leña acompañadas de vinos.,+52 351 515 0041,"Francisco I. Madero Sur 1366, La Luneta, 59680 Zamora de Hidalgo, Mich., México",Restaurante, Abre a la 1p.m.,Zamora de Hidalgo
La Flor de Café,facebook.com,None Found,,"Miguel Hidalgo 318-int.15, Centro, 59600 Zamora de Hidalgo, Mich., México",Cafetería, Abre a las 9a.m. del lun,Zamora de Hidalgo
Nikaho Sushi Bar,,None Found,+52 351 515 0005,"Avenue Virrey de Mendoza Ote. 1, La Luneta, 59680 Zamora de Hidalgo, Mich., México",Restaurante japonés, Abre a la 1p.m.,Zamora de Hidalgo
Toño & Tony's Mariscos,,None Found,+52 351 515 6413,"Av. Juárez Ote. 464, Ejidal Sur, 59694 Zamora de Hidalgo, Mich., México",Marisquería, Abre a las 10a.m.,Zamora de Hidalgo
Oasis Burger Place,,None Found,+52 351 690 2611,"Calle Morelos Sur #478 Esquina con, Calle Leonardo Castellanos Pte., 59600 Zamora de Hidalgo, Mich., México",Hamburguesería, Abre a las 2p.m.,Zamora de Hidalgo
Teco’s House,,None Found,+52 351 136 6531,"https://www.facebook.com, José Maria Morelos 98 Nte, Supermanzana TecosHouse?mibextid=LQQJ4d, 59610 Zamora de Hidalgo, Mich., México",Restaurante, Abre a las 2p.m.,Zamora de Hidalgo
el meson zamorano,,None Found,,"plaza local 30 planta baja, Zamora de Hidalgo, Mich., México",Restaurante, Cierra a las 5:30a.m. ,Zamora de Hidalgo
Chilaqueros,los-chilaqueros.ps.me,None Found,+52 351 101 4544,"Av. Manuel Gómez Morín 1001D, La Loma, Asentamientos Irregulares, 59684 Zamora de Hidalgo, Mich., México",Restaurante de desayunos, Abre a las 9a.m. del lun,Zamora de Hidalgo
Barbacoa Grill,,None Found,+52 351 226 6542,"Cristóbal Colón Oriente 42, Centro, 59600 Zamora de Hidalgo, Mich., México",Restaurante especializado en barbacoa, Abre a las 9a.m. del lun,Zamora de Hidalgo
Serena Sunset Rooftop,,None Found,+52 351 512 4413,"Avenue Virrey de Mendoza Ote. 40, La Luneta Oriente, 59680 Zamora de Hidalgo, Mich., México",Restaurante, Abre a las 2p.m.,Zamora de Hidalgo
Tottori Sushi Restaurant,,None Found,+52 33 3253 3375,"Las Palomas, 59689, Zamora de Hidalgo, Mich., México",Restaurante de sushi, Abre a las 12p.m.,Zamora de Hidalgo
Hamburguesas San Francisco,,None Found,,"C. Hidalgo Sur 180, Centro, 59600 Zamora de Hidalgo, Mich., México",Hamburguesería, Abre a las 7:30p.m.,Zamora de Hidalgo
Lonchería La Mancha,,None Found,+52 351 512 0674,"Cazares, Circunvalación Oriente 229, Centro, 59600 Zamora de Hidalgo, Mich., México",Restaurante de comida rápida, Abre a las 9a.m.,Zamora de Hidalgo
Casa Jarrah Café,,None Found,+52 351 167 3796,"Morelos Nte. #114, Centro, 59600 Zamora de Hidalgo, Mich., México",Cafetería, Abre a las 4p.m. del lun,Zamora de Hidalgo
il caffe di zamora,,None Found,+52 351 202 6464,"Niños Heroes 127 127, Jardines de Catedral, 59670 Zamora de Hidalgo, Mich., México",Cafetería, Abre a las 8:30a.m.,Zamora de Hidalgo
María Canalla Pizzería,,None Found,+52 351 177 9604,"Morelos Nte. 134, El Teco, Centro, 59600 Zamora de Hidalgo, Mich., México",Pizzería, Abre a las 9a.m.,Zamora de Hidalgo
Lonchería La Pasadita,,None Found,+52 351 517 0266,"Francisco I. Madero Norte, Colonia, 59613 Zamora de Hidalgo, Mich., México",Restaurante, Abre a las 8:30a.m. del lun,Zamora de Hidalgo
Paco's restaurant,,None Found,,"Parota 16 b, Arboledas, 59698 Zamora de Hidalgo, Mich., México",Restaurante,,Zamora de Hidalgo
Tortas Condorito,,None Found,+52 351 512 4843,"C. Uruapan 709, El Duero, 59690 Zamora de Hidalgo, Mich., México",Restaurante de desayunos, Abre a las 8:30a.m. del lun,Zamora de Hidalgo
"""AL CHILE"" TORITOS ARTESANALES",,None Found,+52 351 186 1878,"Av. Ferrocarril Ote., Ferrocarril, Ramírez, 59620 Zamora de Hidalgo, Mich., México",Restaurante mexicano, Abre a las 9a.m. del lun,Zamora de Hidalgo
MR HUNTER MX,,None Found,+52 351 308 2754,"Calle Leonardo Castellanos Ote. 12, Jardines de Catedral, 59670 Zamora de Hidalgo, Mich., México",Restaurante,,Zamora de Hidalgo
Marbella,,None Found,+52 351 134 8246,"Av. Manuel Gómez Morín 233, Bugambilias, Colonia, 59684 Zamora de Hidalgo, Mich., México",Restaurante, Abre a las 9a.m.,Zamora de Hidalgo
Tacos Vidal,facebook.com,None Found,+52 351 515 8266,"Calle Cázares Ote. 144, Centro, 59600 Zamora de Hidalgo, Mich., México",Taquería, Abre a las 8:30a.m.,Zamora de Hidalgo
"Caldos Y Tacos ""Soco""",,None Found,+52 351 134 4403,"Calle Lerdo de Tejada Ote. 106, Centro, 59600 Zamora de Hidalgo, Mich., México",Taquería, Abre a las 8a.m.,Zamora de Hidalgo
Madre Santa,,None Found,,"Francisco I. Madero Sur 675, La Luneta Oriente, 59680 Zamora de Hidalgo, Mich., México",Restaurante de desayunos, Abre a las 9a.m.,Zamora de Hidalgo
Madre Santa,,None Found,,"Francisco I. Madero Sur 675, La Luneta Oriente, 59680 Zamora de Hidalgo, Mich., México",Restaurante de desayunos, Abre a las 9a.m.,Zamora de Hidalgo
Tacos y Carnitas Armandos,,None Found,+52 351 512 3158,"Vasco de Quiroga 70, Centro, 59600 Zamora de Hidalgo, Mich., México",Restaurante, Abre a las 8:30a.m.,Zamora de Hidalgo
Pub Peaky Blinders Zamora,facebook.com,None Found,+52 351 227 6647,"Avenue Virrey de Mendoza Ote. 809B, Las Fuentes, 59695 Zamora de Hidalgo, Mich., México",Bar restaurante, Abre a las 12p.m.,Zamora de Hidalgo
Restaurant Chino Hong Kong,facebook.com,None Found,+52 351 517 2541,"Francisco I. Madero Norte 1172, La Florida, 59610 Zamora de Hidalgo, Mich., México",Restaurante chino, Abre a las 12p.m.,Zamora de Hidalgo
"NOSTRA, SUSHI",,None Found,+52 351 512 1597,"Morelos Sur 753 casi, Avenue Virrey de Mendoza Ote., Jardinadas, 59690 Zamora de Hidalgo, Mich., México",Restaurante de sushi, Abre a la 1:30p.m.,Zamora de Hidalgo
El taco,,None Found,+52 351 103 4261,"Avenue Virrey de Mendoza Ote. 286, Colonia, 59690 Zamora de Hidalgo, Mich., México",Taquería, Abre a las 8:30a.m.,Zamora de Hidalgo
Tacos Goyo's,,None Found,+52 351 119 1796,"59680, Francisco I. Madero Sur 529, Centro, 59800 Zamora de Hidalgo, Mich., México",Taquería, Abre a las 8:30a.m.,Zamora de Hidalgo
La suavecita Zamora,,None Found,+52 443 734 8330,"Morelos Sur 353, Centro, 59600 Zamora de Hidalgo, Mich., México",Pizzería, Abre a la 1p.m.,Zamora de Hidalgo
PIZZOLIN ZAMORA,,None Found,+52 351 515 5172,"Allende 195, Centro, 59600 Zamora de Hidalgo, Mich., México",Pizzería, Abre a las 9a.m.,Zamora de Hidalgo
Big boy burger zamora,,None Found,+52 351 210 1656,"Geólogos 324, Villas del Magisterio, 59664 Zamora de Hidalgo, Mich., México",Hamburguesería, Abre a las 3:30p.m.,Zamora de Hidalgo
green & black byxigua,,None Found,+52 351 137 4651,"Francisco I. Madero Sur 10, La Luneta Oriente, 59670 Zamora de Hidalgo, Mich., México",Cafetería, Abre a las 9a.m. del lun,Zamora de Hidalgo
Papas Don Mario,,None Found,,"Calle Hidalgo Nte. 74A, Centro, 59633 Zamora de Hidalgo, Mich., México",Restaurante, Abre a las 2:30p.m. del vie,Zamora de Hidalgo
Tacos Suaves 20 De Noviembre,,None Found,,"Rafael Estrada 17, Ejidal Nte, 59660 Zamora de Hidalgo, Mich., México",Taquería,,Zamora de Hidalgo
RIKORAMA (Juarez),rikorama.negocio.site,None Found,+52 351 517 6609,"Benito, Av. Juárez Ote. 265, Colonia, 59612 Zamora de Hidalgo, Mich., México",Mexican torta restaurant, Abre a las 8:30a.m. del lun,Zamora de Hidalgo
La casa del metate restaurante y cafe,,None Found,+52 351 373 9150,"59620, Ferrocarril, 59620 Zamora de Hidalgo, Mich., México",Restaurante, Abre a las 9a.m.,Zamora de Hidalgo
Picante,,None Found,+52 351 102 2855,"Francisco I. Madero Sur 33, Centro, 59600, local 24 Zamora de Hidalgo, Mich., México",Restaurante, Abre a las 11a.m.,Zamora de Hidalgo
Taqueria Lupita,,None Found,+52 354 135 1732,"Av. Juárez Ote. 229, Centro, 59630 Zamora de Hidalgo, Mich., México",Taquería,,Zamora de Hidalgo
Lalo's Pizzas,,None Found,+52 351 517 4350,"Av. Juárez Ote. 79, Centro, 59600 Zamora de Hidalgo, Mich., México",Pizzería, Abre a la 1p.m.,Zamora de Hidalgo
Tacos Suaves El Teco,,None Found,,"Calle Lerdo de Tejada Ote. 59, El Teco, El Jerico, 59633 Zamora de Hidalgo, Mich., México",Taquería,,Zamora de Hidalgo
Tacos Manolo - Sucursal,,None Found,+52 351 136 5944,"59670, José Esaul Robles Jiménez 260, Centro, 59600 Zamora de Hidalgo, Mich., México",Taquería, Abre a las 4p.m.,Zamora de Hidalgo
Burritos norteños Lalos,,None Found,+52 351 515 3056,"Av del Bosque 224 224, Las Fuentes, 59699 Zamora de Hidalgo, Mich., México",Restaurante de burritos, Abre a las 9a.m.,Zamora de Hidalgo
Tacos Lupita ll,,None Found,+52 351 520 7371,"Av. Juárez Pte. 209, Centro, 59600 Zamora de Hidalgo, Mich., México",Taquería,,Zamora de Hidalgo
Boo-ba Zamora,,None Found,+52 351 223 3616,"Francisco I. Madero Sur 645, La Luneta Oriente, 59680 Zamora de Hidalgo, Mich., México",Cafetería,,Zamora de Hidalgo
Burrazzo Zamora,instagram.com,None Found,+52 55 2342 3697,"Calle Lerdo de Tejada Ote. 39a, Centro, 59620 Zamora de Hidalgo, Mich., México",Restaurante de comida rápida, Abre a las 9:30a.m.,Zamora de Hidalgo
Las Asadas,,None Found,+52 351 516 5843,"Calz. Zamora-Jacona 714, El Ensueño, 59813 Jacona de Plancarte, Mich., México",Restaurante mexicano, Abre a las 2p.m.,Zamora de Hidalgo
