Names,Website,Introduction,Phone Number,Address,Type,Opens At,Municipio
Fonda de Doña Gabina Escolástica,,None Found,+52 33 3833 0883,"Javier Mina 237, Centro, 45100 Zapopan, Jal., México",Restaurante mexicano, Cierra a las 11p.m.,Zapopan
Sonora Prime Puerta de Hierro,casaprime.mx,None Found,+52 55 9990 5869,"Real de Acueducto 210, Real Acueducto, 45116 Zapopan, Jal., México",Bar restaurante, Cierra a las 2a.m.,Zapopan
Verum Franco Mesón Italiano,facebook.com,None Found,+52 33 3633 7449,"28 de Enero 175, Zapopan Centro, 45100 Zapopan, Jal., México",Restaurante italiano, Cierra a las 11p.m.,Zapopan
Amorcito mio,facebook.com,None Found,+52 33 3633 7842,"C. 5 de Mayo 275, Zapopan, 45100 Zapopan, Jal., México",Pizzería, Cierra a las 11:30p.m.,Zapopan
La Moresca Andares,lamoresca.com,Cocina italiana y mediterránea en un sofisticado comedor con tonos de verde y paredes de ladrillo y vidrio.,+52 33 3611 2884,"Blvd. Puerta de Hierro 4965-011, Puerta de Hierro, 45116 Zapopan, Jal., México",Bar restaurante, Cierra a la 1a.m.,Zapopan
Cuerno Andares,cuerno.mx,None Found,+52 33 1538 3713,"Blvd. Puerta de Hierro 4965, Puerta de Hierro, 44100 Guadalajara, Jal., México",Restaurante, Cierra a la 1a.m.,Zapopan
CABOTINA,,None Found,+52 33 3123 3123,"Av Guadalupe 1000, Jardín de San Ignacio, 45040 Zapopan, Jal., México",Restaurante italiano, Cierra a las 12a.m.,Zapopan
Hostería Del Ángel,,None Found,+52 33 3656 9516,"C. 5 de Mayo 260, Zapopan, 45100 Zapopan, Jal., México",Restaurante, Cierra a las 10:30p.m.,Zapopan
Los Arcos,restaurantlosarcos.com,None Found,+52 33 3122 3719,"Calz. Lázaro Cárdenas 3549, Jardín de San Ignacio, 45040 Zapopan, Jal., México",Marisquería,,Zapopan
Los Arcos,restaurantlosarcos.com,None Found,+52 33 2881 1165,"Av. Acueducto 6050, Lomas del Bosque, 45118 Zapopan, Jal., México",Marisquería,,Zapopan
Restaurante Casa Caborca Asador de Carnes Zapopan,casacaborca.com.mx,"Restaurante sencillo en el que se ofrecen filetes a la parrilla y empanadas tradicionales, además de pizza.",+52 33 2641 7057,"Av Rafael Sanzio 165, La Estancia, 45030 Zapopan, Jal., México",Restaurante, Cierra a las 12a.m.,Zapopan
Fornino,m.facebook.com,Cocina italiana y pizzas asadas servidas en un lugar relajado que cuenta con terraza.,+52 33 3647 7777,"Av Guadalupe 1269, Chapalita Oriente, 45040 Zapopan, Jal., México",Restaurante italiano, Cierra a las 11:30p.m.,Zapopan
Restaurante ¿Qué Pachó? Naciones Unidas,linktr.ee,"Lugar animado con patio, donde se sirven tacos y carnes a la parrilla al estilo mexicano, y cocteles frutales.",+52 33 3673 5336,"Av Naciones Unidas 4762, Jardines Universidad, 45110 Zapopan, Jal., México",Restaurante mexicano, Cierra a las 11p.m.,Zapopan
Vincent,vincent.com.mx,"Establecimiento moderno que honra a Vincent van Gogh, en el que se sirven desayuno, mariscos y cocteles.",+52 33 3611 1208,"Blvd. Puerta de Hierro 4965-Local UP 2 and 3, Puerta de Hierro, 45116 Zapopan, Jal., México",Restaurante, Cierra a las 12a.m.,Zapopan
Zaphiro Cocina de Autor,zaphirococinadeautor.com,None Found,+52 33 9690 8695,"Expo Rock Center, Av. Ignacio L Vallarta 5145-Local G-2, Camino Real, 45040 Zapopan, Jal., México",Restaurante, Cierra a las 12a.m.,Zapopan
Maison Paulette,,"Cafetería refinada de pastelería francesa y comida ligera, con ambiente lujoso y un patio repleto de plantas.",+52 33 2886 3045,"Parque Juan Diego 4015, Cd de los Niños, 45040 Zapopan, Jal., México",Restaurante, Cierra a las 12a.m.,Zapopan
Isabela MX,,None Found,+52 33 1523 9271,"Real de Acueducto 270-P1, Puerta de Hierro, 45116 Zapopan, Jal., México",Restaurante italiano, Cierra a la 1a.m.,Zapopan
Mariscos El Memin - Periférico,,Restaurante espacioso y sencillo donde se sirven especialidades de mariscos y filetes.,+52 33 2844 6597,"Calle Lat. al Perif. 1571, La Alameda, 45079 Zapopan, Jal., México",Marisquería, Cierra a las 8p.m.,Zapopan
Loló Andares,linktr.ee,None Found,+52 33 2001 6364,"Blvd. Puerta de Hierro 4965, Puerta de Hierro, 45116 Zapopan, Jal., México",Restaurante, Cierra a las 12a.m.,Zapopan
El Tango,,"Comedor extenso de pizza, carne a la parrilla y postres complejos con presentaciones de tango.",+52 33 3647 9981,"Av Guadalupe 1004, Jardín de San Ignacio, 45040 Zapopan, Jal., México",Restaurante argentino,,Zapopan
La Vacanora,facebook.com,None Found,+52 33 3835 1055,"Calle Sta. Lucía 2, Zapopan, 45100 Zapopan, Jal., México",Restaurante, Cierra a las 10:30p.m.,Zapopan
Mantela Restaurante,mantela.com.mx,None Found,+52 33 3611 4632,"Blvd. Puerta de Hierro 4965, 45116 Zapopan, Jal., México",Restaurante, Cierra a la 1a.m.,Zapopan
Mantela Restaurante,mantela.com.mx,None Found,+52 33 3611 4632,"Blvd. Puerta de Hierro 4965, 45116 Zapopan, Jal., México",Restaurante, Cierra a la 1a.m.,Zapopan
Asador La Vaca Argentina Andares,lavaca-argentina.com,"Estilizado comedor decorado en madera y piel que ofrece pizzas y cortes, pescados y mariscos a la parrilla.",+52 33 3611 0888,"45116 Zapopan, Jal., México",Restaurante argentino, Cierra a las 12a.m.,Zapopan
Restaurante Save Av. Patria,restaurante-save.mx,None Found,+52 33 3629 3124,"Av. Patria 574, Jardines de Guadalupe, 44030 Zapopan, Jal., México",Marisquería, Cierra a las 10:30p.m.,Zapopan
Señora Tanaka Guadalajara,sratanaka.com,None Found,+52 33 3835 1405,"Real de Acueducto #110, Puerta de Hierro, 45116 Zapopan, Jal., México",Restaurante japonés, Cierra a las 2a.m.,Zapopan
Los Inmortales Restaurant Bar,restaurantlosinmortales.com,"Local tranquilo con fotos de antiguas estrellas del cine, donde se sirven carnes, bocadillos y platos internacionales.",+52 33 3629 6657,"Av. Patria 155, Jardines Vallarta, 45027 Zapopan, Jal., México",Restaurante argentino, Cierra a las 11p.m.,Zapopan
Taqueiros,taqueiros.com.mx,"Restaurante estilo mexicano con comedor rústico, tacos improvisados, arrachera y margaritas.",+52 33 3673 3120,"Av. Patria 270, La Estancia, 45030 Zapopan, Jal., México",Restaurante mexicano, Cierra a las 12a.m.,Zapopan
Fuego Asador La Estancia,bit.ly,None Found,+52 33 3857 8237,"Av. Ludwig Van Beethoven 5495, La Estancia, 45030 Zapopan, Jal., México",Parrilla, Cierra a las 11p.m.,Zapopan
Campomar Andares,campomar.mx,"Restaurante moderno y animado donde se sirven mariscos y carnes, además de tacos, pizzas y cocteles.",+52 33 3650 9154,"Blvrd Puerta de Hierro #4965. UP 13-10, Puerta de Hierro, 45116 Guadalajara, Jal., México",Restaurante, Cierra a las 11:30p.m.,Zapopan
Restaurante Familiar Merluza Zapopan,facebook.com,None Found,+52 33 1842 9255,"Av. Sebastian Bach 5591, La Estancia, 45030 Zapopan, Jal., México",Marisquería, Cierra a las 8p.m.,Zapopan
Al Dente,,"Platos italianos en un lugar íntimo con estilo neorrústico, paredes de piedra, arte moderno y servicio al bar.",+52 33 3165 0196,"Av Manuel J. Clouthier 284, Residencial Cordilleras, 45038 Zapopan, Jal., México",Restaurante italiano, Cierra a las 12a.m.,Zapopan
Al Dente,,"Platos italianos en un lugar íntimo con estilo neorrústico, paredes de piedra, arte moderno y servicio al bar.",+52 33 3165 0196,"Av Manuel J. Clouthier 284, Residencial Cordilleras, 45038 Zapopan, Jal., México",Restaurante italiano, Cierra a las 12a.m.,Zapopan
La Casa de Los Platos,casadelosplatos.com,Restaurante estilo chalé donde se sirven carnes asadas tradicionales de Guadalajara y platos de queso adobera.,+52 33 1814 5513,"São Paulo 2367, Providencia, 44630 Guadalajara, Jal., México",Restaurante mexicano, Cierra a las 12a.m.,Zapopan
La Casa de Los Platos,casadelosplatos.com,Restaurante estilo chalé donde se sirven carnes asadas tradicionales de Guadalajara y platos de queso adobera.,+52 33 1814 5513,"São Paulo 2367, Providencia, 44630 Guadalajara, Jal., México",Restaurante mexicano, Cierra a las 12a.m.,Zapopan
Los Chilaquiles,,Famoso restaurante especializado en chilaquiles servidos en un colorido comedor abierto con motivos mexicanos.,+52 33 3610 2623,"Av. Patria 1484, San Wenceslao, 45110 Zapopan, Jal., México",Restaurante mexicano, Abre a las 8a.m. del dom,Zapopan
Save,restaurante-save.mx,"Un restaurante informal con techo de palmas y terraza, con un extenso menú de mariscos en recetas originales.",+52 33 3813 1194,"Av. México 3388, Monraz, 44670 Guadalajara, Jal., México",Marisquería, Cierra a las 10:30p.m.,Zapopan
El Zarandeao,,"Restaurante luminoso donde se ofrecen ceviches y mariscos para compartir, como ostras y camarones picantes.",+52 33 1117 5390,"C. Volcán Popocatépetl 6569, Colli Urbano, 45140 Zapopan, Jal., México",Marisquería, Abre a las 11:30a.m. del dom,Zapopan
Vincent Chapalita,vincent.com.mx,None Found,+52 33 3647 0005,"Av de Las Rosas, Aurora &, Chapalita Oriente, 45040 Zapopan, Jal., México",Bar restaurante, Cierra a las 12a.m.,Zapopan
La Humadera,,None Found,+52 33 3121 0620,"Av. Niño Obrero 502, Las Flores, Camino Real, 45040 Zapopan, Jal., México",Restaurante, Cierra a las 11p.m.,Zapopan
Cantina La 20 | Guadalajara,,None Found,+52 33 1514 5705,"The landmark Av. Patria 188, Puerta de Hierro Zapopan, 45116 Guadalajara, Jal., México",Restaurante mexicano, Cierra a las 2a.m.,Zapopan
Cantina La 20 | Guadalajara,,None Found,+52 33 1514 5705,"The landmark Av. Patria 188, Puerta de Hierro Zapopan, 45116 Guadalajara, Jal., México",Restaurante mexicano, Cierra a las 2a.m.,Zapopan
Quilombo,,None Found,+52 33 3110 6432,"Av. Ludwig Van Beethoven 5144, La Estancia, 45030 Zapopan, Jal., México",Restaurante argentino, Cierra a las 11:30p.m.,Zapopan
La Madalena Guadalajara,,None Found,+52 33 3113 2146,"Plaza Corporativa, P.º de los Virreyes 45-Local V16, Puerta de Hierro, 45116 Zapopan, Jal., México",Restaurante, Cierra a la 1a.m.,Zapopan
The Cheesecake Factory Galerías Guadalajara,thecheesecakefactory.com.mx,"Cadena estadounidense que sirve grandes porciones de un amplio menú, incluida su emblemática tarta de queso.",+52 33 3682 0617,"Col. Colbarrio No. 150 Locales IS3-1 e IS3-2, Av Rafael Sanzio, La Estancia, 45030 Zapopan, Jal., México",Restaurante americano,,Zapopan
Restaurante ¿Qué Pachó? La Gran Plaza,quepachorestaurante.com,None Found,+52 33 3621 1600,"Local O-9, Av. Ignacio L Vallarta 3959, Jardines de Los Arcos, 45049 Zapopan, Jal., México",Restaurante mexicano, Cierra a las 8p.m.,Zapopan
OCHO CUERVOS Winehouse & Food,,None Found,+52 33 3502 4180,"Av. Niño Obrero 858, Cd de los Niños, 45040 Zapopan, Jal., México",Restaurante, Cierra a las 12a.m.,Zapopan
Los Sencillitos Asado Argentino,losencillitos.com,Restaurante alegre con mesas cubiertas al aire libre y platos de carne tradicionales argentinos.,+52 33 9688 7216,"Av el Colli 1923 A, Colli Urbano, 45070 Zapopan, Jal., México",Restaurante argentino, Cierra a las 11p.m.,Zapopan
Lulio Restaurante,,None Found,+52 33 3627 6469,"Av. Sebastian Bach 5344, La Estancia, 45030 Zapopan, Jal., México",Restaurante, Cierra a las 10p.m.,Zapopan
La Perla del Pacífico suc. Clouthier,facebook.com,None Found,+52 33 3673 2883,"Av Manuel J. Clouthier 479, Lomas de Guadalupe, 45020 Zapopan, Jal., México",Marisquería, Cierra a las 3a.m.,Zapopan
Ohlala Panadería Bistró,ohlala.com.mx,None Found,+52 33 1562 6995,"Av. Sebastian Bach 5074, Real Vallarta, 44670 Guadalajara, Jal., México",Restaurante francés, Cierra a las 8p.m.,Zapopan
Ohlala Panadería Bistró,ohlala.com.mx,None Found,+52 33 1562 6995,"Av. Sebastian Bach 5074, Real Vallarta, 44670 Guadalajara, Jal., México",Restaurante francés, Cierra a las 8p.m.,Zapopan
El Juan y El Diego Restaurante,facebook.com,None Found,+52 33 3647 0785,"Av. Niño Obrero 820-3, Chapalita Oriente, 45040 Zapopan, Jal., México",Restaurante de desayunos,,Zapopan
Mariscos Satory,,Un restaurante-bar informal con mesas al aire libre que ofrece platillos de Japón y mariscos estilo México.,+52 33 1028 7613,"Las Torres 741, Paraísos del Colli, 45069 Zapopan, Jal., México",Marisquería, Cierra a las 8p.m.,Zapopan
Hato Ramen,hato.mx,"Restaurante tranquilo en el que se sirven ramen y otros platos típicos japoneses, además de sake y cerveza.",+52 33 3366 9072,"Av Aztlán 3588-Local 07, Cd del Sol, 45050 Zapopan, Jal., México",Restaurante especializado en ramen, Cierra a las 11p.m.,Zapopan
A La Tostada,facebook.com,None Found,+52 33 2226 0476,"Zapopan, Jal., Mexico Sebastian Bach 4722 Prados Vallarta, Prados Guadalupe, 45020 Zapopan, Jal., México",Marisquería, 7:30p.m. ,Zapopan
SSAM La Perla,instagram.com,None Found,+52 33 3632 2006,"Av. Mariano Otero 3000-Int. B-111, Jardines del Sol, 45050 Zapopan, Jal., México",Restaurante, Cierra a las 11p.m.,Zapopan
Restaurante La Gorda · Chapalita,facebook.com,"Antojitos, carnes asadas y cocina tradicional de México en un restaurante casual con mesas en el exterior.",+52 33 3647 7133,"Av Guadalupe 1569, Chapalita, 45050 Zapopan, Jal., México",Restaurante mexicano, Cierra a las 12a.m.,Zapopan
Restaurante La Gorda · Chapalita,facebook.com,"Antojitos, carnes asadas y cocina tradicional de México en un restaurante casual con mesas en el exterior.",+52 33 3647 7133,"Av Guadalupe 1569, Chapalita, 45050 Zapopan, Jal., México",Restaurante mexicano, Cierra a las 12a.m.,Zapopan
Campomar Chapalita,campomar.mx,Restaurante tradicional con un amplio menú de platos enormes de mariscos y bebidas.,+52 33 3333 0502,"San Dionisio 33, Jardín de San Ignacio, 45040 Zapopan, Jal., México",Restaurante, 7p.m. ,Zapopan
Mariscos El Memin - El Mesón,,None Found,+52 33 2844 6594,"Carlos Dickens 35, Jardines Vallarta, 45010 Zapopan, Jal., México",Marisquería, Cierra a las 8p.m.,Zapopan
Surem Bacanora Steak House,,None Found,+52 33 2237 2284,"Av Guadalupe 4955-local 10, Jardines del Tepeyac, 45034 Zapopan, Jal., México",Restaurante especializado en filetes,,Zapopan
Campomar La Perla,campomar.mx,None Found,+52 33 3622 0601,"Av. Mariano Otero 408-Local AR-03, Jardines del Sol, 45050 Zapopan, Jal., México",Restaurante, Cierra a las 6:30a.m. del dom,Zapopan
Restaurante El Pargo,,"Comedor tradicional luminoso con ventanas en arco; se ofrecen fuentes de mariscos, pescado y langosta asados.",+52 33 3915 3383,"Calz. Lázaro Cárdenas 4150, Camino Real, 45040 Zapopan, Jal., México",Marisquería, Abre a las 12p.m. del dom,Zapopan
Restaurant Bar L'Ncanto,,None Found,+52 33 3805 3333,"Av. Aviación 3500, Solares, 45019 Zapopan, Jal., México",Bar restaurante, Cierra a las 12a.m.,Zapopan
Restaurante Los Pp's,m.facebook.com,None Found,+52 33 3261 1513,"Av. Miguel Angel 128-A, Real Vallarta, 45020 Zapopan, Jal., México",Marisquería, 7p.m. ,Zapopan
Restaurante Los Pp's,m.facebook.com,None Found,+52 33 3261 1513,"Av. Miguel Angel 128-A, Real Vallarta, 45020 Zapopan, Jal., México",Marisquería, 7p.m. ,Zapopan
La Antigua (Chapalita),facebook.com,None Found,+52 33 4735 0870,"Av. Niño Obrero 854, Jardín de San Ignacio, 45040 Zapopan, Jal., México",Restaurante, Abre a las 8a.m. del dom,Zapopan
La Antigua (Chapalita),facebook.com,None Found,+52 33 4735 0870,"Av. Niño Obrero 854, Jardín de San Ignacio, 45040 Zapopan, Jal., México",Restaurante, Abre a las 8a.m. del dom,Zapopan
Sal de Mar,,None Found,+52 33 3611 1921,"Av. Acueducto 1965, Real San Javier, 45110 Zapopan, Jal., México",Marisquería, 7p.m. ,Zapopan
Calesco y El Romero,instagram.com,None Found,+52 33 4521 7234,"Av Guadalupe 4955-Local 9, Jardines de Guadalupe, 45030 Zapopan, Jal., México",Restaurante mexicano, Cierra a las 10p.m.,Zapopan
Calesco y El Romero,instagram.com,None Found,+52 33 4521 7234,"Av Guadalupe 4955-Local 9, Jardines de Guadalupe, 45030 Zapopan, Jal., México",Restaurante mexicano, Cierra a las 10p.m.,Zapopan
Rute El Castillo del Pozole,,None Found,+52 33 3634 1152,"Av 18 de Marzo 5148, Las Águilas, 45080 Zapopan, Jal., México",Restaurante mexicano, Cierra a las 10p.m.,Zapopan
AXNO,instagram.com,None Found,+52 33 1703 8458,"28 de Enero 194, Zapopan, 45100 Zapopan, Jal., México",Bar, Cierra a las 2a.m.,Zapopan
El Sazon de Mamá Chayo,facebook.com,None Found,+52 33 3121 7191,"Av Manuel J. Clouthier 130, Prados Vallarta, 45020 Zapopan, Jal., México",Restaurante mexicano, Cierra a las 11p.m.,Zapopan
Menudería y Cenaduría La Estancia de Don Bequeza,facebook.com,Restaurante sencillo con menú variado y un ambiente tranquilo con toques artísticos.,+52 33 2712 4704,"Av Guadalupe 5085, Jardines del Tepeyac, 45034 Zapopan, Jal., México",Restaurante, Cierra a las 11p.m.,Zapopan
Menudería La Familia de Doña Jose (Xóchitl),menuderialafamilia.com,None Found,+52 33 3647 6376,"Av Xochitl 4593 colonia, Prados Tepeyac, 45050 Zapopan, Jal., México",Restaurante mexicano, Abre a las 7a.m. del dom,Zapopan
Menudería La Familia de Doña Jose (Xóchitl),menuderialafamilia.com,None Found,+52 33 3647 6376,"Av Xochitl 4593 colonia, Prados Tepeyac, 45050 Zapopan, Jal., México",Restaurante mexicano, Abre a las 7a.m. del dom,Zapopan
Masaki ramen,,None Found,+52 33 1835 7286,"Av. Ludwig Van Beethoven 4603, Lomas de Guadalupe, 45038 Zapopan, Jal., México",Restaurante, Cierra a las 10p.m.,Zapopan
Barrio 19,,None Found,+52 33 4304 0418,"Av Guadalupe 4239, Cd de los Niños, 45040 Zapopan, Jal., México",Restaurante, Cierra a las 11p.m.,Zapopan
Los Arcos,restaurantlosarcos.com,None Found,+52 33 3122 3719,"Calz. Lázaro Cárdenas 3549, Jardín de San Ignacio, 45040 Zapopan, Jal., México",Marisquería,,Zapopan
Piso Siete Restaurante Bar,pisosietegdl.com,None Found,+52 33 3942 5208,"C. Colón 73, Zona Centro, 44100 Guadalajara, Jal., México",Restaurante, Cierra a las 11p.m.,Zapopan
Punta Ensenada,,None Found,+52 33 3178 4220,"Paulino Navarro 555, Los Maestros, 45150 Zapopan, Jal., México",Restaurante mexicano, Abre a la 1p.m. del dom,Zapopan
CrêParis,creparis.mx,None Found,+52 33 1983 7376,"Av. Sebastian Bach 4967, Prados Vallarta, 45030 Zapopan, Jal., México",Crepería, Cierra a las 11:15p.m.,Zapopan
CrêParis,creparis.mx,None Found,+52 33 1983 7376,"Av. Sebastian Bach 4967, Prados Vallarta, 45030 Zapopan, Jal., México",Crepería, Cierra a las 11:15p.m.,Zapopan
Il piacere,,None Found,+52 33 3647 7827,"Don Bosco Vallarta 3959, Don Bosco Vallarta, 45049 Zapopan, Jal., México",Restaurante de cocina del sur de Italia, Cierra a las 9p.m.,Zapopan
Il piacere,,None Found,+52 33 3647 7827,"Don Bosco Vallarta 3959, Don Bosco Vallarta, 45049 Zapopan, Jal., México",Restaurante de cocina del sur de Italia, Cierra a las 9p.m.,Zapopan
Beluga,instagram.com,"Restaurante luminoso y elegante con detalles de madera y oferta de mariscos, carnes a la parrilla, postres de autor y cocteles.",+52 33 3835 8883,"Legacy Tower, Av. Empresarios 62, Puerta de Hierro, 45116 Zapopan, Jal., México",Restaurante, Cierra a la 1a.m.,Zapopan
AZIA GDL,instagram.com,None Found,+52 33 1597 3911,"PB Torre, Real de Acueducto 270, Puerta de Hierro, 45116 Zapopan, Jal., México",Restaurante asiático, Cierra a la 1a.m.,Zapopan
Piña De Mar,,None Found,+52 33 2306 5559,"Av. Miguel Angel 280, La Estancia, 45030 Zapopan, Jal., México",Marisquería, 7p.m. ,Zapopan
Barbacoa Gamero,,None Found,,"Av Rafael Sanzio 405-A, La Estancia, 45030 Zapopan, Jal., México",Restaurante mexicano, Abre a las 7a.m. del dom,Zapopan
Root Beer & Ribs (Costillas BBQ),rootbeerribs.mx,None Found,+52 33 2303 8567,"Av Guadalupe 4720, Jardines de Guadalupe, 45030 Zapopan, Jal., México",Restaurante especializado en barbacoa, Cierra a las 11p.m.,Zapopan
Root Beer & Ribs (Costillas BBQ),rootbeerribs.mx,None Found,+52 33 2303 8567,"Av Guadalupe 4720, Jardines de Guadalupe, 45030 Zapopan, Jal., México",Restaurante especializado en barbacoa, Cierra a las 11p.m.,Zapopan
REY DEL AGUACHILE MARISCOS CO,,Restaurante luminoso y creativo de mariscos con bar especializado en platos de fusión mexicana-mediterránea.,+52 33 2496 9624,"Av Rafael Sanzio #621, Arcos de Guadalupe, 45037 Zapopan, Jal., México",Marisquería, Cierra a las 9p.m.,Zapopan
La Peltrería,,None Found,+52 33 3123 0360,"Av. Niño Obrero 654 A, Chapalita, 45040 Zapopan, Jal., México",Restaurante mexicano, Abre a las 8a.m. del dom,Zapopan
Barrio de Quilmes,,None Found,+52 33 3647 4445,"Av San Ignacio 302, Don Bosco Vallarta, 45049 Zapopan, Jal., México",Restaurante argentino, Cierra a las 12a.m.,Zapopan
El Pargo Bugambilias,,None Found,+52 33 3693 0082,"Av. Adolfo López Mateos Sur 8000, Bugambilias, 45238 Zapopan, Jal., México",Marisquería,,Zapopan
Louie Burger Chapalita,louieburger.com,"Restaurante informal con decoración contemporánea, en el que se ofrecen hamburguesas y batidos grandes.",+52 33 1643 0949,"Av Guadalupe 1671, Chapalita Oriente, 45040 Zapopan, Jal., México",Hamburguesería, Cierra a las 11p.m.,Zapopan
Barolo 8C CHAPALITA,instagram.com,"Restaurante moderno en un edificio elegante con pizza, pasta fresca y otros platos italianos.",+52 33 3502 4180,"Av. Niño Obrero 858, Cd de los Niños, 45040 Zapopan, Jal., México",Restaurante italiano, Cierra a las 12a.m.,Zapopan
Barolo 8C CHAPALITA,instagram.com,"Restaurante moderno en un edificio elegante con pizza, pasta fresca y otros platos italianos.",+52 33 3502 4180,"Av. Niño Obrero 858, Cd de los Niños, 45040 Zapopan, Jal., México",Restaurante italiano, Cierra a las 12a.m.,Zapopan
Buffanka,instagram.com,None Found,+52 33 1957 3839,"Av. Mariano Otero 3000-local AR-14, Cd del Sol, 45050 Zapopan, Jal., México",Restaurante,,Zapopan
Jaiba Cajuncrab Plaza Picacho,instagram.com,None Found,+52 33 3160 6532,"Calz. Lázaro Cárdenas Pte. 3770-Local 14, Jardín de San Ignacio, 45040 Zapopan, Jal., México",Restaurante, Cierra a las 10:30p.m.,Zapopan
Los Arcos,restaurantlosarcos.com,None Found,+52 33 3122 3719,"Calz. Lázaro Cárdenas 3549, Jardín de San Ignacio, 45040 Zapopan, Jal., México",Marisquería,,Zapopan
Piso Siete Restaurante Bar,pisosietegdl.com,None Found,+52 33 3942 5208,"C. Colón 73, Zona Centro, 44100 Guadalajara, Jal., México",Restaurante, Cierra a las 11p.m.,Zapopan
Café 5pm,instagram.com,"Cafetería peculiar con una gran terraza llena de plantas, donde se sirven café artesanal, sándwiches y bocadillos ligeros.",+52 33 4304 5569,"Av Guadalupe 5181-B, Jardines de Guadalupe, 45030 Zapopan, Jal., México",Cafetería, Cierra a las 11p.m.,Zapopan
Don Calatrava,doncalatrava.mx,None Found,+52 33 1876 7273,"Av. Paseo Royal Country 4650, Puerta de Hierro, 45116 Zapopan, Jal., México",Restaurante, Abre a las 2p.m. del lun,Zapopan
Taberna del 27,,None Found,+52 33 3656 9516,"C. 5 de Mayo 248, 45100 Zapopan, Jal., México",Restaurante familiar, Cierra a las 11p.m.,Zapopan
Taberna del 27,,None Found,+52 33 3656 9516,"C. 5 de Mayo 248, 45100 Zapopan, Jal., México",Restaurante familiar, Cierra a las 11p.m.,Zapopan
Campomar,campomar.mx,Restaurante tranquilo de mariscos en donde se ofrece un menú variado que incluye pulpo y ostras frescas.,+52 33 3113 5949,"Av Providencia 2422, Providencia, 44630 Guadalajara, Jal., México",Restaurante, Cierra a las 8:30p.m.,Zapopan
La Matera,lamatera.mx,"Restaurante de lujo de carnes, mariscos y pizza al estilo argentino, con una larga lista de vinos.",+52 33 3616 1626,"Av. México 2895, Vallarta Nte., 44690 Guadalajara, Jal., México",Restaurante argentino, Cierra a las 12a.m.,Zapopan
La Matera,lamatera.mx,"Restaurante de lujo de carnes, mariscos y pizza al estilo argentino, con una larga lista de vinos.",+52 33 3616 1626,"Av. México 2895, Vallarta Nte., 44690 Guadalajara, Jal., México",Restaurante argentino, Cierra a las 12a.m.,Zapopan
Rinconcito Ensenada,,None Found,+52 33 3673 2766,"Av. Sebastian Bach 5097, La Estancia, 45030 Zapopan, Jal., México",Restaurante, Abre a las 12p.m. del dom,Zapopan
Rinconcito Ensenada,,None Found,+52 33 3673 2766,"Av. Sebastian Bach 5097, La Estancia, 45030 Zapopan, Jal., México",Restaurante, Abre a las 12p.m. del dom,Zapopan
Café Providencia,m.facebook.com,Local con terraza abierta rodeada de plantas y menú de comida mexicana con toques europeos en entorno casual.,+52 33 3620 2084,"Av Guadalupe 4931, Jardines de Guadalupe, 45030 Zapopan, Jal., México",Restaurante, Cierra a las 12a.m.,Zapopan
Andares Centro Comercial,andares.com,"Centro comercial al aire libre y refinado de 2008 con elementos acuáticos, bares, patio de comidas y cine.",+52 33 3648 2280,"Blvd. Puerta de Hierro 4965, Puerta de Hierro, 45116 Zapopan, Jal., México",Centro comercial, Cierra a las 9p.m.,Zapopan
Caleta Mariscos,bit.ly,None Found,+52 33 3366 9084,"Av. Tepeyac 1137A, Chapalita Sur, 45040 Zapopan, Jal., México",Marisquería, 7:30p.m. ,Zapopan
1000 Caguamas Chapalita,1000caguamas.com,None Found,+52 33 4301 1745,"Av Guadalupe 1583, Chapalita Oriente, 45040 Zapopan, Jal., México",Marisquería, Cierra a las 12a.m.,Zapopan
1000 Caguamas Chapalita,1000caguamas.com,None Found,+52 33 4301 1745,"Av Guadalupe 1583, Chapalita Oriente, 45040 Zapopan, Jal., México",Marisquería, Cierra a las 12a.m.,Zapopan
Cafeto La Estancia,,None Found,+52 33 3673 4737,"Av. Ludwig Van Beethoven # 5296, La Estancia, 45030 Zapopan, Jal., México",Restaurante, Abre a las 8:30a.m. del dom,Zapopan
Mr. Pampas Urbania,mrpampas.com,None Found,+52 33 1446 4774,"Av. México 5000-Local 2, Juan Manuel Vallarta, 45120 Zapopan, Jal., México",Restaurante brasileño, Cierra a las 12a.m.,Zapopan
Boca del Cielo Gran Plaza,bocadelcielo.food,None Found,+52 33 2902 5764,"La Gran Plaza Fashion Mall, La Gran Plaza, 45049 Zapopan, Jal., México",Restaurante, 7:30p.m. ,Zapopan
Itamae Sanzio,itamae.com.mx,None Found,+52 33 1562 9988,"Av Rafael Sanzio 341, La Estancia, 45030 Zapopan, Jal., México",Restaurante japonés, Cierra a las 10:30p.m.,Zapopan
Itamae Sanzio,itamae.com.mx,None Found,+52 33 1562 9988,"Av Rafael Sanzio 341, La Estancia, 45030 Zapopan, Jal., México",Restaurante japonés, Cierra a las 10:30p.m.,Zapopan
Mariscos Mr. Cora,mrcora.com,"Restaurante bar especializado en mariscos estilo Nayarit, en un ambiente tipo palapa con mesas al aire libre.",+52 33 3813 0905,"Av. Abedules 263, Los Pinos, 45120 Zapopan, Jal., México",Marisquería, 7p.m. ,Zapopan
